{"type":"FeatureCollection","features":[{"type":"Feature","properties":{"ADM2_PCODE":"IDN.33.1_1","city_name":"Bantul","city_type":"Kabupaten"},"geometry":{"type":"MultiPolygon","coordinates":[[[[110.3294,-8.0076],[110.34,-8.028],[110.204,-7.9831],[110.2317,-7.9597],[110.2468,-7.929],[110.2562,-7.9234],[110.2695,-7.9278],[110.2727,-7.9163],[110.2731,-7.8923],[110.2571,-7.8665],[110.2211,-7.837],[110.2374,-7.8091],[110.2871,-7.7842],[110.2909,-7.7934],[110.2821,-7.8171],[110.2887,-7.8338],[110.2985,-7.8323],[110.3114,-7.8181],[110.3164,-7.8237],[110.316,-7.8052],[110.3305,-7.8068],[110.3436,-7.7919],[110.351,-7.7679],[110.3446,-7.8073],[110.3515,-7.8254],[110.3752,-7.8244],[110.3876,-7.8399],[110.3954,-7.8367],[110.3934,-7.8263],[110.3979,-7.8334],[110.4051,-7.8305],[110.397,-7.7863],[110.4014,-7.7925],[110.4128,-7.7833],[110.4213,-7.7872],[110.4213,-7.8208],[110.4282,-7.8218],[110.4299,-7.8375],[110.4438,-7.8239],[110.4602,-7.8197],[110.4676,-7.828],[110.4813,-7.8175],[110.5095,-7.8221],[110.5213,-7.8322],[110.4829,-7.8409],[110.4675,-7.8667],[110.4765,-7.89],[110.4951,-7.891],[110.4983,-7.9008],[110.4926,-7.9381],[110.488,-7.9452],[110.4764,-7.9427],[110.4726,-7.9538],[110.4773,-7.9714],[110.4634,-7.9685],[110.4707,-7.9628],[110.4665,-7.9544],[110.4547,-7.9673],[110.449,-7.9471],[110.4435,-7.9668],[110.4329,-7.9643],[110.422,-7.9735],[110.3964,-7.9698],[110.3968,-7.9807],[110.3809,-7.982],[110.3672,-7.9734],[110.3644,-7.9836],[110.3503,-7.9751],[110.3554,-7.9915],[110.3338,-7.997],[110.3294,-8.0076]]]]}},{"type":"Feature","properties":{"ADM2_PCODE":"IDN.33.2_1","city_name":"Gunungkidul","city_type":"Kabupaten"},"geometry":{"type":"MultiPolygon","coordinates":[[[[110.5536,-8.134],[110.5536,-8.134]]],[[[110.5781,-8.1396],[110.5781,-8.1396]]],[[[110.5554,-8.1344],[110.5554,-8.1344]]],[[[110.6718,-8.1799],[110.6718,-8.1799]]],[[[110.6624,-8.1774],[110.6624,-8.1774]]],[[[110.6049,-8.1475],[110.6049,-8.1475]]],[[[110.5857,-8.1455],[110.5857,-8.1455]]],[[[110.8204,-8.2028],[110.8204,-8.2028]]],[[[110.7126,-8.1989],[110.7126,-8.1989]]],[[[110.74470327868852,-8.19530327868852],[110.74470327868852,-8.19530327868852]]],[[[110.74469901960784,-8.195301470588234],[110.7063,-8.1998],[110.7084,-8.1836],[110.6737,-8.1816],[110.603,-8.1453],[110.5954,-8.1494],[110.5478,-8.1284],[110.5463,-8.1355],[110.5278,-8.1316],[110.5148,-8.1214],[110.4365,-8.1002],[110.4089,-8.0793],[110.3752,-8.0716],[110.333,-8.0175],[110.3312,-7.9989],[110.3554,-7.9915],[110.3503,-7.9751],[110.3644,-7.9836],[110.3672,-7.9734],[110.3809,-7.982],[110.3968,-7.9807],[110.3964,-7.9698],[110.422,-7.9735],[110.4329,-7.9643],[110.4435,-7.9668],[110.449,-7.9471],[110.4547,-7.9673],[110.4665,-7.9544],[110.4707,-7.9628],[110.4634,-7.9685],[110.4773,-7.9714],[110.4726,-7.9538],[110.4764,-7.9427],[110.488,-7.9452],[110.4926,-7.9381],[110.4983,-7.9008],[110.4951,-7.891],[110.4765,-7.89],[110.4675,-7.8667],[110.4885,-7.8376],[110.5163,-7.8376],[110.5298,-7.8238],[110.5424,-7.8235],[110.5437,-7.7931],[110.5554,-7.7951],[110.5559,-7.7841],[110.5848,-7.7909],[110.576,-7.803],[110.5861,-7.8028],[110.5858,-7.8086],[110.6001,-7.8067],[110.5987,-7.7999],[110.6075,-7.7966],[110.6249,-7.8036],[110.647,-7.7952],[110.658,-7.8048],[110.6708,-7.7862],[110.6766,-7.7914],[110.6707,-7.8033],[110.6912,-7.8084],[110.7095,-7.8048],[110.7131,-7.7918],[110.7239,-7.7944],[110.7577,-7.8277],[110.7645,-7.8099],[110.7722,-7.8085],[110.7857,-7.8167],[110.7825,-7.8465],[110.7883,-7.855],[110.771,-7.902],[110.7684,-7.9795],[110.7542,-8.0258],[110.7785,-8.0676],[110.7892,-8.1147],[110.787,-8.1532],[110.7993,-8.1626],[110.8186,-8.1443],[110.8164,-8.1536],[110.8332,-8.1736],[110.8346,-8.1898],[110.8287,-8.204],[110.7995,-8.1979],[110.7978,-8.19],[110.74469901960784,-8.195301470588234]]],[[[110.7186,-8.1999],[110.7186,-8.1999]]],[[[110.6764,-8.1854],[110.6764,-8.1854]]],[[[110.6779,-8.1843],[110.6779,-8.1843]]],[[[110.6785,-8.183],[110.6785,-8.183]]]]}},{"type":"Feature","properties":{"ADM2_PCODE":"IDN.33.3_1","city_name":"Kota Yogyakarta","city_type":"Kota"},"geometry":{"type":"MultiPolygon","coordinates":[[[[110.3935,-7.8287],[110.3885,-7.8401],[110.3752,-7.8244],[110.3515,-7.8254],[110.3446,-7.8073],[110.3522,-7.7664],[110.3971,-7.7883],[110.4051,-7.8304],[110.3935,-7.8287]]]]}},{"type":"Feature","properties":{"ADM2_PCODE":"IDN.33.4_1","city_name":"Kulon Progo","city_type":"Kabupaten"},"geometry":{"type":"MultiPolygon","coordinates":[[[[110.1453,-7.9512],[110.0139,-7.8906],[110.031,-7.8967],[110.0347,-7.8853],[110.0424,-7.8849],[110.0424,-7.8634],[110.0594,-7.8413],[110.0623,-7.8144],[110.0808,-7.8066],[110.0954,-7.7832],[110.1127,-7.7769],[110.1298,-7.7472],[110.1309,-7.7017],[110.1379,-7.6934],[110.1179,-7.6683],[110.1308,-7.6546],[110.1424,-7.6449],[110.1463,-7.6501],[110.1925,-7.6448],[110.2053,-7.6518],[110.2137,-7.6463],[110.2405,-7.6543],[110.2554,-7.6423],[110.2661,-7.6495],[110.2608,-7.6861],[110.2709,-7.7043],[110.2329,-7.7134],[110.2165,-7.7383],[110.2204,-7.7767],[110.2361,-7.7987],[110.2284,-7.8059],[110.2334,-7.8246],[110.2211,-7.8364],[110.2571,-7.8665],[110.2727,-7.8909],[110.2707,-7.926],[110.2481,-7.9277],[110.2317,-7.9597],[110.2049,-7.9845],[110.1453,-7.9512]]]]}},{"type":"Feature","properties":{"ADM2_PCODE":"IDN.33.5_1","city_name":"Sleman","city_type":"Kabupaten"},"geometry":{"type":"MultiPolygon","coordinates":[[[[110.2993,-7.8272],[110.2888,-7.8339],[110.2821,-7.8171],[110.2909,-7.7934],[110.2864,-7.784],[110.2539,-7.7961],[110.2334,-7.815],[110.2284,-7.8059],[110.2361,-7.798],[110.2204,-7.7767],[110.2165,-7.7383],[110.2332,-7.7133],[110.2726,-7.7068],[110.3041,-7.6549],[110.3882,-7.5975],[110.416,-7.5612],[110.4461,-7.5418],[110.4597,-7.5699],[110.4918,-7.7668],[110.51,-7.7707],[110.5307,-7.7981],[110.544,-7.7938],[110.5424,-7.8235],[110.5193,-7.8311],[110.5078,-7.8216],[110.4813,-7.8175],[110.4676,-7.828],[110.4602,-7.8197],[110.4299,-7.8375],[110.4282,-7.8218],[110.4213,-7.8208],[110.421,-7.7863],[110.4064,-7.7849],[110.4014,-7.7925],[110.3905,-7.7804],[110.3522,-7.7664],[110.3305,-7.8068],[110.316,-7.8052],[110.3164,-7.8237],[110.3114,-7.8181],[110.3064,-7.8283],[110.2993,-7.8272]]]]}}]}