{"type":"FeatureCollection","features":[{"type":"Feature","properties":{"kode":"14.01","nama":"Kabupaten Kampar","lat":0.32139448332871634,"lng":101.06575454365552},"geometry":{"type":"MultiPolygon","coordinates":[[[[100.744991646947,0.869792147589552],[100.7340569457715,0.876036232286401],[100.7400146188796,0.887372178583254],[100.7586136060332,0.886787253229235],[100.758490332363,0.877468619381292],[100.744991646947,0.869792147589552]]],[[[100.744991646947,0.869792147589552],[100.7585417448057,0.854587646102997],[100.7728444376208,0.863640366609639],[100.8349304912492,0.940970918173376],[100.8479468864397,0.947212592687061],[100.9138685072259,0.959404619827373],[100.9940956177186,0.956433325437642],[100.9932299995649,0.968265556310419],[101.0620579369243,0.924509016977579],[101.0558751320317,0.888092665943782],[101.066072211963,0.897272315864692],[101.0656264539977,0.915159848448274],[101.069603955758,0.909482593846731],[101.0869078652059,0.92027146455653],[101.105774972637,0.90410504281355],[101.119699094038,0.904427967776586],[101.1194868162636,0.896865315981563],[101.1343064375921,0.900733006922769],[101.1618841787119,0.878389411841882],[101.2440123912589,0.8350107001837],[101.261234966021,0.833194022885861],[101.266240144667,0.822601273629894],[101.28524939984,0.824246639970491],[101.3037980402474,0.802228770341548],[101.3146610402748,0.806282999560823],[101.3349769834011,0.797587398040031],[101.3234551634252,0.722473762554118],[101.3111925089272,0.708642626556008],[101.3143294674311,0.697235506113733],[101.3814743235812,0.658077140147936],[101.3232939050898,0.596739975369617],[101.3318081151524,0.586860074632797],[101.3232342656489,0.57996384115839],[101.3379747223556,0.575429799345814],[101.3412224458592,0.581822425064901],[101.3428176902842,0.568107902357815],[101.3535189832145,0.565381462784329],[101.3497075475653,0.56071745094963],[101.3684023970531,0.557683818253649],[101.3697461011017,0.565812658027751],[101.3744960710369,0.554379914101785],[101.3534505735852,0.501824847638696],[101.332248755076,0.476612340587154],[101.3506930984078,0.467140060265622],[101.3642672117624,0.441542850222396],[101.4473410272667,0.420394508999442],[101.4545095637655,0.443925417823829],[101.4804972135756,0.44966208883441],[101.4786952177102,0.461927397231607],[101.4899141226387,0.461805864648943],[101.4960605148809,0.444791687086729],[101.5435997556243,0.432303980844059],[101.5634648263407,0.461062693688438],[101.5830588620769,0.457487055783032],[101.5893923357877,0.464080654798435],[101.5999560441362,0.445735377185949],[101.590420106203,0.435726294233094],[101.5921417728246,0.414204925916659],[101.6135664019679,0.397607327815949],[101.6110523930535,0.382656104195897],[101.6367249995592,0.383334999710547],[101.6343185063941,0.357313751228647],[101.6142703570914,0.340399353447404],[101.6220069701456,0.340819474439266],[101.637042676978,0.318579886852286],[101.666805606094,0.31625246118214],[101.6650608475801,0.278251392288029],[101.6616195620932,0.283628546720058],[101.6531888936526,0.271651482729782],[101.6388329996433,0.268977999734973],[101.5850339639463,0.268114001260164],[101.5893686908125,0.241815886593974],[101.5781937564368,0.234529244828805],[101.5847442221682,0.195743507556864],[101.5695773015513,0.192258072552074],[101.5678164002068,0.20237475039446],[101.5675682997373,0.130883611089791],[101.5584827998414,0.132550917291072],[101.5397762465766,0.11188829990518],[101.5147932896786,0.109969875109714],[101.5037961818484,0.10121464493997],[101.5079656349062,0.094751730008388],[101.495611772965,0.076556446722728],[101.4971118646209,0.065104295426918],[101.5171971748098,0.052959167032027],[101.5222726165881,-0.004992221114078],[101.5340011853065,-0.002530416045834],[101.5466919962387,-0.043654518341343],[101.515135389087,-0.064031582991111],[101.518599992196,-0.100122028708574],[101.4976400544451,-0.10290000033473],[101.4795076211799,-0.073007649783177],[101.4576621452918,-0.067192883444791],[101.4053685432237,-0.086738888189045],[101.3923796214224,-0.09939757713642],[101.3497380417773,-0.104601997883849],[101.3378446929782,-0.079743141132996],[101.2963894728959,-0.049742824271862],[101.2815236686824,-0.00902397897338],[101.2647231871255,0.009374682395721],[101.2504586786252,-0.016767910710483],[101.2427524617568,-0.05650549403329],[101.2325231267409,-0.060023552844671],[101.2201821691718,-0.090590018114847],[101.2086713164282,-0.093935746137744],[101.210091499723,-0.107248791698369],[101.1980242283355,-0.113415605745518],[101.2038523559016,-0.146235200094294],[101.1940494308366,-0.167502899339292],[101.2006832808088,-0.178373441081428],[101.1737071987284,-0.20416252597977],[101.1527154456613,-0.23850287480778],[101.1356839399619,-0.287693724985408],[101.1404137956602,-0.333205663610483],[101.100938664188,-0.379084643441521],[101.0413888929831,-0.376111098048673],[101.0374179526764,-0.350741227625553],[100.9922222219781,-0.315833332841978],[100.9485009270761,-0.312122037601872],[100.9013076986915,-0.325207524107876],[100.8897620475805,-0.341559707114738],[100.8724999997753,-0.344999999750131],[100.8608333331918,-0.332222221678149],[100.8449999996504,-0.342777777672223],[100.8441583331406,-0.330272221685648],[100.8353378958273,-0.324393966808126],[100.8454372230495,-0.31620229140257],[100.8429123907943,-0.290042228066303],[100.813035215403,-0.275734847984735],[100.8018833333492,-0.242552778287999],[100.774723230193,-0.214393123643644],[100.7839092536092,-0.185951881374161],[100.7726129692132,-0.179518234878609],[100.7656182500822,-0.147836272126225],[100.7529857790705,-0.131753196852527],[100.759438126968,-0.122551588185241],[100.756881544148,-0.097004602580311],[100.7480046905641,-0.053545752334541],[100.7364465721516,-0.04922548476827],[100.7380175780489,-0.04086548595337],[100.7583972219543,-0.04364166702924],[100.7669689832321,-0.020835154019119],[100.7809023136909,-0.030064817037603],[100.8059075000312,-0.019713006050351],[100.8050097823757,-0.037835687966561],[100.8165000001749,-0.048833332692125],[100.8165117938842,-0.033627635107239],[100.8288498754215,-0.028350425032],[100.8239166668208,-0.019666666683252],[100.8425594689444,-0.005606851075227],[100.8445606322674,0.033914560408663],[100.8645909642017,0.045248249407257],[100.8331209617631,0.068482935938816],[100.8270613648902,0.055466025436798],[100.8002222216783,0.050222221578375],[100.7742144540339,0.102243990068127],[100.7862588961312,0.106742839610449],[100.787767501669,0.127498542223956],[100.813502084054,0.133932186920946],[100.8208722215759,0.145422222157896],[100.8354213637051,0.140889502348715],[100.849191666862,0.162302777551224],[100.8468749997814,0.206186111400017],[100.8386594302885,0.215184491271289],[100.8430336490836,0.223348073654714],[100.8172616620961,0.259674019440512],[100.8110524459137,0.251631962445151],[100.7991882027734,0.258114518570205],[100.7734854428989,0.25130155242474],[100.7668055557319,0.233611110764206],[100.7393189995722,0.242998999604202],[100.7377777792212,0.236944445229989],[100.7133180002256,0.240308999660696],[100.6995549995636,0.248497000436229],[100.6868501169394,0.190278760956117],[100.6727017073181,0.18527117842215],[100.6706070315893,0.195968983781578],[100.6264166772879,0.219444470985605],[100.6256944560344,0.234166702031688],[100.5877868671702,0.251505704824437],[100.5818535117303,0.279152612802866],[100.559017811223,0.304660428436085],[100.5340500303846,0.304379891219073],[100.5316374128364,0.317396802620371],[100.5236140581424,0.319157170666903],[100.4959671501639,0.305018113095487],[100.470845072642,0.311330191934831],[100.45304500902,0.342890590628306],[100.429311589958,0.360438171384578],[100.4370123272571,0.384297830980193],[100.4606666428513,0.40138891316783],[100.4610771950566,0.411574067189521],[100.4458333086603,0.417777775923708],[100.4653225266134,0.433470915950027],[100.4617495264196,0.445834368261552],[100.4805773811413,0.440940942970178],[100.4938333916977,0.453892726368307],[100.5045951964113,0.441994823402434],[100.5311862472475,0.446226615665799],[100.5556181445618,0.472114322917713],[100.5424205449722,0.50192548087635],[100.5711858669343,0.528065504619432],[100.5812372620901,0.515234978611476],[100.602989816427,0.508263890965852],[100.6662220793855,0.435572493076128],[100.7194968732822,0.38991787161253],[100.7400348032636,0.397364619681559],[100.7585071802622,0.391471793088824],[100.7699297600504,0.40213169022538],[100.7867205927812,0.404170893072317],[100.7941748933567,0.388035682300922],[100.8142716878882,0.380519052412451],[100.8324189869467,0.385853266914824],[100.8391857926902,0.37661106105171],[100.8404832733844,0.459916952905035],[100.8629191380079,0.463416795049129],[100.8659031389188,0.473122032156079],[100.8544576471028,0.502426876299397],[100.8631975303418,0.513677697267953],[100.8617308269162,0.533942451882671],[100.8417110791031,0.538607368435359],[100.8299425957743,0.533142015691476],[100.823236961017,0.539377990302034],[100.8120096042599,0.534310974272076],[100.8030831170923,0.541135417565483],[100.7969636604446,0.53331497600537],[100.7672837360556,0.564531230232143],[100.7597854964036,0.589700815340352],[100.7480328438408,0.585899690418421],[100.7375002754175,0.595375988910815],[100.7074282574082,0.599805674292517],[100.6936954272022,0.592503006608533],[100.684567217603,0.599638960669521],[100.6743361343052,0.595563907648275],[100.6432865586278,0.62186197914704],[100.6385354078828,0.654844563925502],[100.6196294470414,0.665482645307877],[100.6131114720169,0.683789634284279],[100.5872066848407,0.697488049234193],[100.6190695669071,0.722390937691683],[100.6479660423989,0.733158901861872],[100.6740969937813,0.76637444162728],[100.7038419454495,0.758482303415617],[100.7036318800073,0.781463277708136],[100.6859357168599,0.781635707422021],[100.6858568921819,0.801163840838656],[100.7127095342177,0.801134147023339],[100.7128862492011,0.813926598433776],[100.7217622844019,0.814062641577726],[100.7214820115856,0.838630273568272],[100.7483114169384,0.851126749100237],[100.7399888685914,0.858494326252154],[100.744991646947,0.869792147589552]]]]}},{"type":"Feature","properties":{"kode":"14.02","nama":"Kabupaten Indragiri Hulu","lat":-0.5414319300525708,"lng":102.33188543087458},"geometry":{"type":"MultiPolygon","coordinates":[[[[102.7169289127392,0.093504723764079],[102.716845136394,-0.163883847561477],[102.6898963640261,-0.162987262152361],[102.6900141581269,-0.240160115796664],[102.690330713192,-0.246033163599593],[102.716849562857,-0.244718406928859],[102.7201462229699,-0.46209361782619],[102.7073580082655,-0.477276159666998],[102.692075424941,-0.469206027636007],[102.6863700332505,-0.512558215589179],[102.7056986628631,-0.527702524551879],[102.7185661096383,-0.558418609131442],[102.6860855821839,-0.563988875885871],[102.6906444632715,-0.652939930033705],[102.6508633914324,-0.681093259746104],[102.6408745270378,-0.707813196921483],[102.6373700264057,-0.744594809402857],[102.6678619342809,-0.763369227307889],[102.6766123377892,-0.777666970254456],[102.628822393039,-0.817844218635758],[102.5804955332423,-0.873183702166072],[102.5658798763553,-0.905367385896108],[102.574641694059,-1.006809221967922],[102.6013656853782,-1.0425184351776],[102.608027049209,-1.101335540402795],[102.5861111384183,-1.095555555344577],[102.5521917550455,-1.104702169569441],[102.5419443994145,-1.086944456821184],[102.5370105082284,-1.100177736113642],[102.5086111482859,-1.083611143039745],[102.4799803747945,-1.0890513462426],[102.4679544623286,-1.080901332830189],[102.4741836749367,-1.07062432475267],[102.440677610983,-1.030870767671724],[102.429595178175,-1.037037531356935],[102.4087893644377,-1.033216464867939],[102.404370363002,-1.039884127550364],[102.3875852031946,-1.028406637855975],[102.3844444405585,-1.038055547725294],[102.3746273412788,-1.034205784769052],[102.3732462955801,-1.011791207997772],[102.3830555563689,-0.993611137643827],[102.3575059969043,-0.967781263094805],[102.3234758314445,-0.961865457924452],[102.3037654054492,-0.918575216173226],[102.2571764333458,-0.919821526342337],[102.2464102192563,-0.933569249321378],[102.2361679286071,-0.930368652091554],[102.2213888819913,-0.946111107341688],[102.2029025511119,-0.947092677784747],[102.1902778097732,-0.944999971571361],[102.1889965951168,-0.916328376953038],[102.1747464361992,-0.917241233795865],[102.1664531284092,-0.899762103138515],[102.1591743736984,-0.904969156201554],[102.1441832048911,-0.899050846419394],[102.138942524378,-0.912211938030419],[102.1172222197298,-0.921111085807949],[102.065615309399,-0.889481295425368],[102.0483333362146,-0.900295876853166],[102.011944478355,-0.877777754839462],[101.9861111162351,-0.881111130674109],[101.9623803348846,-0.917321443429822],[101.9488121786392,-0.907694209020418],[101.9267743512554,-0.915176418257049],[101.9303328318948,-0.908769389895417],[101.9159627187046,-0.883061827641177],[101.8537466743696,-0.877232072302261],[101.8619524160712,-0.859663111962996],[101.8742869264006,-0.871001903714832],[101.8810406101361,-0.853100424444955],[101.8965136051188,-0.844498832654919],[101.8935402620735,-0.825860183600538],[101.861268735264,-0.834673930857191],[101.8608256689695,-0.8164787294098],[101.8402773167449,-0.814074314577942],[101.8276236298267,-0.845821485373202],[101.8167024661459,-0.850159786145158],[101.7906781347881,-0.823779608342148],[101.7865790707675,-0.804129302924908],[101.7770541135566,-0.797224059142978],[101.7947048744305,-0.739779194354265],[101.7973829997257,-0.675938999585115],[101.7828030845947,-0.650887707701456],[101.827591999771,-0.619298000102544],[101.8306460003127,-0.571767999893227],[101.8657909995551,-0.564714000150948],[101.8875999998401,-0.54373600041602],[101.912277778097,-0.533555556143897],[101.9138888892609,-0.399722221902968],[101.8987097216763,-0.38676527819497],[101.957814000216,-0.401780520054887],[101.9853248398695,-0.394491690239265],[102.0165195967021,-0.353589914742683],[102.047149957005,-0.341840246130401],[102.0480304580393,-0.313969438438802],[102.0871874075728,-0.298003519646686],[102.0872397643037,-0.288311651861209],[102.1433951946326,-0.287547183155892],[102.149437967888,-0.269148807771183],[102.1622999998452,-0.2649611110664],[102.1750891201669,-0.247707989931792],[102.2143986558733,-0.165304496705135],[102.4146666003834,-0.16552781995294],[102.4484166000461,-0.143361090042207],[102.4674166803356,-0.117027810085338],[102.5334723603612,0.068194439721678],[102.5486110800374,0.077638859945425],[102.5830000803894,0.088194420436169],[102.6954446108801,0.085931250426905],[102.7169289127392,0.093504723764079]]]]}},{"type":"Feature","properties":{"kode":"14.03","nama":"Kabupaten Bengkalis","lat":1.4119064602346694,"lng":101.6428613308168},"geometry":{"type":"MultiPolygon","coordinates":[[[[102.3151156320808,1.550928470572474],[102.317606066167,1.550466177672069],[102.3184444015879,1.549897553429355],[102.3138483218426,1.550440538899808],[102.3151156320808,1.550928470572474]]],[[[102.311543748845,1.551326859447075],[102.3126850559706,1.551374634132083],[102.3130217738359,1.550784534078995],[102.310116541845,1.551721025105321],[102.311543748845,1.551326859447075]]],[[[102.2787506871945,1.555116505422502],[102.2779488417657,1.555248045660848],[102.2774862853639,1.555847762164506],[102.2781717396341,1.555619114030923],[102.2787506871945,1.555116505422502]]],[[[102.2759151157901,1.556284474748734],[102.2768165629341,1.555727107320168],[102.2748029359069,1.556047560946203],[102.2751956824349,1.556442589054294],[102.2759151157901,1.556284474748734]]],[[[102.2716771370903,1.557736390621953],[102.2742327000791,1.556843824283158],[102.2745770423967,1.556087535811132],[102.2709829989663,1.557994845885544],[102.2716771370903,1.557736390621953]]],[[[102.0437795048203,1.606916617108231],[102.185964861789,1.569030317894901],[102.3551572339193,1.547281799715369],[102.4635727809591,1.51585030894463],[102.4961606586875,1.468941980388136],[102.4867738670204,1.440615271277787],[102.4955342691912,1.430178768435406],[102.4922712500182,1.38101475762504],[102.5067923368969,1.288770562411587],[102.5045999444319,1.251521726046898],[102.398831343192,1.32273318518836],[102.2931399406558,1.429655718236875],[102.1647439605654,1.442663179562162],[102.1253901503352,1.456186865231698],[102.0809335544401,1.484822146125195],[102.0310523675728,1.533526416311146],[101.9988371715983,1.584328859689174],[102.0102421336676,1.602869570774176],[102.0437795048203,1.606916617108231]]],[[[101.7252287309213,1.671137983231416],[101.7627830004352,1.658935776664825],[101.8489793124454,1.580650499421063],[101.9245740429578,1.529146712550775],[102.0042832087032,1.459214289907626],[102.0899722581132,1.401368415619883],[102.1485605614209,1.379147853190974],[102.1585657700943,1.361964296415172],[102.1505194089436,1.271332261874411],[102.168570658609,1.228508617179022],[102.1651885089426,1.201749535212945],[102.1481340003839,1.204465000359464],[102.1491276334336,1.187311546590683],[102.1018530002158,1.148483999836822],[102.0946299998747,1.120367000037012],[102.0769969997118,1.122663999843818],[102.0667989997741,1.113840000315777],[102.0653149996875,1.093084000026609],[102.0375910000247,1.087397000371324],[102.0332890003871,1.03221699991469],[102.0202560001144,1.032248999591731],[101.9789562899009,0.980016162915673],[101.9540785177095,1.006165237435861],[101.9488240002275,1.031181999849482],[101.9101111107392,1.089083332629778],[101.8872369983888,1.176158993642693],[101.8568419996587,1.201519000301696],[101.7769999653762,1.211972280896065],[101.7127500178991,1.211777819590695],[101.5989975323103,1.034027184107275],[101.547525513092,0.921668478617407],[101.5245051556884,0.931502172187512],[101.5154733417215,0.953639620172384],[101.4561679082224,0.985032384337112],[101.4551349855911,1.004422973641381],[101.4333701698975,1.016147102406892],[101.4225161792783,1.013974969869055],[101.4167788661518,1.022878491049559],[101.3918205533759,1.020757108154077],[101.3644521654352,1.032024515319138],[101.3397179790016,1.028183921850554],[101.2822742023926,1.059690686775847],[101.2761663281137,1.045066563671002],[101.2313217619898,1.006782402585868],[101.1926498069432,0.999595071155676],[101.169855592162,1.012286250809888],[101.1281299864098,1.020135587587331],[101.0788571792155,1.002965554816557],[100.9840277775599,1.082027777959668],[100.992371747758,1.207011999104532],[100.9788668039599,1.263801747352852],[100.9872861391441,1.270114485395288],[100.9883219270154,1.298087171885529],[100.9676696869066,1.330943999066323],[100.9734466673299,1.348791110721168],[101.0211652868485,1.352655938220979],[101.066659563688,1.377873603783828],[101.1052923658501,1.410722013310314],[101.1241592277662,1.413896936694334],[101.1772611944486,1.451901015619425],[101.2092926976,1.456633134011939],[101.2089574492269,1.465373410254697],[101.2426995258625,1.480921091235407],[101.255984372281,1.463526768445631],[101.2657553723127,1.4652283100385],[101.2644886933985,1.490113142807312],[101.2770975527099,1.490000322856686],[101.2773695508642,1.467448419608905],[101.3171362722213,1.474679412225141],[101.4356433412672,1.447194944291327],[101.4493252419664,1.494308270610231],[101.5066432214076,1.493310277647295],[101.5280854008207,1.5955543368632],[101.5980444829666,1.600172017424681],[101.6111110000726,1.57961100004764],[101.6182727206097,1.545494324303684],[101.6406805713513,1.547858596996685],[101.6422977448451,1.562215804915487],[101.6242543237781,1.588621605302906],[101.6421669996075,1.609861000185051],[101.7185305560404,1.622686111374991],[101.7252287309213,1.671137983231416]]],[[[101.4311711611203,1.748261955125161],[101.4301285078245,1.746372651276859],[101.4319744328738,1.754450353800882],[101.4320423523727,1.751249531740504],[101.4311711611203,1.748261955125161]]],[[[101.4156184142584,1.752889075870209],[101.4145191027744,1.754345305791302],[101.415340017428,1.756137040392167],[101.4157683195524,1.754787884653217],[101.4156184142584,1.752889075870209]]],[[[101.4168319387431,1.753724266361909],[101.4165178514178,1.753581498987009],[101.416410775437,1.756601034809899],[101.4168604931173,1.755466031931904],[101.4168319387431,1.753724266361909]]],[[[101.4109477141657,1.751761410560635],[101.4089648187714,1.754077135151741],[101.4118391023927,1.756601990789283],[101.4120592411411,1.755161683365023],[101.4109477141657,1.751761410560635]]],[[[101.4176053781857,1.745330929678721],[101.4164430116357,1.745989651601151],[101.4155809700858,1.767203337564036],[101.4190477540507,1.7601195612688],[101.4176053781857,1.745330929678721]]],[[[101.3801925180703,1.764334332063841],[101.3718768927045,1.786096521737177],[101.3806844760078,1.791053951778496],[101.3814996350002,1.772842126363125],[101.3801925180703,1.764334332063841]]],[[[101.3811725650619,1.803376983161284],[101.3806980719585,1.791487571594194],[101.3721168399203,1.787784506050214],[101.3729560701666,1.801863997925254],[101.3811725650619,1.803376983161284]]],[[[101.4007942099849,1.828341781847806],[101.4114600561368,1.797636734647698],[101.405487480363,1.757538948563672],[101.393530816594,1.793330686262193],[101.3937405142134,1.822175763700537],[101.4007942099849,1.828341781847806]]],[[[101.4065552544215,1.835840318276125],[101.4034501948706,1.84157875285724],[101.4033802348101,1.844165793017025],[101.4060512401727,1.841236186700732],[101.4065552544215,1.835840318276125]]],[[[101.3586507351434,1.888661925807275],[101.3662255565642,1.883151616853704],[101.3687519797201,1.87112321776228],[101.3542052351836,1.882424994318052],[101.3586507351434,1.888661925807275]]],[[[101.5794994587331,2.07735906067221],[101.5792972560636,2.075652116851787],[101.5710164020853,2.069887662185918],[101.5736114003459,2.073577721734507],[101.5794994587331,2.07735906067221]]],[[[101.5774570003404,2.078398994418082],[101.576649641168,2.076872895268009],[101.5710260077441,2.074742770062807],[101.5725596054415,2.077033753405042],[101.5774570003404,2.078398994418082]]],[[[101.5537858350483,2.099662745639217],[101.5535300939388,2.089865787576104],[101.5427029193044,2.093524072278205],[101.5493807470239,2.09873626316803],[101.5537858350483,2.099662745639217]]],[[[101.574486259933,2.103610294579481],[101.575493261405,2.102660769678819],[101.5761560869339,2.10045616621912],[101.5745231815996,2.102262718949374],[101.574486259933,2.103610294579481]]],[[[101.6323057058437,2.108519610891355],[101.6284435736121,2.108185830211903],[101.6354763088846,2.111995488800764],[101.6347078139145,2.110095517194408],[101.6323057058437,2.108519610891355]]],[[[101.635144085831,2.114857815935542],[101.6363361309078,2.120678615825542],[101.6412107882473,2.12200730209535],[101.6409115559237,2.117918609056632],[101.635144085831,2.114857815935542]]],[[[101.6307389051764,2.113602665430767],[101.6283129228032,2.120748038091522],[101.6395934276946,2.124128708373194],[101.6356222814432,2.120153193215321],[101.6348106855647,2.115408945666372],[101.6307389051764,2.113602665430767]]],[[[101.6677300021379,2.117868452067492],[101.7096560137141,2.090778610244756],[101.7214503318674,2.04421411139217],[101.7393067524048,2.040159958615215],[101.7756677852402,1.989549409877364],[101.7815704881875,1.967423129673771],[101.7850353538986,1.938310264707008],[101.7743281416305,1.9334479811395],[101.773849269728,1.918382141622585],[101.7531722829746,1.889990296415098],[101.7320666622467,1.764104913211215],[101.6144820386152,1.688277139578373],[101.5560313981306,1.696055488370105],[101.4575373904382,1.724501419704813],[101.4283039290831,1.780247769119311],[101.4139071599875,1.845788535112833],[101.3830421126035,1.909730927040718],[101.3989447577945,1.949726472798583],[101.3965011765881,1.996384915731328],[101.4055053382009,2.021033069420605],[101.438802114626,2.052451184574553],[101.4741060438589,2.065731430061499],[101.5079088723967,2.049590401575793],[101.5165228352606,2.027761227698496],[101.5549595978072,2.046734338219222],[101.5636090955833,2.043199468380783],[101.5733114512625,2.069199573801336],[101.5999452378825,2.097054782752059],[101.6351515430094,2.108900914445686],[101.6556656121783,2.125802363788162],[101.6677300021379,2.117868452067492]]]]}},{"type":"Feature","properties":{"kode":"14.04","nama":"Kabupaten Indragiri Hilir","lat":-0.23344038798816516,"lng":103.16381105606023},"geometry":{"type":"MultiPolygon","coordinates":[[[[103.5003478731559,-0.515820061146924],[103.5015843357485,-0.516004205429679],[103.5022781384254,-0.516449559599399],[103.4998110255584,-0.515852536565278],[103.5003478731559,-0.515820061146924]]],[[[103.5513749150204,-0.49782846711002],[103.5511882517365,-0.497285571571807],[103.5519615670727,-0.49658318396675],[103.552165282402,-0.496794216180055],[103.5513749150204,-0.49782846711002]]],[[[103.5587752050117,-0.491340824419487],[103.5549502489549,-0.494228957600276],[103.5531658483253,-0.493373137560196],[103.5550835734482,-0.49298842827328],[103.5574065960377,-0.491380267785038],[103.5587752050117,-0.491340824419487]]],[[[103.5994371493051,-0.396739074448663],[103.5990351001897,-0.396696026600265],[103.5985874455542,-0.396242890596879],[103.5992163288706,-0.396337966024232],[103.5994371493051,-0.396739074448663]]],[[[103.5498283302133,-0.176369071675245],[103.5664297198558,-0.180733858380824],[103.5675619968887,-0.19430814530457],[103.5314542023497,-0.205446415219848],[103.5126235948031,-0.197799607565832],[103.4787710382529,-0.201720482614112],[103.5159820976957,-0.181493194655127],[103.5498283302133,-0.176369071675245]]],[[[103.5991580114331,-0.117253404121234],[103.5964093199343,-0.120122658733715],[103.5896117897524,-0.120993767248548],[103.5988571648264,-0.116461679662708],[103.5991580114331,-0.117253404121234]]],[[[103.5141912714101,-0.105602612370584],[103.5034720424009,-0.106432280125615],[103.5011043513847,-0.119734242441252],[103.4731660792512,-0.107194285587722],[103.5003381577798,-0.086381683767625],[103.5136538653336,-0.095237027366826],[103.5141912714101,-0.105602612370584]]],[[[103.5809087463416,-0.078292493303847],[103.5924480653261,-0.092125698642034],[103.5807023843077,-0.10446569843319],[103.5353230066515,-0.122454516262829],[103.5047285418888,-0.118491993610606],[103.5040394480622,-0.107064199553156],[103.5120524920289,-0.107054020126876],[103.5189480024485,-0.10464716903156],[103.5149466659559,-0.094846697317122],[103.5236416163676,-0.089768340836185],[103.5506359573836,-0.078668287611341],[103.5809087463416,-0.078292493303847]]],[[[103.6682684447329,-0.021322889639544],[103.6679960427832,-0.021110060580812],[103.6670257633283,-0.019046805365777],[103.6683518307725,-0.019953454188551],[103.6682684447329,-0.021322889639544]]],[[[103.6604970333115,-0.016578375891266],[103.6630907032734,-0.01702913498656],[103.6664595960336,-0.020733754559091],[103.653796334933,-0.016914245695856],[103.6604970333115,-0.016578375891266]]],[[[103.6631764626237,-0.016423339065755],[103.6623884784456,-0.016499074572598],[103.6625238030311,-0.015777588065172],[103.6628007888254,-0.01574758758103],[103.6631764626237,-0.016423339065755]]],[[[103.6686935974316,-0.050255348805253],[103.6483170004293,-0.044636999797623],[103.641030740876,-0.02395720536075],[103.6353866172986,-0.016599812131604],[103.6622305700848,-0.022164909582825],[103.6771391676385,-0.034937328594767],[103.6793961925803,-0.044687530904744],[103.6686935974316,-0.050255348805253]]],[[[103.6246981064325,-0.015236648552433],[103.6389818055659,-0.021914510446289],[103.6475232309125,-0.049511774049085],[103.6261782763064,-0.045902137273737],[103.5994225497109,-0.020559072942808],[103.6146554257074,-0.008843578568277],[103.6246981064325,-0.015236648552433]]],[[[103.5671446745871,0.440037475948804],[103.5816768968713,0.428701909165794],[103.5882247608641,0.40769370030411],[103.5608765123412,0.42241663192206],[103.5389557371177,0.446640683320895],[103.5671446745871,0.440037475948804]]],[[[103.4883497524392,0.460045176443755],[103.4879699183771,0.460239487562417],[103.4886173825862,0.460740106870469],[103.4888340319651,0.460350293930942],[103.4883497524392,0.460045176443755]]],[[[103.4877341413176,0.460267361149855],[103.4876710637687,0.460907446421574],[103.488088111777,0.461308134862579],[103.4881756481877,0.461040730445392],[103.4877341413176,0.460267361149855]]],[[[103.3558046241841,0.535142947888831],[103.4211697750652,0.517058607668661],[103.4879448290906,0.459978553767312],[103.5306146078779,0.440877186433061],[103.5852689941689,0.393253156707926],[103.6028718139831,0.345793810835746],[103.6564768650153,0.334442755928441],[103.7099006091259,0.300011496433436],[103.7577797648244,0.210974889779367],[103.7806805924354,0.075022063917205],[103.8135773531124,-0.003593513629665],[103.8077279296003,-0.011676162424903],[103.7621175745664,-0.009216314281415],[103.6846955106893,-0.027664601140367],[103.6627852494398,-0.01531222397986],[103.6296581544004,-0.015901193585213],[103.6140951588645,-0.006117755929649],[103.5694995466668,-0.035518286139949],[103.5950200679218,-0.037272324757945],[103.5810996706134,-0.062099698042564],[103.5143659818047,-0.091497286570499],[103.5027403557829,-0.083531162932784],[103.4921211107008,-0.084935094578922],[103.4732100785823,-0.102422404570282],[103.4691901243248,-0.12000483765309],[103.496127858414,-0.133520891675756],[103.5014604217611,-0.145666103707656],[103.4555905898339,-0.183764195061523],[103.4712870627478,-0.209642547565439],[103.5115260927551,-0.201619849376547],[103.5305398931017,-0.223615742272612],[103.5567198764212,-0.215992822410785],[103.6392536229564,-0.225259256909085],[103.6651873620072,-0.253703263694563],[103.6910447863879,-0.260845000396406],[103.7088230783224,-0.256383115688211],[103.7594421526333,-0.300159646050771],[103.7856894241277,-0.341953936624842],[103.715564891007,-0.350108675974584],[103.6651879906333,-0.366036941951256],[103.6225634315572,-0.390084022959217],[103.6014226428408,-0.396098948707449],[103.5908581619747,-0.391342832805444],[103.5841086394023,-0.400894974723245],[103.6062401131907,-0.420492105925943],[103.6063840667713,-0.43612026723652],[103.5437123701298,-0.503540907686675],[103.5105330802375,-0.516569103781064],[103.4562998698431,-0.505857706068261],[103.4213733527981,-0.521889415663937],[103.4212586136941,-0.529704681625701],[103.4374355943772,-0.537311514414787],[103.438053900767,-0.552694868573303],[103.4237894902927,-0.599272663902253],[103.4315438199914,-0.603803705576558],[103.430955232598,-0.617869884787295],[103.4173903759651,-0.635303855988115],[103.4066766750886,-0.637162113440739],[103.406619007861,-0.647484476127572],[103.422487229702,-0.656003326692181],[103.4250777664258,-0.669935377415667],[103.4045275220276,-0.692184124597686],[103.4061574533039,-0.706341917745215],[103.4370174366055,-0.710956806811128],[103.4279422960002,-0.734242271763355],[103.4411381580996,-0.731699880245243],[103.4457716055752,-0.75000000109913],[103.4372219937001,-0.778055998985108],[103.4088890037246,-0.769999985410921],[103.4016726421788,-0.787271187415309],[103.3527779972069,-0.799166985967561],[103.3463890272319,-0.779166952193025],[103.3122222385655,-0.764722207863569],[103.302544852563,-0.765531120164978],[103.3014915270125,-0.781257661012161],[103.2907627885719,-0.77185328040448],[103.2775967354011,-0.776335857613633],[103.2082499683614,-0.757056027913341],[103.1118329521291,-0.746610969820408],[103.0808333283954,-0.761944493443581],[103.003611149635,-0.754722216157313],[102.9277777714271,-0.866111088256075],[102.8600000290781,-0.927777772725927],[102.7857908147943,-0.97922209102668],[102.7692851687756,-1.011581742403481],[102.7808655418114,-1.032240945063537],[102.75317419923,-1.023824092907491],[102.7510394209327,-1.043955073367878],[102.7316666768757,-1.049722258375477],[102.7290120679526,-1.080179041429544],[102.7149110040397,-1.074304200378487],[102.7101992022315,-1.081781535289553],[102.7046925076532,-1.075000007644158],[102.691311565976,-1.085486596429222],[102.6815772798676,-1.081396834995887],[102.6831926493214,-1.095923571415616],[102.6435813793772,-1.119166645024608],[102.6438889124434,-1.12694446231705],[102.6347496906457,-1.125647800905297],[102.63021845202,-1.107467229628936],[102.6066666456493,-1.097777759435983],[102.6013656853782,-1.0425184351776],[102.574641694059,-1.006809221967922],[102.5645700146945,-0.918165442780852],[102.5804955332423,-0.873183702166072],[102.628822393039,-0.817844218635758],[102.6766123377892,-0.777666970254456],[102.6678619342809,-0.763369227307889],[102.6373700264057,-0.744594809402857],[102.6408745270378,-0.707813196921483],[102.6508633914324,-0.681093259746104],[102.6906444632715,-0.652939930033705],[102.6860855821839,-0.563988875885871],[102.7185661096383,-0.558418609131442],[102.7056986628631,-0.527702524551879],[102.6863700332505,-0.512558215589179],[102.692075424941,-0.469206027636007],[102.7073580082655,-0.477276159666998],[102.7201462229699,-0.46209361782619],[102.716849562857,-0.244718406928859],[102.690330713192,-0.246033163599593],[102.6900141581269,-0.240160115796664],[102.6898963640261,-0.162987262152361],[102.716845136394,-0.163883847561477],[102.7169289127392,0.093504723764079],[102.7873658325671,0.118334583674182],[102.8469408333529,0.152182721855196],[103.073559332897,0.31337041731094],[103.211369970148,0.368760556954248],[103.2691189442839,0.437991056042472],[103.35160561131,0.48476655563203],[103.3473602033108,0.538497455093554],[103.3558046241841,0.535142947888831]]]]}},{"type":"Feature","properties":{"kode":"14.05","nama":"Kabupaten Pelalawan","lat":0.21750886847275797,"lng":102.28038767796743},"geometry":{"type":"MultiPolygon","coordinates":[[[[103.1694661772224,0.423941008870463],[103.1560460170102,0.408084281264662],[103.1496079719304,0.402662392755213],[103.1717314237663,0.428262111007635],[103.1694661772224,0.423941008870463]]],[[[103.0382548685674,0.660094535334574],[103.054436246036,0.652280973588157],[103.0838198033414,0.590698733659709],[103.069371485106,0.564105865293493],[103.0284611570568,0.636906835681936],[103.0382548685674,0.660094535334574]]],[[[102.9694760413862,0.655480313565635],[102.966272533051,0.657931530016162],[102.9646980782538,0.661045982086447],[102.9677231565985,0.659096227608844],[102.9694760413862,0.655480313565635]]],[[[103.1087865778384,0.666454861003116],[103.1140881703328,0.648687974270709],[103.1040363147243,0.630320489698841],[103.0936800008315,0.65110377002304],[103.1087865778384,0.666454861003116]]],[[[102.9678455201547,0.675534991047064],[102.9731530023093,0.672477205258845],[102.9745219161536,0.66758259106374],[102.9664152185876,0.672755519351773],[102.9678455201547,0.675534991047064]]],[[[102.9678713001205,0.677661184416165],[102.9633443278784,0.68017253763257],[102.9622092053906,0.683000362276973],[102.9656622612044,0.681271224087807],[102.9678713001205,0.677661184416165]]],[[[103.3028963750677,0.684648163082288],[103.3026641386391,0.684897530696579],[103.3027450407511,0.685068852445633],[103.3027850156161,0.685056478673582],[103.3028963750677,0.684648163082288]]],[[[103.2065358443538,0.702168224583952],[103.2490188942066,0.686778535600949],[103.2793565062978,0.654968828648547],[103.2990798537523,0.613330327632619],[103.2999956693647,0.552793892224399],[103.2847642907395,0.529638147282727],[103.204573383355,0.519863472621227],[103.1689726148943,0.498485054241923],[103.1471148722536,0.527507415035286],[103.1385385765941,0.557743522445639],[103.1494788068015,0.664713006400161],[103.1623819054006,0.685029442354887],[103.2065358443538,0.702168224583952]]],[[[103.2879765368878,0.708678906106661],[103.2876866835936,0.70876923041576],[103.2874240581738,0.710391262047169],[103.28830971682,0.709526832797211],[103.2879765368878,0.708678906106661]]],[[[103.275401483092,0.72377631092799],[103.2760647636779,0.723058762551895],[103.2736824352962,0.723736088749513],[103.2747940090363,0.723894769627995],[103.275401483092,0.72377631092799]]],[[[102.900065790304,0.723706788837239],[103.0202223014181,0.591982613007255],[103.0309940472375,0.568509670884618],[103.0959421716939,0.494547712606883],[103.107335594562,0.45581157024783],[103.0757045010619,0.441409249637223],[103.1104919838181,0.384982020803657],[103.1368860021874,0.390293349358581],[103.1583496915851,0.406462954701611],[103.1768329611723,0.429592850429758],[103.1960649127656,0.474845258202114],[103.2469644541462,0.501623666598958],[103.2949862288315,0.510404179409393],[103.3256136069824,0.544652357620221],[103.3473602033108,0.538497455093554],[103.35160561131,0.48476655563203],[103.2691189442839,0.437991056042472],[103.211369970148,0.368760556954248],[103.073559332897,0.31337041731094],[102.8979221968519,0.185932181025381],[102.7873658325671,0.118334583674182],[102.6954446108801,0.085931250426905],[102.5830000803894,0.088194420436169],[102.5334723603612,0.068194439721678],[102.4674166803356,-0.117027810085338],[102.4484166000461,-0.143361090042207],[102.4146666003834,-0.16552781995294],[102.2143986558733,-0.165304496705135],[102.1750891201669,-0.247707989931792],[102.1622999998452,-0.2649611110664],[102.149437967888,-0.269148807771183],[102.1433951946326,-0.287547183155892],[102.0872397643037,-0.288311651861209],[102.0871874075728,-0.298003519646686],[102.0480304580393,-0.313969438438802],[102.047149957005,-0.341840246130401],[102.0165195967021,-0.353589914742683],[101.9853248398695,-0.394491690239265],[101.957814000216,-0.401780520054887],[101.8987097216763,-0.38676527819497],[101.865576307101,-0.402041994342531],[101.8498613953872,-0.395276710251904],[101.8414952101359,-0.377215077913531],[101.8348079728097,-0.377951759366171],[101.8387264691513,-0.372048554597074],[101.8270119550377,-0.368766932048262],[101.8299376915712,-0.360410134819825],[101.8112183769266,-0.335961013689781],[101.8045981184085,-0.338123883210597],[101.8029981957102,-0.328136776091339],[101.7903449377687,-0.337529505082548],[101.7610140969231,-0.336406211377474],[101.7602536607779,-0.293158844804767],[101.7299774004367,-0.283909642216143],[101.7143419609128,-0.261751308376093],[101.6918135884265,-0.257899956317845],[101.6803226178946,-0.24150323258805],[101.6657702597897,-0.236474527677258],[101.6401037012249,-0.242856048567733],[101.6240735897245,-0.228860217924678],[101.6144290082921,-0.233821928738978],[101.5956429198849,-0.195399128167198],[101.5627304606423,-0.16976574109602],[101.5490455930798,-0.12779344501144],[101.5128069966456,-0.106564557808023],[101.5189014143688,-0.099576028710738],[101.515135389087,-0.064031582991111],[101.5466919962387,-0.043654518341343],[101.5340011853065,-0.002530416045834],[101.5222726165881,-0.004992221114078],[101.5171971748098,0.052959167032027],[101.4971118646209,0.065104295426918],[101.495611772965,0.076556446722728],[101.5079656349062,0.094751730008388],[101.5037961818484,0.10121464493997],[101.5147932896786,0.109969875109714],[101.5397762465766,0.11188829990518],[101.5584827998414,0.132550917291072],[101.5675682997373,0.130883611089791],[101.5678164002068,0.20237475039446],[101.5695773015513,0.192258072552074],[101.5847442221682,0.195743507556864],[101.5781937564368,0.234529244828805],[101.5893686908125,0.241815886593974],[101.5850339639463,0.268114001260164],[101.6388329996433,0.268977999734973],[101.6531888936526,0.271651482729782],[101.6616195620932,0.283628546720058],[101.6650608475801,0.278251392288029],[101.666805606094,0.31625246118214],[101.637042676978,0.318579886852286],[101.6220069701456,0.340819474439266],[101.6142703570914,0.340399353447404],[101.6343185063941,0.357313751228647],[101.6367249995592,0.383334999710547],[101.6110523930535,0.382656104195897],[101.6135664019679,0.397607327815949],[101.5921189300447,0.414244900781588],[101.590420106203,0.435726294233094],[101.5999560441362,0.445735377185949],[101.578753192306,0.484762703835814],[101.5870467941742,0.506397416407742],[101.6090382758958,0.49972294585727],[101.6103953087965,0.513510394589131],[101.674754992449,0.509906197812812],[101.6736031065981,0.491428504022304],[101.6438999401302,0.485229835088871],[101.6488043533383,0.47141995276869],[101.6581680000532,0.469535999886547],[101.6507799642241,0.448199000683333],[101.6753055663988,0.451805518609858],[101.6768893939304,0.438263991290208],[101.6876540926623,0.430659709877743],[101.7010381010276,0.434570363231687],[101.6946629824108,0.450334995763521],[101.7331730388048,0.454340862141153],[101.7520110001077,0.431988000445946],[101.7739582918418,0.42039240008924],[101.7709530003807,0.41299200038056],[101.7885210928742,0.405741607589169],[101.8503131203543,0.461316191888825],[101.8414882556786,0.487537732880147],[101.8218609666104,0.487527956350162],[101.821860998986,0.499832989600899],[101.8346109628257,0.499861019670364],[101.8325000012741,0.507083003777639],[101.8733347727816,0.525098591726644],[101.8744486469875,0.510369031205846],[101.8846880858866,0.509776986818553],[101.8859297600504,0.449512193432986],[101.9125674991908,0.453950960168667],[101.9103974665698,0.476592651729588],[101.9193856283441,0.477104981110019],[101.9171907636429,0.515441241720024],[101.9344541271563,0.524564570698447],[101.9322670002219,0.551988999892503],[102.8096739997553,0.652952000034832],[102.801732384442,0.675979185990647],[102.8142130211141,0.694108587641226],[102.8626530003357,0.709554000416832],[102.8863659993915,0.709472000232678],[102.900065790304,0.723706788837239]]]]}},{"type":"Feature","properties":{"kode":"14.06","nama":"Kabupaten Rokan Hulu","lat":0.9430253250780288,"lng":100.50535633512773},"geometry":{"type":"MultiPolygon","coordinates":[[[[100.744991646947,0.869792147589552],[100.758490332363,0.877468619381292],[100.7586136060332,0.886787253229235],[100.7400146188796,0.887372178583254],[100.7340569457715,0.876036232286401],[100.744991646947,0.869792147589552],[100.7399888685914,0.858494326252154],[100.7483114169384,0.851126749100237],[100.7214820115856,0.838630273568272],[100.7217622844019,0.814062641577726],[100.7128862492011,0.813926598433776],[100.7127095342177,0.801134147023339],[100.6858568921819,0.801163840838656],[100.6859357168599,0.781635707422021],[100.7036318800073,0.781463277708136],[100.7038419454495,0.758482303415617],[100.6740969937813,0.76637444162728],[100.6479660423989,0.733158901861872],[100.6190695669071,0.722390937691683],[100.5872066848407,0.697488049234193],[100.6131114720169,0.683789634284279],[100.6196294470414,0.665482645307877],[100.6385354078828,0.654844563925502],[100.6432865586278,0.62186197914704],[100.6743361343052,0.595563907648275],[100.684567217603,0.599638960669521],[100.6936954272022,0.592503006608533],[100.7074282574082,0.599805674292517],[100.7375002754175,0.595375988910815],[100.7480328438408,0.585899690418421],[100.7597854964036,0.589700815340352],[100.7672837360556,0.564531230232143],[100.7969636604446,0.53331497600537],[100.8030831170923,0.541135417565483],[100.8120096042599,0.534310974272076],[100.823236961017,0.539377990302034],[100.8299425957743,0.533142015691476],[100.8417110791031,0.538607368435359],[100.8617308269162,0.533942451882671],[100.8631975303418,0.513677697267953],[100.8544576471028,0.502426876299397],[100.8659031389188,0.473122032156079],[100.8629191380079,0.463416795049129],[100.8404832733844,0.459916952905035],[100.8391857926902,0.37661106105171],[100.8324189869467,0.385853266914824],[100.8142716878882,0.380519052412451],[100.7941748933567,0.388035682300922],[100.7867205927812,0.404170893072317],[100.7699297600504,0.40213169022538],[100.7585071802622,0.391471793088824],[100.7400348032636,0.397364619681559],[100.7194968732822,0.38991787161253],[100.6662220793855,0.435572493076128],[100.602989816427,0.508263890965852],[100.5812372620901,0.515234978611476],[100.5711858669343,0.528065504619432],[100.5424205449722,0.50192548087635],[100.5556181445618,0.472114322917713],[100.527987647412,0.444190975932843],[100.5045951964113,0.441994823402434],[100.4938333916977,0.453892726368307],[100.477087516076,0.440275837659884],[100.4687073814406,0.448946292337579],[100.4523014162775,0.420375384016777],[100.4351929942613,0.41400538703906],[100.4202310273401,0.424223163068602],[100.3892722256328,0.407130675240561],[100.376398231793,0.389691836908776],[100.3659771532231,0.394932985069227],[100.3458888779694,0.380555602659014],[100.3232660568831,0.400440909920105],[100.2886956030197,0.39926473338083],[100.2357029956967,0.47467465860864],[100.2385831752734,0.491768705861181],[100.2228731100061,0.505982572637651],[100.2233219688339,0.522328522443358],[100.2399810104154,0.535729986649544],[100.2095848407679,0.582243000214364],[100.1978055997487,0.628138944856468],[100.2214444775806,0.665288901661507],[100.2285833580356,0.661944460568462],[100.2844201279866,0.682313357575401],[100.2686900258241,0.708030044351135],[100.2736895927006,0.727255364343657],[100.2211730918648,0.742530596609845],[100.211704971807,0.73609227543818],[100.1811945972529,0.762333332617191],[100.157873439108,0.799106817925319],[100.1237301101565,0.816090586711235],[100.1208313757674,0.837430174163265],[100.124422954156,0.847619844580214],[100.1355875202479,0.847186122241814],[100.1329787794472,0.865697599065049],[100.1440531903026,0.897877767345109],[100.1218349013596,0.895537650442277],[100.0979270219145,0.909683240689072],[100.0876246196806,0.925579588827061],[100.0924063087042,0.92930491079308],[100.1061140999858,0.912312992350836],[100.1141223766464,0.917466479094761],[100.1196106737936,0.910183084781588],[100.1330300848706,0.920137972789201],[100.1332991251546,0.930985431632367],[100.1507024690438,0.934736217902207],[100.1475273334198,0.974677863692472],[100.1393056773152,0.984162595127744],[100.1557614892014,0.98888582462113],[100.1656540380035,1.001888295608408],[100.1489261182458,1.010106458746149],[100.1401925626368,1.060804180568573],[100.1293507857102,1.05475608242733],[100.1182898314106,1.066247713960886],[100.1163888786439,1.092965310200997],[100.1491147960111,1.119398628044285],[100.1787330898603,1.118147342825646],[100.1844166702931,1.124914903100313],[100.1626743772208,1.139550204778159],[100.1660832430473,1.169798336124403],[100.1404755577009,1.176037402604122],[100.1142634164236,1.211500889554459],[100.1111021780231,1.221546576713203],[100.1257737709428,1.255938533136833],[100.0852781688525,1.340555977376498],[100.0788873813476,1.346111040192374],[100.0697008695995,1.33924463363295],[100.0508331704146,1.349722033145381],[100.053433141926,1.379887704753832],[100.0725000193605,1.391666955665569],[100.0981313685678,1.389418328593026],[100.1229938064191,1.406277569154588],[100.1672522897615,1.406527152606005],[100.1803848557766,1.416841205557271],[100.2223941922382,1.403491568381218],[100.2537118414285,1.413207391408042],[100.2669418570812,1.425274182557532],[100.3034973701076,1.416638138639234],[100.3409354076431,1.437626333088835],[100.3464953780593,1.41807086387937],[100.3735466335704,1.39475237672084],[100.4205643061978,1.378307214606275],[100.4300334658718,1.382032951159859],[100.4298133469085,1.373371435743229],[100.4484237257743,1.376862728931824],[100.4578658779079,1.368692079675801],[100.4597196927097,1.345338288731154],[100.4803456699168,1.342326757773746],[100.452262643806,1.337715171917717],[100.559328214026,1.255188580388753],[100.6238501821403,1.229826312834101],[100.6455342620966,1.253535594991748],[100.6637627312651,1.292258992158787],[100.6984048116329,1.241092190252433],[100.7860460400928,1.240169309566072],[100.8442407596035,1.334569499882507],[100.9062183603891,1.382239619862633],[100.9531764934006,1.399314874881627],[100.9511054131843,1.387460042247232],[100.9759616268277,1.378758093311403],[100.9676696869066,1.330943999066323],[100.9883219270154,1.298087171885529],[100.9872861391441,1.270114485395288],[100.9788668039599,1.263801747352852],[100.992371747758,1.207011999104532],[100.9908817006301,1.117036626139464],[100.9807651819677,1.069165290945515],[100.9899208739493,1.066268605212015],[100.9972978076478,1.019515676807112],[100.9897650718007,0.982667079222407],[100.9997393869632,0.979305845988085],[100.9941343659084,0.97832684221004],[100.9940956177186,0.956433325437642],[100.9138685072259,0.959404619827373],[100.8479468864397,0.947212592687061],[100.8349304912492,0.940970918173376],[100.7728444376208,0.863640366609639],[100.7585417448057,0.854587646102997],[100.744991646947,0.869792147589552]]]]}},{"type":"Feature","properties":{"kode":"14.07","nama":"Kabupaten Rokan Hilir","lat":1.773127276388596,"lng":100.74919106632665},"geometry":{"type":"MultiPolygon","coordinates":[[[[100.649050299232,2.217633801658645],[100.670540155304,2.196156901220034],[100.6836338499223,2.162907919265164],[100.6349157580558,2.194580162144819],[100.6333744369807,2.217492395857443],[100.649050299232,2.217633801658645]]],[[[100.7360823206427,2.266498235705081],[100.751684178582,2.254118038017092],[100.7644987946837,2.20401670790473],[100.7782549254245,2.185156610689118],[100.7766322300934,2.159789856416802],[100.7847885423573,2.121135617115064],[100.7408768411933,2.144088775376771],[100.7198061888046,2.178966560858184],[100.7043279516737,2.248701776565751],[100.7114605746459,2.266232461758763],[100.73100208278,2.272832034970504],[100.7360823206427,2.266498235705081]]],[[[100.7507934090886,2.28208053159131],[100.7564089369229,2.278749287149948],[100.7516632378681,2.259058270322997],[100.7378491422242,2.277112217055263],[100.7507934090886,2.28208053159131]]],[[[101.013118548882,2.306818875590652],[101.0342414743646,2.305972807798826],[101.0141112340463,2.297585207891048],[100.9874612704213,2.300607123320139],[101.013118548882,2.306818875590652]]],[[[100.3223779466849,2.546811232852184],[100.3327778740997,2.528050480145547],[100.3306535117502,2.504681111144366],[100.3452633347352,2.434167268704554],[100.3614911738786,2.392564341271372],[100.3814216756699,2.375569507226968],[100.3939484403683,2.318251154567205],[100.4404261447509,2.259142257109589],[100.5677083369702,2.155726742794981],[100.6529371007666,2.12360318593838],[100.685163860224,2.119763389269044],[100.7228586047408,2.094642863977045],[100.763226668576,2.08625255621053],[100.7889054462294,2.118780500419801],[100.7787945051624,2.159884721402802],[100.7814384499245,2.183357497150881],[100.7667571749038,2.207699383120085],[100.7604516035587,2.250910396397751],[100.77544336412,2.283544802350798],[100.8111543139205,2.296774604864213],[100.9252646622345,2.304687359134425],[101.0472380323094,2.290781600090883],[101.0668360934111,2.234375656411489],[101.0527394226863,2.233076022740319],[101.0391472221666,2.220152778428039],[101.0257082454392,2.183576502753423],[101.0101586129297,2.12480602467828],[101.0161112399418,2.080527749955793],[101.066891759647,1.935311130004733],[101.130555600061,1.835583300129271],[101.2391665203186,1.694805570121025],[101.2903721999172,1.599466680043291],[101.304042580301,1.54927549866539],[101.335388889086,1.496138889198415],[101.3171858329599,1.474403332947569],[101.2773695508642,1.467448419608905],[101.2770975527099,1.490000322856686],[101.2644886933985,1.490113142807312],[101.2657553723127,1.4652283100385],[101.255984372281,1.463526768445631],[101.2426995258625,1.480921091235407],[101.2089574492269,1.465373410254697],[101.2092926976,1.456633134011939],[101.1772611944486,1.451901015619425],[101.0141226644295,1.349525045644404],[100.9734466673299,1.348791110721168],[100.9759616268277,1.378758093311403],[100.9511054131843,1.387460042247232],[100.9531764934006,1.399314874881627],[100.9346878800417,1.396411290448738],[100.8442407596035,1.334569499882507],[100.7860460400928,1.240169309566072],[100.6984048116329,1.241092190252433],[100.6637627312651,1.292258992158787],[100.6455342620966,1.253535594991748],[100.6237147910049,1.229823737175748],[100.559328214026,1.255188580388753],[100.4562499976393,1.334194518562201],[100.4554724833685,1.340353116403234],[100.4803456699168,1.342326757773746],[100.4597196927097,1.345338288731154],[100.4578658779079,1.368692079675801],[100.4484237257743,1.376862728931824],[100.4298133469085,1.373371435743229],[100.4300334658718,1.382032951159859],[100.4205643061978,1.378307214606275],[100.3735466335704,1.39475237672084],[100.3464953780593,1.41807086387937],[100.3408953032757,1.437674273249209],[100.3265729683678,1.437057966951658],[100.2771599595645,1.463649017788013],[100.271844987856,1.47178198724893],[100.2772010360989,1.474738003056439],[100.293843463605,1.467282670059175],[100.3221519677391,1.473840002114477],[100.3189368383644,1.447677812780876],[100.3485246496929,1.454147396185432],[100.3765759935873,1.449790975872853],[100.4218426996809,1.485360268961264],[100.4344560358174,1.520433481619962],[100.4157687478295,1.53538357389291],[100.404074767037,1.578165238235238],[100.4209868085944,1.607607039233569],[100.4082416363425,1.624700506423268],[100.417646404558,1.665138765041993],[100.4116356165905,1.673624899169754],[100.4011077156486,1.66635221937945],[100.3661457086576,1.685663111663269],[100.3674408349266,1.699675454758529],[100.3518890341516,1.732472013872341],[100.3680980217064,1.735954644791102],[100.3697709180935,1.747296548197161],[100.3897649488934,1.757683814056785],[100.3871103516615,1.777791863603648],[100.2891135719339,1.798874682920301],[100.2804128559685,1.812457323646674],[100.2888808246903,1.875458191942078],[100.3104340146182,1.883582445173746],[100.3180975478636,1.9017566969141],[100.3235186467682,2.060994935567903],[100.3438564056487,2.137251702903795],[100.3729187413069,2.193067065392837],[100.3726505328958,2.224099240987274],[100.3066900362163,2.375170013985015],[100.29896999407,2.442579971388634],[100.3223779466849,2.546811232852184]]],[[[100.555837581839,2.868363815137997],[100.5546311961728,2.866664879780444],[100.55571623002,2.870476776781871],[100.5555092168769,2.869327497166307],[100.555837581839,2.868363815137997]]],[[[100.5522469756175,2.867906958639232],[100.5522755290925,2.870783727087399],[100.5532749034142,2.872461246889134],[100.553424808708,2.869805769220978],[100.5522469756175,2.867906958639232]]],[[[100.5545169822729,2.873517728160667],[100.5536318218512,2.872425554595747],[100.5545098425552,2.87502392711254],[100.5546668875669,2.874888296757593],[100.5545169822729,2.873517728160667]]],[[[100.5539860639058,2.877139565138908],[100.5527439859463,2.877049144602427],[100.5530342799081,2.878562482372725],[100.5536434222063,2.877991411974111],[100.5539860639058,2.877139565138908]]],[[[100.5498315252048,2.881246514415214],[100.549170035169,2.881817584813739],[100.549274732443,2.882198299312154],[100.5495888197683,2.882107878775674],[100.5498315252048,2.881246514415214]]],[[[100.567015496568,2.881787941360447],[100.5685502489949,2.879943859021882],[100.567360518773,2.875874979846515],[100.5644337821934,2.881549995136211],[100.567015496568,2.881787941360447]]],[[[100.5715959595859,2.882763519620756],[100.572357386784,2.882625510558888],[100.5706227600324,2.881661830329318],[100.570965401732,2.883239412069226],[100.5715959595859,2.882763519620756]]],[[[100.5706144323103,2.884747989728019],[100.5701623341244,2.883415492131313],[100.5690737308681,2.884486250140327],[100.5701385398618,2.885253626353833],[100.5706144323103,2.884747989728019]]],[[[100.5970300002344,2.921095000334017],[100.5969589996581,2.921084999872935],[100.5969480000502,2.921108000034266],[100.597006000027,2.921154000356839],[100.5970300002344,2.921095000334017]]]]}},{"type":"Feature","properties":{"kode":"14.08","nama":"Kabupaten Siak","lat":0.8170147895117068,"lng":101.87542601370852},"geometry":{"type":"MultiPolygon","coordinates":[[[[102.1821896562277,1.228297298081868],[102.1964277066733,1.216274493673028],[102.209087733812,1.186831045116696],[102.1919289416674,1.087101309577784],[102.2291080877681,0.995778234178177],[102.2625942497249,0.956036038232641],[102.2976650522005,0.937747313587709],[102.3398785383639,0.899610644016066],[102.4169449050834,0.803995453427506],[102.5146849661384,0.748398225997368],[102.5870832488929,0.737501480708788],[102.6902447505948,0.754988584755464],[102.7722058322335,0.732024700279707],[102.8645483197491,0.738274933641334],[102.8948012246968,0.728123194829619],[102.8966679996285,0.718153000360664],[102.8803857946688,0.707686400806759],[102.8626530003357,0.709554000416832],[102.8142130211141,0.694108587641226],[102.801732384442,0.675979185990647],[102.8096739997553,0.652952000034832],[101.9322670002219,0.551988999892503],[101.9344541271563,0.524564570698447],[101.9171907636429,0.515441241720024],[101.9193856283441,0.477104981110019],[101.9103974665698,0.476592651729588],[101.9125674991908,0.453950960168667],[101.8859297600504,0.449512193432986],[101.8846880858866,0.509776986818553],[101.8744486469875,0.510369031205846],[101.8733347727816,0.525098591726644],[101.8325000012741,0.507083003777639],[101.8346109628257,0.499861019670364],[101.821860998986,0.499832989600899],[101.8218609666104,0.487527956350162],[101.8414882556786,0.487537732880147],[101.8503131203543,0.461316191888825],[101.7881767586505,0.40578024066564],[101.7709530003807,0.41299200038056],[101.7739582918418,0.42039240008924],[101.7520110001077,0.431988000445946],[101.7331730388048,0.454340862141153],[101.6946629824108,0.450334995763521],[101.7010381010276,0.434570363231687],[101.6876540926623,0.430659709877743],[101.6768893939304,0.438263991290208],[101.6753055663988,0.451805518609858],[101.6507799642241,0.448199000683333],[101.6581680000532,0.469535999886547],[101.6488043533383,0.47141995276869],[101.6438999401302,0.485229835088871],[101.6736031065981,0.491428504022304],[101.674754992449,0.509906197812812],[101.6103953087965,0.513510394589131],[101.6090382758958,0.49972294585727],[101.600944444031,0.506277777797257],[101.5919699996159,0.529717999885834],[101.6053650003945,0.543812999670232],[101.5958220000853,0.543799999970071],[101.5950595611499,0.566255735114149],[101.5822952953916,0.590754548283831],[101.5926074876455,0.607244662111503],[101.5737877897747,0.619526445189342],[101.5703027037069,0.638617806666472],[101.5466392995641,0.641051186862837],[101.5381475122979,0.68123926038359],[101.5143139995915,0.69045400005214],[101.4848600001889,0.64241799989084],[101.4660390000998,0.637955000023302],[101.4557882009648,0.652592347658773],[101.4575351448312,0.667391334042852],[101.4343039944338,0.663777899430526],[101.3969310354389,0.689529804556896],[101.3846258466056,0.680481610338132],[101.3798406286422,0.662181052413688],[101.3176090134453,0.694668903946846],[101.3111925089272,0.708642626556008],[101.3234551634252,0.722473762554118],[101.3349769834011,0.797587398040031],[101.3146610402748,0.806282999560823],[101.3037980402474,0.802228770341548],[101.28524939984,0.824246639970491],[101.266240144667,0.822601273629894],[101.261234966021,0.833194022885861],[101.2440123912589,0.8350107001837],[101.1618841787119,0.878389411841882],[101.1343064375921,0.900733006922769],[101.1194868162636,0.896865315981563],[101.119699094038,0.904427967776586],[101.105774972637,0.90410504281355],[101.0869078652059,0.92027146455653],[101.069603955758,0.909482593846731],[101.0656264539977,0.915159848448274],[101.066072211963,0.897272315864692],[101.0558751320317,0.888092665943782],[101.0620579369243,0.924509016977579],[101.0010147677175,0.962043272079358],[100.9932299995649,0.968265556310419],[100.9997393869632,0.979305845988085],[100.9898096260134,0.981647926110993],[100.9972978076478,1.019515676807112],[100.9899208739493,1.066268605212015],[100.9807921346493,1.068947110920446],[100.9840277775599,1.082027777959668],[101.0788571792155,1.002965554816557],[101.1281299864098,1.020135587587331],[101.169855592162,1.012286250809888],[101.1926498069432,0.999595071155676],[101.2313217619898,1.006782402585868],[101.2761663281137,1.045066563671002],[101.2822742023926,1.059690686775847],[101.3396280171194,1.028209494972218],[101.3644521654352,1.032024515319138],[101.3765477645678,1.023708051785219],[101.4342037542,1.015775356847312],[101.4565770547873,1.002951260991944],[101.4561679082224,0.985032384337112],[101.5154733417215,0.953639620172384],[101.5245051556884,0.931502172187512],[101.547525513092,0.921668478617407],[101.5989975323103,1.034027184107275],[101.7127500178991,1.211777819590695],[101.7769999653762,1.211972280896065],[101.8568419996587,1.201519000301696],[101.8872369983888,1.176158993642693],[101.9101111107392,1.089083332629778],[101.9488240002275,1.031181999849482],[101.9540785177095,1.006165237435861],[101.9789562899009,0.980016162915673],[102.0202560001144,1.032248999591731],[102.0332890003871,1.03221699991469],[102.0375910000247,1.087397000371324],[102.0653149996875,1.093084000026609],[102.0667989997741,1.113840000315777],[102.0769969997118,1.122663999843818],[102.0946299998747,1.120367000037012],[102.1018530002158,1.148483999836822],[102.1491276334336,1.187311546590683],[102.1481340003839,1.204465000359464],[102.1651885089426,1.201749535212945],[102.168570658609,1.228508617179022],[102.1821896562277,1.228297298081868]]]]}},{"type":"Feature","properties":{"kode":"14.09","nama":"Kabupaten Kuantan Singingi","lat":-0.4741700387601444,"lng":101.50591624999501},"geometry":{"type":"MultiPolygon","coordinates":[[[[101.2963894728959,-0.049742824271862],[101.3378446929782,-0.079743141132996],[101.3497380417773,-0.104601997883849],[101.3923796214224,-0.09939757713642],[101.4053685432237,-0.086738888189045],[101.4569610527105,-0.067331236047677],[101.4795076211799,-0.073007649783177],[101.4891333267417,-0.097309651718971],[101.499861416771,-0.10343931207453],[101.5189014143688,-0.099576028710738],[101.5159764386617,-0.110462116133705],[101.5490455930798,-0.12779344501144],[101.5627304606423,-0.16976574109602],[101.5956429198849,-0.195399128167198],[101.6153572237569,-0.234525927029841],[101.6240735897245,-0.228860217924678],[101.639380345027,-0.242734221007426],[101.6652919886344,-0.236398384777628],[101.6803226178946,-0.24150323258805],[101.6918135884265,-0.257899956317845],[101.7143419609128,-0.261751308376093],[101.7299774004367,-0.283909642216143],[101.7601772220012,-0.293081111004392],[101.7610140969231,-0.336406211377474],[101.7903449377687,-0.337529505082548],[101.8029981957102,-0.328136776091339],[101.8045981184085,-0.338123883210597],[101.8112183769266,-0.335961013689781],[101.8299376915712,-0.360410134819825],[101.8270119550377,-0.368766932048262],[101.8387264691513,-0.372048554597074],[101.8348079728097,-0.377951759366171],[101.8414952101359,-0.377215077913531],[101.8595201033702,-0.401579426249457],[101.8987097216763,-0.38676527819497],[101.9138888892609,-0.399722221902968],[101.912277778097,-0.533555556143897],[101.8875999998401,-0.54373600041602],[101.8657909995551,-0.564714000150948],[101.8306460003127,-0.571767999893227],[101.827591999771,-0.619298000102544],[101.7828030845947,-0.650887707701456],[101.7973829997257,-0.675938999585115],[101.7947048744305,-0.739779194354265],[101.776880252122,-0.790710809156428],[101.7906781347881,-0.823779608342148],[101.8168503003012,-0.85027793457895],[101.8276236298267,-0.845821485373202],[101.8402773167449,-0.814074314577942],[101.8608256689695,-0.8164787294098],[101.861268735264,-0.834673930857191],[101.8883462186031,-0.824190653375892],[101.8989734595576,-0.830661024586535],[101.8772302446801,-0.868771479819921],[101.8619524160712,-0.859663111962996],[101.8537466743696,-0.877232072302261],[101.9162992917789,-0.883505384066188],[101.9303328318948,-0.908769389895417],[101.9137070796181,-0.920776807803383],[101.9158231331311,-0.939387455566612],[101.9077777864158,-0.952499978391222],[101.8824999813891,-0.968055576103913],[101.8550000244317,-0.96777775304078],[101.845277779346,-0.983611113562047],[101.8272222408138,-0.981111072018306],[101.8033750404258,-0.964093342134012],[101.7538252150617,-0.975192081449341],[101.7433331368149,-0.949649200350303],[101.7254348843125,-0.951444635661305],[101.6978300574113,-0.936968933069762],[101.7150550198733,-0.90860665577244],[101.7345429805741,-0.896487462926013],[101.7316666905654,-0.870555597163028],[101.7134216720726,-0.869686840375364],[101.7111111401671,-0.858611110214527],[101.6784044368154,-0.846897895621337],[101.6476810236604,-0.823651547580864],[101.6315707124185,-0.836860217824745],[101.587582531109,-0.847296189167748],[101.5300724726665,-0.80981646355889],[101.505806034421,-0.808547035417265],[101.4914144930845,-0.788348380073581],[101.454444469037,-0.769166645724065],[101.4250628371802,-0.738697550051784],[101.3947975962321,-0.743595736354122],[101.4055555320622,-0.717499976342742],[101.3983323599506,-0.706396547962276],[101.3749999755685,-0.704444427368392],[101.3478357238396,-0.68350473875263],[101.3600390779412,-0.66608340032859],[101.3573506437173,-0.657518674447191],[101.3454792149939,-0.660107964710724],[101.339419618121,-0.651523537381296],[101.3225874057842,-0.649503670857657],[101.3054036439631,-0.627786249435827],[101.2548907427136,-0.625184241859225],[101.2230778620537,-0.586806797695496],[101.1986110962252,-0.581388891384174],[101.1813373527367,-0.542553666218717],[101.1430721250786,-0.529835994335562],[101.1116756826867,-0.501666691764305],[101.0886021996318,-0.509224031264013],[101.0648958510627,-0.501885171263597],[101.0662424284453,-0.488643831347682],[101.0376236797891,-0.444898752075654],[101.0414950876283,-0.424195131000429],[101.0287026074394,-0.394009364040906],[101.0399801886349,-0.388230305284301],[101.0442432907953,-0.374069269181446],[101.1023957610556,-0.37840764279842],[101.1404137956602,-0.333205663610483],[101.1356839399619,-0.287693724985408],[101.1527154456613,-0.23850287480778],[101.1737071987284,-0.20416252597977],[101.2006832808088,-0.178373441081428],[101.1940494308366,-0.167502899339292],[101.2038523559016,-0.146235200094294],[101.1980242283355,-0.113415605745518],[101.210091499723,-0.107248791698369],[101.2086713164282,-0.093935746137744],[101.2201821691718,-0.090590018114847],[101.2325231267409,-0.060023552844671],[101.2427524617568,-0.05650549403329],[101.2504586786252,-0.016767910710483],[101.2647231871255,0.009374682395721],[101.2815236686824,-0.00902397897338],[101.2963894728959,-0.049742824271862]]]]}},{"type":"Feature","properties":{"kode":"14.10","nama":"Kabupaten Kepulauan Meranti","lat":1.003260429879574,"lng":102.6493398838568},"geometry":{"type":"MultiPolygon","coordinates":[[[[102.8916967272223,0.772924869587063],[102.9004858420481,0.769324082140718],[102.9077876949462,0.764463965040038],[102.8868875261385,0.773804083691607],[102.8916967272223,0.772924869587063]]],[[[102.8408567200617,0.774865005815359],[102.8450133523844,0.773780031323421],[102.8235873059095,0.774116407446288],[102.8314111379138,0.77481822128391],[102.8408567200617,0.774865005815359]]],[[[103.0970957536662,0.799017029612267],[103.1086880544102,0.793694449639235],[103.1142216719926,0.73910826433494],[103.1080411747605,0.725270167584233],[103.0927767343588,0.717828268659757],[103.0810551659632,0.725273193802886],[103.0760737186273,0.741676266746369],[103.0814398761494,0.778709071566405],[103.0970957536662,0.799017029612267]]],[[[103.0808329443849,0.822709992672019],[103.1052127017049,0.817381106652812],[103.1084087123923,0.806843784413156],[103.0824291160109,0.796261209187518],[103.0753372970786,0.817995797767887],[103.0808329443849,0.822709992672019]]],[[[102.7343472537229,1.022283316122172],[102.7487184856697,1.007500502246403],[102.7786774391126,1.003181976666953],[102.7977174510995,0.979056713996249],[102.8796096743471,0.951668210919296],[102.9428903073419,0.887783997033884],[103.0463315611527,0.824479501427897],[103.0561329573702,0.78077796912803],[103.0488850889758,0.72092089238531],[103.0245259639022,0.68786718742084],[102.992304658833,0.690708461426423],[102.9261055738132,0.7705077752137],[102.8645894934104,0.792109281218442],[102.6727750664163,0.791037730007302],[102.5929748533069,0.767367600734234],[102.5683007910487,0.767585399446633],[102.4514173526288,0.816072656028341],[102.4123026649361,0.854954556907314],[102.4085117581112,0.887680303403313],[102.4401152181429,0.935471679874153],[102.4880229650879,0.930908247317783],[102.5297303775549,0.961968755154016],[102.5597826869216,0.971438537158795],[102.5914135870675,1.002072993873623],[102.6451038029981,0.991205236432544],[102.7343472537229,1.022283316122172]]],[[[102.4639052297426,1.053902243593738],[102.4636061548003,1.054531673697864],[102.4636063157789,1.054875683266252],[102.4639154856112,1.054410290402627],[102.4639052297426,1.053902243593738]]],[[[102.5352297390613,1.12979080330293],[102.613869870798,1.046739594956334],[102.6019135640598,1.025750320421023],[102.6076926947621,1.005490048926669],[102.5874049642678,1.001625375210955],[102.558861464585,0.972125185728798],[102.5329956567242,0.964583019590767],[102.5001490899086,0.945327161319495],[102.4598230127219,1.075544512269497],[102.4821444224272,1.125713025335903],[102.5352297390613,1.12979080330293]]],[[[102.7707710952099,1.158943909333951],[102.8930425114028,1.125274641811311],[102.9753762891845,1.093594698936259],[103.0004304202277,1.075421798876983],[103.1534418375709,0.894779918558461],[103.1521464442031,0.847802210903323],[103.1215032640645,0.831120835558183],[103.0712945593965,0.832216118978765],[103.042972424238,0.859784643846259],[102.950276569708,0.908986949588117],[102.9297606830092,0.935474001024359],[102.8945702976811,0.960849940072725],[102.8088995081059,0.99082600761424],[102.7906043766907,1.018733554410042],[102.7684818295728,1.022207681339468],[102.7426405354324,1.039524416019086],[102.6416117372919,1.006985913768974],[102.6256426735706,1.010281817551936],[102.622913265335,1.018776531211982],[102.6560958557392,1.03359432242007],[102.6693878373788,1.088803204604202],[102.6892824022612,1.12056481041771],[102.7364935991004,1.154857514962357],[102.7707710952099,1.158943909333951]]],[[[102.3755661462608,1.328914775096843],[102.3743627058743,1.329708192079446],[102.3736564997477,1.33082957562449],[102.374808110406,1.33001001355135],[102.3755661462608,1.328914775096843]]],[[[102.2718179097688,1.418557722660838],[102.2963501066722,1.40882169816294],[102.3738236045758,1.325821725991913],[102.4848822303307,1.23821138744564],[102.4856003380851,1.199837184438499],[102.4641526359355,1.160079904164332],[102.4385691936134,1.071224536083568],[102.4683597678891,1.009358203918007],[102.4833537992385,0.952466348443279],[102.479037239577,0.94137779305081],[102.4391228873114,0.948854877050939],[102.4181228919579,0.921281486851131],[102.3862976312307,0.913458858139846],[102.2758541453526,1.005913414672419],[102.2364939157617,1.101453686338624],[102.2495233214442,1.166000605243786],[102.2460683257926,1.194735263022048],[102.2058357448238,1.276775930165128],[102.2291933282096,1.347129160882085],[102.2105852489102,1.408742847404573],[102.2137824080317,1.414406297412738],[102.2718179097688,1.418557722660838]]]]}},{"type":"Feature","properties":{"kode":"14.71","nama":"Kota Pekanbaru","lat":0.5512765526855368,"lng":101.4657262945736},"geometry":{"type":"MultiPolygon","coordinates":[[[[101.5173611113263,0.691000000049977],[101.5409831700373,0.677904701940443],[101.5369356236801,0.663376166876636],[101.549046230699,0.638110204122652],[101.5703027037069,0.638617806666472],[101.5737877897747,0.619526445189342],[101.5926074876455,0.607244662111503],[101.5823046276566,0.590648627032595],[101.5950595611499,0.566255735114149],[101.5958220000853,0.543799999970071],[101.6053479996106,0.542321000114063],[101.5919699996159,0.529717999885834],[101.6029369999427,0.509526999571472],[101.5831062437582,0.503167040826311],[101.5787727813388,0.485186492262832],[101.5884310099832,0.461099505637749],[101.5634648263407,0.461062693688438],[101.5432775869911,0.432302923241343],[101.4960605148809,0.444791687086729],[101.4899141226387,0.461805864648943],[101.4786952177102,0.461927397231607],[101.4804972135756,0.44966208883441],[101.4545095637655,0.443925417823829],[101.4473410272667,0.420394508999442],[101.3642672117624,0.441542850222396],[101.3506930984078,0.467140060265622],[101.332248755076,0.476612340587154],[101.3572014021231,0.509593731965216],[101.3725508680282,0.563778117266375],[101.3568914615717,0.557484848646903],[101.35062987337,0.568748192675026],[101.3428176902842,0.568107902357815],[101.3412224458592,0.581822425064901],[101.3379747223556,0.575429799345814],[101.3232342656489,0.57996384115839],[101.3318081151524,0.586860074632797],[101.3298498665781,0.593531405649925],[101.3233376436174,0.590163190978485],[101.3246492283793,0.600370170646888],[101.3758019576943,0.645641031608355],[101.3846258466056,0.680481610338132],[101.3969310354389,0.689529804556896],[101.4343039944338,0.663777899430526],[101.458100000015,0.667133332937039],[101.4557882009648,0.652592347658773],[101.4660390000998,0.637955000023302],[101.4848600001889,0.64241799989084],[101.5173611113263,0.691000000049977]]]]}},{"type":"Feature","properties":{"kode":"14.72","nama":"Kota Dumai","lat":1.8207559200441943,"lng":101.28228692078588},"geometry":{"type":"MultiPolygon","coordinates":[[[[101.063077252813,2.234096689410789],[101.1782594239333,2.126266575841848],[101.2673004021919,2.080149030153697],[101.2824609681992,2.056071043943605],[101.3032114106781,2.042178974380191],[101.321888111847,1.997401467104096],[101.3358878410511,1.891148065630796],[101.3635351438319,1.831217748999967],[101.356977410679,1.778826683804466],[101.3867928503098,1.719242006313612],[101.4018548380304,1.704372754099401],[101.4379932796662,1.686522596440751],[101.4816040406939,1.682496548377019],[101.516905789071,1.65326796224676],[101.5616082847946,1.636996449326686],[101.6015738840276,1.638069246998183],[101.6663776951746,1.665216881953599],[101.7249893943451,1.671377905266189],[101.7185305560404,1.622686111374991],[101.6421669996075,1.609861000185051],[101.6242543237781,1.588621605302906],[101.6422977448451,1.562215804915487],[101.6406805713513,1.547858596996685],[101.6182727206097,1.545494324303684],[101.6111110000726,1.57961100004764],[101.5980444829666,1.600172017424681],[101.5280854008207,1.5955543368632],[101.5066432214076,1.493310277647295],[101.4493252419664,1.494308270610231],[101.4356433412672,1.447194944291327],[101.3171858329599,1.474403332947569],[101.335388889086,1.496138889198415],[101.304042580301,1.54927549866539],[101.2903721999172,1.599466680043291],[101.2391665203186,1.694805570121025],[101.130555600061,1.835583300129271],[101.066891759647,1.935311130004733],[101.0161112399418,2.080527749955793],[101.0101586129297,2.12480602467828],[101.0157501603417,2.151694439946469],[101.0391472221666,2.220152778428039],[101.063077252813,2.234096689410789]]]]}}]}