{"type":"FeatureCollection","features":[{"type":"Feature","properties":{"kode":"17.01","nama":"Kabupaten Bengkulu Selatan","lat":-4.348397213489499,"lng":103.02116096358203},"geometry":{"type":"MultiPolygon","coordinates":[[[[103.0059596482193,-4.161480912214335],[103.0346719479522,-4.172538462579992],[103.0602885132044,-4.19584810670475],[103.0631410431247,-4.211032680114071],[103.0512226778843,-4.219049226940255],[103.0697591342767,-4.241088922215999],[103.0676360408707,-4.256885666840018],[103.0847552538519,-4.267905243332295],[103.0973720361905,-4.253318004122589],[103.1171210655848,-4.249037412846304],[103.1377991755915,-4.257591871167834],[103.1593705902805,-4.236098514035083],[103.166620768134,-4.247220153687151],[103.1906931155949,-4.236112342910284],[103.2036943023502,-4.248149999622777],[103.2240554211209,-4.240741666094985],[103.2888611109516,-4.262033333171791],[103.2796179733909,-4.29051378228518],[103.2375768719752,-4.290868507275716],[103.218621138155,-4.307407204279004],[103.2009795611579,-4.30766115393906],[103.2013151611658,-4.393330445243818],[103.1676496725944,-4.399301601887354],[103.1211333189476,-4.482241890550734],[103.0802963530943,-4.508601393839198],[103.0864212407477,-4.552001691924515],[103.0802090208297,-4.5591576118343],[103.0068400494288,-4.520684669561861],[102.899475556252,-4.487902320635564],[102.9011516641181,-4.469026356680919],[102.8836161612569,-4.440572898020781],[102.8159684680704,-4.383299150835088],[102.7962362182269,-4.354458479175419],[102.8125904867616,-4.323625823572888],[102.8265948627628,-4.319789127765963],[102.8429813441138,-4.344587871133301],[102.8622675221285,-4.282350469698384],[102.8856054328445,-4.26302453715264],[102.9010879471511,-4.26238624962563],[102.9009467922607,-4.255890322380454],[102.9178445651746,-4.256805180214831],[102.9079534058251,-4.241551657582912],[102.8810828861663,-4.241495032669532],[102.891222731444,-4.203428432875869],[102.9013021890448,-4.196578351709482],[102.9004192247675,-4.178532065402488],[102.9415025131306,-4.182520191753339],[102.9602192467209,-4.164840513179138],[102.9872853752199,-4.168248151430978],[103.0059596482193,-4.161480912214335]]]]}},{"type":"Feature","properties":{"kode":"17.02","nama":"Kabupaten Rejang Lebong","lat":-3.4304548353947015,"lng":102.70204516713657},"geometry":{"type":"MultiPolygon","coordinates":[[[[102.4981817240074,-3.2687655359007],[102.5393294622849,-3.276162966047982],[102.5454167591761,-3.290925510104151],[102.5676558548339,-3.276592058676522],[102.5923032926629,-3.317175930125041],[102.6108095875924,-3.31909056697606],[102.6241982526473,-3.33186505262997],[102.6323620373782,-3.325980433250278],[102.6380781669739,-3.33777445732524],[102.6746872490174,-3.315696626298228],[102.7395626147229,-3.305090657008217],[102.750884146686,-3.309346936911497],[102.7565946366333,-3.291644822050868],[102.7760505077248,-3.281769876578513],[102.7777280769892,-3.293180711220758],[102.7909057143273,-3.299765921360079],[102.7980473044396,-3.331690942083279],[102.8397722635792,-3.334012668749578],[102.8418834751424,-3.343500899446886],[102.8641432318248,-3.34532425960681],[102.8962444468238,-3.326722003417684],[102.8895726409647,-3.352029309804808],[102.8963163008566,-3.376246464302815],[102.9123794363619,-3.377684822896201],[102.956551414816,-3.360682153058894],[102.981602146422,-3.363089389963283],[102.9950057411221,-3.387054360170596],[103.0043707943767,-3.435364470094163],[102.9969441974168,-3.445277775249059],[103.0055589103155,-3.467286659751492],[102.9936108620517,-3.489444439609171],[102.9947414177823,-3.524844444315603],[102.9726386260717,-3.531672216899276],[102.9617497300661,-3.561499998825893],[102.9070940910196,-3.616462405615531],[102.8912406989992,-3.609151473161878],[102.8858528624197,-3.578777852216033],[102.8688121116896,-3.556964778901397],[102.8476325909714,-3.536920304228611],[102.8186716727595,-3.527621531008743],[102.774466612744,-3.547133063839761],[102.7512550378897,-3.543099091849536],[102.7222022215554,-3.55264972200702],[102.6549614338232,-3.540653651744632],[102.6374393002835,-3.532554956346148],[102.6282052143992,-3.516432460189803],[102.5944114150548,-3.525655755108994],[102.5295829004306,-3.494193205352117],[102.5006565512589,-3.497175464276195],[102.4968791756335,-3.513638554375722],[102.4464450028347,-3.529069545623001],[102.4245277781345,-3.524055556318809],[102.4270858664197,-3.499979017117896],[102.4033972219043,-3.43423055629504],[102.3696736623098,-3.399734302795723],[102.3875854199313,-3.3693143631673],[102.3878042016027,-3.35256446218011],[102.4229466422738,-3.358548614926596],[102.4421090717763,-3.347076047221778],[102.4497527246087,-3.320741858050249],[102.4881240425905,-3.326689695273169],[102.4965084732874,-3.321588719943394],[102.500509670385,-3.308687025186055],[102.4863954889607,-3.282566240639431],[102.4981817240074,-3.2687655359007]]]]}},{"type":"Feature","properties":{"kode":"17.03","nama":"Kabupaten Bengkulu Utara","lat":-3.4188283620511806,"lng":102.00188239852916},"geometry":{"type":"MultiPolygon","coordinates":[[[[102.385039880786,-5.475730064890509],[102.3841238952016,-5.472479085841079],[102.3866996623596,-5.470974076692218],[102.3871101192367,-5.471919912573834],[102.385039880786,-5.475730064890509]]],[[[102.3731428015991,-5.465807592946063],[102.3735389817387,-5.465950361220155],[102.3733069836304,-5.466310849066395],[102.3728072978186,-5.46604672897331],[102.3731428015991,-5.465807592946063]]],[[[102.224881981918,-5.466959673949726],[102.2295219305927,-5.47507363623934],[102.2144123543467,-5.475097431401269],[102.2171249389648,-5.463342892960092],[102.224881981918,-5.466959673949726]]],[[[102.3920550280172,-5.440616719985573],[102.3921454476544,-5.446079962020604],[102.3864061883949,-5.443024733904237],[102.3879480778416,-5.440773764097954],[102.3920550280172,-5.440616719985573]]],[[[102.1671143396551,-5.291433245347913],[102.2197878738114,-5.320214611215305],[102.2499999999001,-5.325389459555899],[102.2838889142421,-5.356373101437465],[102.3265822723541,-5.361665606282688],[102.38125787635,-5.38592043068327],[102.3872909423232,-5.415371184432586],[102.3740093505512,-5.426344551959498],[102.3677479979718,-5.456439920865622],[102.3461173287518,-5.450534825721646],[102.3392051943643,-5.456254654228835],[102.375363856357,-5.485493352336305],[102.3601576686415,-5.505188106745677],[102.3483792927702,-5.496387087593994],[102.3225427083793,-5.49450493425521],[102.3124616868575,-5.475607964835642],[102.3027346079159,-5.487580400015427],[102.2808108091715,-5.476829271153941],[102.269701700673,-5.487807033667628],[102.2753380181351,-5.514358457676653],[102.265553673963,-5.51119377487275],[102.2479404364021,-5.496407862832501],[102.2522406706705,-5.480948912562215],[102.2435964033514,-5.46420543273454],[102.2287319112488,-5.462911006137964],[102.2029885218029,-5.416587658693465],[102.193208936843,-5.413375387364176],[102.1877123821208,-5.419630989678374],[102.1678415026833,-5.409902563552364],[102.1616201051838,-5.394470568661784],[102.0884185156021,-5.3573958896086],[102.0863602822014,-5.340397615657348],[102.0961364461401,-5.322746476168908],[102.1354736953548,-5.313152489695553],[102.1352973769724,-5.295406350322799],[102.1474742694221,-5.282519783960796],[102.1671143396551,-5.291433245347913]]],[[[101.0509373989419,-4.005481850806783],[101.0365248377511,-4.015957509231585],[101.0327702140742,-4.015060370739468],[101.0491670798969,-3.991783293763953],[101.0509373989419,-4.005481850806783]]],[[[102.1130011123116,-3.582553358150944],[102.1128658983426,-3.582119903810435],[102.1133822620818,-3.581991932981301],[102.1134863136425,-3.582202681008864],[102.1130011123116,-3.582553358150944]]],[[[101.9258221292879,-3.477607759790294],[101.9258243092445,-3.477089798855085],[101.9260728656703,-3.476791644818514],[101.9260161778044,-3.47727913672278],[101.9258221292879,-3.477607759790294]]],[[[101.8677202872616,-2.7288018397331],[101.9064298555534,-2.740289540329924],[101.9191057017668,-2.735593856171439],[101.9263076741599,-2.770331143267571],[101.9413223305611,-2.781665808929892],[101.9667510993838,-2.824541804960282],[102.019294741759,-2.855935338045315],[102.04216004525,-2.984064093583052],[102.0669860920346,-2.992073542959586],[102.0965576274326,-3.01685906089684],[102.1066131639664,-3.041911130694055],[102.1418762109184,-3.077397115984029],[102.1428222599394,-3.118509052250909],[102.133026113964,-3.128030538978146],[102.1366806134196,-3.144192212300714],[102.1271057231506,-3.170422802270492],[102.1459732055991,-3.205790042876158],[102.166404733192,-3.223880761088152],[102.1912002452952,-3.221105573763142],[102.236282352049,-3.241073617753257],[102.2508239839398,-3.263490444628284],[102.2910385074213,-3.283766516311617],[102.2966079701818,-3.322799686756087],[102.2758026168973,-3.342785347565671],[102.2702102645921,-3.364931108883498],[102.3741302473131,-3.38129782583392],[102.3691611107967,-3.404022221748074],[102.3898549463488,-3.414274086579796],[102.4033972219043,-3.43423055629504],[102.4167777777723,-3.476166667257788],[102.3903651893021,-3.495600347577879],[102.3692579677811,-3.494707625656337],[102.3309017638054,-3.530019298052148],[102.260440813193,-3.551522295017831],[102.2585305137722,-3.604917088153028],[102.2426995661321,-3.608001609886349],[102.2442237119548,-3.581784532230328],[102.2331876382989,-3.561827967186895],[102.2103505132656,-3.575679263287304],[102.1990270882296,-3.59301888391437],[102.2121218521418,-3.608251399282628],[102.2067399304035,-3.625566234594027],[102.2156166194115,-3.633088943000276],[102.1996626598039,-3.64742844056998],[102.0881743757469,-3.558453751339544],[101.9275499427757,-3.479076794258587],[101.9261317101104,-3.460069914195143],[101.9115006136624,-3.449080475783253],[101.9069998287792,-3.434459122590352],[101.792181996402,-3.368903696748118],[101.6223481018834,-3.244798915437544],[101.531875322888,-3.128626579053309],[101.5741458260691,-3.110698583272933],[101.5798761442688,-3.119378943083698],[101.5882143866847,-3.10248476835733],[101.609816657113,-3.106032753009094],[101.6209739108174,-3.083343441446631],[101.6349563604477,-3.073849916440421],[101.6761235690475,-3.070734193628047],[101.6930649321009,-3.06185317888106],[101.7002687283192,-3.045134583294365],[101.7244033916033,-3.038259258158218],[101.7614178997163,-2.981999996602516],[101.7897033767096,-2.984381678371742],[101.784530645373,-2.937601095813916],[101.8009735456926,-2.935249997289516],[101.8107986453413,-2.920020341765353],[101.8066699801355,-2.884215681708271],[101.8616485603329,-2.800903438842608],[101.8661346413007,-2.786687613342645],[101.8578567505886,-2.744857310316531],[101.8601684111433,-2.730572416883506],[101.8677202872616,-2.7288018397331]]]]}},{"type":"Feature","properties":{"kode":"17.04","nama":"Kabupaten Kaur","lat":-4.611138289451923,"lng":103.41232464137576},"geometry":{"type":"MultiPolygon","coordinates":[[[[103.2969663642064,-4.257008933315534],[103.3116580569737,-4.260757742875468],[103.3226899469835,-4.2835989913004],[103.3457281532317,-4.290338457653656],[103.3711356881615,-4.315687756984302],[103.4093207718363,-4.313586875933575],[103.4422149874318,-4.330134307152525],[103.4486144911659,-4.348410788427051],[103.4676316172055,-4.35475655317237],[103.435920947194,-4.386491877198376],[103.4391686644024,-4.395475822051489],[103.4249037242276,-4.401350948187657],[103.4305715188606,-4.413592810359892],[103.4262486000929,-4.455771415418466],[103.420398177434,-4.467383843889275],[103.4129698618697,-4.466508054403187],[103.4083998022091,-4.504014726398411],[103.4208983425845,-4.505951091769392],[103.4227017530836,-4.516791801200595],[103.4874252457785,-4.577946995357498],[103.5274909008844,-4.572205040829916],[103.5715623603147,-4.525150335919184],[103.5931176699446,-4.522880492940365],[103.6194844415538,-4.531332457326956],[103.630062650571,-4.557530859661332],[103.5986973849763,-4.593418015429032],[103.6274332703292,-4.594610541643165],[103.6611389451063,-4.610391945631756],[103.6680201464126,-4.62646234406188],[103.6863632809408,-4.634697354199504],[103.6855915088411,-4.6457352669689],[103.7023523770606,-4.664360851571983],[103.7046732430758,-4.704077737897252],[103.6684770532734,-4.729010168184702],[103.7012831020336,-4.722998712020912],[103.7352611940489,-4.743930653876552],[103.7632655240847,-4.74234094208075],[103.7904880446875,-4.779014734842038],[103.7667316371553,-4.795003920894183],[103.7311411587375,-4.79925453057202],[103.698533880834,-4.83702443502956],[103.6681257430087,-4.849310835226886],[103.6498342844248,-4.869691077181384],[103.6375230215703,-4.867525201226977],[103.6260358659625,-4.889813524874212],[103.6125202598022,-4.894321742654276],[103.6038238219119,-4.888838180437618],[103.5986676021282,-4.907265190236279],[103.590706375299,-4.910377312163197],[103.5959904040339,-4.922387835430156],[103.5325808307409,-4.916669071720284],[103.5221685232589,-4.887406146776188],[103.469756532638,-4.865280925074591],[103.4433422624356,-4.862092980406699],[103.4235773905842,-4.870738368281005],[103.4060234444265,-4.856388665204728],[103.4149640176753,-4.840431766612665],[103.4037947400353,-4.818401314568968],[103.3735697275609,-4.798001035719127],[103.3519089454415,-4.79846578197021],[103.3444709046086,-4.812230832187117],[103.3278500689256,-4.808176199172179],[103.3098150214461,-4.781874935080202],[103.320601526939,-4.770601634657703],[103.3199150699246,-4.759412035037316],[103.2953406984146,-4.740721433047648],[103.2836459828759,-4.709387070856577],[103.257947904872,-4.697162138421865],[103.2450098334371,-4.674657133020224],[103.154072381935,-4.601871195699017],[103.070295277705,-4.558923726049072],[103.0864027443912,-4.552110469422546],[103.0802963530943,-4.508601393839198],[103.1211333189476,-4.482241890550734],[103.1676496725944,-4.399301601887354],[103.2013151611658,-4.393330445243818],[103.2009795611579,-4.30766115393906],[103.218621138155,-4.307407204279004],[103.2375768719752,-4.290868507275716],[103.2796179733909,-4.29051378228518],[103.284689941088,-4.267977113552915],[103.2969663642064,-4.257008933315534]]]]}},{"type":"Feature","properties":{"kode":"17.05","nama":"Kabupaten Seluma","lat":-4.05200675611857,"lng":102.65951397298068},"geometry":{"type":"MultiPolygon","coordinates":[[[[102.6327257708777,-3.810295448176396],[102.6697462693749,-3.825961478139631],[102.6851799289106,-3.847325468695376],[102.6836071045843,-3.86120962422474],[102.7012215292503,-3.854735763644593],[102.7332645707035,-3.887229835788178],[102.7490135613269,-3.891231624639671],[102.7529424376435,-3.90641118792592],[102.7700517670755,-3.910181454410536],[102.7793855392113,-3.940852276111587],[102.792859582304,-3.960090188411394],[102.8171871798446,-3.967501111986651],[102.8170705971304,-3.978649984009477],[102.84535476561,-3.977203649328922],[102.8614933956038,-3.992852515731007],[102.8672415329704,-3.986526000074766],[102.8872210738935,-3.988643720031673],[102.895311241021,-3.975556684893069],[102.9119079811685,-3.969608031985031],[102.9611103435676,-4.019724562438556],[102.9978769256796,-4.019161031956012],[102.9806415778466,-4.041968779735308],[102.9584200909145,-4.054651977906401],[102.9307517224142,-4.048180455563502],[102.9140984257019,-4.062340859443017],[102.9220383835646,-4.076302502358578],[102.9196389608694,-4.096593128669904],[102.9704811875568,-4.124046475564372],[103.0027075000512,-4.160492221838544],[102.9872853752199,-4.168248151430978],[102.9602192467209,-4.164840513179138],[102.9415025131306,-4.182520191753339],[102.9004192247675,-4.178532065402488],[102.9013021890448,-4.196578351709482],[102.891222731444,-4.203428432875869],[102.8810828861663,-4.241495032669532],[102.9079534058251,-4.241551657582912],[102.9182458309804,-4.256116471298091],[102.8856054328445,-4.26302453715264],[102.8622675221285,-4.282350469698384],[102.8429813441138,-4.344587871133301],[102.8268055559317,-4.319777778321823],[102.8125904867616,-4.323625823572888],[102.7964559136096,-4.35394344643292],[102.743322857364,-4.32174209102463],[102.6963066047661,-4.275016272682722],[102.3006303553067,-3.982064442719826],[102.3017111002871,-3.952899999835127],[102.3170582999007,-3.911425000063653],[102.3320278004427,-3.904136110892756],[102.346863900049,-3.913291667076704],[102.3420083002429,-3.900716667240347],[102.3480806000397,-3.88694444403084],[102.3648060646483,-3.884273767820082],[102.3596691083428,-3.876772374245599],[102.3701622342997,-3.873601755016923],[102.3686164453927,-3.857208029626838],[102.3913413422292,-3.854159042805508],[102.3918757832409,-3.870277811271963],[102.4071333132519,-3.87139357405413],[102.4629333081257,-3.843662618135271],[102.4885098076816,-3.860121416670006],[102.5098103924358,-3.837139894690347],[102.5324543269057,-3.829047546706901],[102.553256021748,-3.832982726371695],[102.5634412980776,-3.808245064957719],[102.5740648149393,-3.803659125068551],[102.6059548619274,-3.811166189767759],[102.6203333334167,-3.802200000229819],[102.6327257708777,-3.810295448176396]]]]}},{"type":"Feature","properties":{"kode":"17.06","nama":"Kabupaten Mukomuko","lat":-2.6903158367968323,"lng":101.48189529744795},"geometry":{"type":"MultiPolygon","coordinates":[[[[101.3616785609169,-2.328854965284391],[101.3874101512575,-2.3364390119508],[101.3699939281773,-2.347300451654435],[101.3786614096964,-2.355209530395522],[101.4056389513766,-2.356726338649542],[101.4984081033513,-2.419917705837429],[101.5563177215856,-2.449116288785616],[101.5607327210383,-2.458948465199454],[101.5401203640636,-2.549929949307719],[101.542016375955,-2.571381968203282],[101.5643351443515,-2.570623563626453],[101.568804315367,-2.547790163585153],[101.5905271938749,-2.544214826952709],[101.5908251383695,-2.531294859769931],[101.6041513931723,-2.53584528902884],[101.609676913259,-2.549875776845559],[101.6469741754179,-2.53809341697753],[101.6556687436177,-2.526202713984008],[101.6700242626097,-2.528315413025853],[101.7352199848145,-2.610629413816381],[101.7486816694235,-2.616073676558875],[101.7731131359625,-2.649118454852742],[101.8133085884207,-2.675716792895669],[101.8121168086439,-2.692022495341886],[101.8458387341703,-2.703425651572536],[101.860362582867,-2.73099999595299],[101.8658294698542,-2.789531470201181],[101.8364791910619,-2.847332242588932],[101.8066699801355,-2.884215681708271],[101.8107986453413,-2.920020341765353],[101.8009735456926,-2.935249997289516],[101.784530645373,-2.937601095813916],[101.7908096327584,-2.982956410310036],[101.7614178997163,-2.981999996602516],[101.7176122789836,-3.044706258686849],[101.7002687283192,-3.045134583294365],[101.6930649321009,-3.06185317888106],[101.6761235690475,-3.070734193628047],[101.6349563604477,-3.073849916440421],[101.6209739108174,-3.083343441446631],[101.609816657113,-3.106032753009094],[101.5882143866847,-3.10248476835733],[101.5798761442688,-3.119378943083698],[101.5741458260691,-3.110698583272933],[101.531875322888,-3.128626579053309],[101.5243781714155,-3.11954162144861],[101.5240422278665,-3.09586357634293],[101.4884166875801,-3.052314465640007],[101.4805460773397,-3.012100914325691],[101.3997970147205,-2.922183489176591],[101.3218571041221,-2.737447953360286],[101.2597825959901,-2.690504696934129],[101.1423253802122,-2.628549236557978],[101.0223916914235,-2.478443519752618],[101.1467777141203,-2.388811112242964],[101.2013053238816,-2.367095111749931],[101.2607268607561,-2.319710847577452],[101.2661754366472,-2.299939786591823],[101.2776132338637,-2.291385105238389],[101.3014124698097,-2.289932549947229],[101.3616785609169,-2.328854965284391]]]]}},{"type":"Feature","properties":{"kode":"17.07","nama":"Kabupaten Lebong","lat":-3.0900072441102697,"lng":102.24781865859501},"geometry":{"type":"MultiPolygon","coordinates":[[[[101.965441932899,-2.721827052276618],[101.9969237937981,-2.724065096127218],[102.0326500752408,-2.758003707904757],[102.0634196389053,-2.764450148155786],[102.0734296013951,-2.794944692843229],[102.0924667841148,-2.810922133749452],[102.113463433091,-2.814217472758143],[102.1293661727107,-2.834821507406618],[102.1313403203995,-2.874817339148786],[102.2220133712202,-2.9277365806786],[102.2428904841086,-3.019540496596631],[102.2538260036672,-3.035515995866492],[102.2870873989643,-3.040468726050863],[102.3176058422358,-3.069936170317947],[102.3892036402358,-3.043026132649887],[102.40829986075,-3.054693928781729],[102.4422583637325,-3.058649671445115],[102.461627638205,-3.076200613867178],[102.486528715428,-3.109910083783321],[102.4913716563769,-3.139033115585812],[102.4867199598583,-3.156963943331251],[102.4939050942448,-3.169066575162274],[102.4854073480708,-3.20482901204924],[102.490427143398,-3.21721193917959],[102.4843223627869,-3.228203594420245],[102.4931450178284,-3.239446922237635],[102.4842376241671,-3.254473268026883],[102.4943212321393,-3.266807570612842],[102.486590193083,-3.289242236440051],[102.500509670385,-3.308687025186055],[102.4965084732874,-3.321588719943394],[102.4881240425905,-3.326689695273169],[102.4497527246087,-3.320741858050249],[102.4421090717763,-3.347076047221778],[102.4229466422738,-3.358548614926596],[102.3842333552852,-3.355141777071305],[102.3875854199313,-3.3693143631673],[102.3751830998203,-3.383522268337982],[102.2702102645921,-3.364931108883498],[102.2758026168973,-3.342785347565671],[102.2966079701818,-3.322799686756087],[102.2910385074213,-3.283766516311617],[102.2508239839398,-3.263490444628284],[102.236282352049,-3.241073617753257],[102.1912002452952,-3.221105573763142],[102.166404733192,-3.223880761088152],[102.1459732055991,-3.205790042876158],[102.1271057231506,-3.170422802270492],[102.1366806134196,-3.144192212300714],[102.133026113964,-3.128030538978146],[102.1436233454411,-3.112941730776145],[102.1374130275892,-3.065980675867388],[102.1066131639664,-3.041911130694055],[102.1014251648395,-3.021779539594041],[102.0777511540926,-3.000017892211895],[102.04216004525,-2.984064093583052],[102.019294741759,-2.855935338045315],[101.968009939807,-2.825907221341131],[101.9413223305611,-2.781665808929892],[101.9263076741599,-2.770331143267571],[101.9191057017668,-2.735593856171439],[101.9537759812766,-2.730701136847882],[101.965441932899,-2.721827052276618]]]]}},{"type":"Feature","properties":{"kode":"17.08","nama":"Kabupaten Kepahiang","lat":-3.6289348286597933,"lng":102.64445099697319},"geometry":{"type":"MultiPolygon","coordinates":[[[[102.5302240720833,-3.494539949758815],[102.5944114150548,-3.525655755108994],[102.6282052143992,-3.516432460189803],[102.6374393002835,-3.532554956346148],[102.6549614338232,-3.540653651744632],[102.7222022215554,-3.55264972200702],[102.7512550378897,-3.543099091849536],[102.774466612744,-3.547133063839761],[102.8102137125929,-3.52992162897994],[102.8107970002814,-3.553872999639188],[102.7946389997901,-3.5828680003579],[102.8077799303996,-3.612818732198678],[102.7900107072284,-3.660173409575121],[102.7739212836404,-3.675730771757715],[102.7780597964225,-3.686994906289856],[102.7706024012799,-3.708180060361402],[102.7341743563615,-3.717688445765146],[102.7343781121602,-3.746264023365933],[102.7028161387538,-3.756926668830632],[102.6966102041976,-3.769976921697518],[102.692732107201,-3.758356209571348],[102.6572624697873,-3.772023100585534],[102.641235765818,-3.79355602788827],[102.6153292879164,-3.799224543777571],[102.5969941780389,-3.747953657934902],[102.5829700070602,-3.745362095084628],[102.5798479674098,-3.704198961312935],[102.5734896706119,-3.698886641705082],[102.5778560203392,-3.683398526420836],[102.5514877540566,-3.676727690030804],[102.5445740611441,-3.660331984333512],[102.5281947950538,-3.656145954072512],[102.5288439158141,-3.642901251591438],[102.5127499227707,-3.620795898611798],[102.51356809719,-3.592830359033774],[102.4911826233794,-3.575419818769523],[102.4786375430882,-3.552647764182984],[102.4337182046315,-3.549057826157734],[102.450001257652,-3.525739614191783],[102.4968791756335,-3.513638554375722],[102.5006565512589,-3.497175464276195],[102.5302240720833,-3.494539949758815]]]]}},{"type":"Feature","properties":{"kode":"17.09","nama":"Kabupaten Bengkulu Tengah","lat":-3.6852212484735523,"lng":102.40435657070134},"geometry":{"type":"MultiPolygon","coordinates":[[[[102.4216327696367,-3.494077982412927],[102.4293441818885,-3.510818482786673],[102.4245277781345,-3.524055556318809],[102.4464426861811,-3.529069709299629],[102.4337182046315,-3.549057826157734],[102.4832003811927,-3.556598421180082],[102.4911826233794,-3.575419818769523],[102.51356809719,-3.592830359033774],[102.5127499227707,-3.620795898611798],[102.5288439158141,-3.642901251591438],[102.5281947950538,-3.656145954072512],[102.5445740611441,-3.660331984333512],[102.5514877540566,-3.676727690030804],[102.5778560203392,-3.683398526420836],[102.5734896706119,-3.698886641705082],[102.5798479674098,-3.704198961312935],[102.5829700070602,-3.745362095084628],[102.5969941780389,-3.747953657934902],[102.5983572220083,-3.766529733060667],[102.6203333334167,-3.802200000229819],[102.6059548619274,-3.811166189767759],[102.5740648149393,-3.803659125068551],[102.5634412980776,-3.808245064957719],[102.553256021748,-3.832982726371695],[102.5324543269057,-3.829047546706901],[102.5098103924358,-3.837139894690347],[102.4901312169821,-3.851349011247843],[102.4892975517406,-3.859931683100617],[102.4620773486908,-3.843688895426103],[102.4147937150579,-3.869211862837199],[102.3937178672859,-3.870909854805918],[102.3915199502855,-3.854236656096768],[102.3616759895554,-3.855111107391609],[102.3493232238877,-3.824308499937315],[102.3541772786585,-3.812665011580998],[102.3323616899401,-3.797631135768212],[102.3349751908524,-3.785083709145789],[102.3249431563017,-3.780960687185944],[102.3313665343382,-3.780296856214862],[102.3297505452515,-3.773405658044629],[102.3146936099222,-3.774595615794921],[102.2986156868645,-3.7410513900096],[102.2706738201408,-3.743382558658118],[102.2575935919707,-3.755721185184482],[102.2329052718609,-3.715254632095524],[102.2447857873342,-3.707332516782172],[102.2382987678739,-3.684076240226267],[102.1995477012655,-3.64772949761816],[102.2156166194115,-3.633088943000276],[102.2067399304035,-3.625566234594027],[102.2121218521418,-3.608251399282628],[102.1990270882296,-3.59301888391437],[102.2103505132656,-3.575679263287304],[102.2331876382989,-3.561827967186895],[102.2442237119548,-3.581784532230328],[102.2426995661321,-3.608001609886349],[102.2585305137722,-3.604917088153028],[102.2638669334124,-3.54910530856303],[102.3309017638054,-3.530019298052148],[102.3692579677811,-3.494707625656337],[102.3903651893021,-3.495600347577879],[102.4167777777723,-3.476166667257788],[102.4216327696367,-3.494077982412927]]]]}},{"type":"Feature","properties":{"kode":"17.71","nama":"Kota Bengkulu","lat":-3.841396878020871,"lng":102.30815765385036},"geometry":{"type":"MultiPolygon","coordinates":[[[[102.1800914902302,-3.838941720583902],[102.1792729560821,-3.838161258335296],[102.1792777152944,-3.837642534775101],[102.1800724542804,-3.838004213323723],[102.1800914902302,-3.838941720583902]]],[[[102.2911227451186,-3.740010383372441],[102.2986156868645,-3.7410513900096],[102.3146936099222,-3.774595615794921],[102.3297505452515,-3.773405658044629],[102.3313665343382,-3.780296856214862],[102.3249431563017,-3.780960687185944],[102.3349751908524,-3.785083709145789],[102.3323616899401,-3.797631135768212],[102.3541772786585,-3.812665011580998],[102.350554435339,-3.828214171946412],[102.3616759895554,-3.855111107391609],[102.3713397220506,-3.856461666972313],[102.3701622342997,-3.873601755016923],[102.3596691083428,-3.876772374245599],[102.3630169209942,-3.887121595185386],[102.353372200167,-3.883327778154369],[102.3420083002429,-3.900716667240347],[102.346863900049,-3.913291667076704],[102.3320278004427,-3.904136110892756],[102.3170582999007,-3.911425000063653],[102.3017111002871,-3.952899999835127],[102.3006303553067,-3.982064442719826],[102.2794460304101,-3.961508887824897],[102.2786196110063,-3.938743272384018],[102.2656470307859,-3.915389896026847],[102.2763390193304,-3.898790762783458],[102.28179275733,-3.908182220133297],[102.2740454918061,-3.913359077559322],[102.2833739984114,-3.923973230680014],[102.3005493380815,-3.918146855892671],[102.3072089851067,-3.890814209707985],[102.2853169207394,-3.906013772117836],[102.2787513113241,-3.89827782815926],[102.2867620026644,-3.902524100406859],[102.3015478346649,-3.889597725554575],[102.3019091256057,-3.866504109377081],[102.2909005514194,-3.838819079137126],[102.2469551922285,-3.788365221078019],[102.2610512307298,-3.781092621327423],[102.2610166104283,-3.750608911671874],[102.2911227451186,-3.740010383372441]]]]}}]}