{"type":"FeatureCollection","features":[{"type":"Feature","properties":{"kode":"32.01","nama":"Kabupaten Bogor","lat":-6.559797484180156,"lng":106.76704664852322},"geometry":{"type":"MultiPolygon","coordinates":[[[[106.9708690103966,-6.302884735442119],[106.9809487036199,-6.315054895566944],[106.975763726215,-6.341004791837594],[106.9661879995766,-6.342420000082853],[106.9818094726291,-6.357752752987071],[106.9797693992384,-6.36412568984868],[106.9918474094305,-6.363698255570042],[106.9975645732465,-6.378836748616993],[107.0063726026136,-6.37802652600337],[107.0089241861024,-6.401886894264734],[107.0198490001313,-6.400386000413575],[107.0306538985586,-6.411285278192994],[107.0514430001943,-6.394362999652684],[107.0611643171795,-6.398142738696392],[107.0512089561285,-6.417232436427759],[107.0584114213501,-6.423073669813987],[107.0553854643678,-6.435730907255514],[107.0638773343716,-6.434244150746941],[107.1199617542317,-6.468171923895109],[107.1291276490218,-6.47176477662306],[107.1322509998838,-6.463619999963014],[107.173604459878,-6.484872291123248],[107.1647493033377,-6.510863915037549],[107.1786870000051,-6.551969999415944],[107.1931077486238,-6.578285830726464],[107.2205125483155,-6.590748932417227],[107.2271554400716,-6.602203358997797],[107.2257937208036,-6.620703748978744],[107.2136016693816,-6.626965929833765],[107.2123899624269,-6.640402778765146],[107.1796826421403,-6.646315576602539],[107.1699001757526,-6.638681579791043],[107.1345959803203,-6.670465041828137],[107.1210448563351,-6.663283014599378],[107.0685195232575,-6.665221693026594],[107.0513254624003,-6.65658787223247],[106.9924826590475,-6.667768499316721],[107.0039876563053,-6.688295024995376],[106.9865377922854,-6.720336795706475],[106.9849819408639,-6.744670819802393],[106.9681684524123,-6.754368901903244],[106.9652083051193,-6.770465440927324],[106.9469987576866,-6.760793271891944],[106.9179612963768,-6.78747373512472],[106.8143777320467,-6.768577730677698],[106.7931775781828,-6.752360180677711],[106.7775671272213,-6.754759751761056],[106.740596849565,-6.71531724229684],[106.7252435156757,-6.718351734744735],[106.693807045359,-6.744809426014146],[106.6829678818624,-6.746531309372354],[106.6731987416287,-6.731639098365675],[106.6590941595679,-6.731782655345223],[106.6560482115558,-6.747749781027571],[106.6325780492376,-6.754975178961312],[106.5889587554423,-6.743732166805997],[106.5764543433933,-6.717367307155423],[106.5471270000111,-6.751976000192243],[106.5247092810086,-6.762376990605538],[106.4663486536675,-6.750604981934297],[106.4633984843526,-6.736903399572184],[106.4507112877957,-6.726714580813179],[106.4484469918353,-6.705560876033515],[106.4294793815683,-6.682022533413149],[106.4300108206429,-6.580048114328977],[106.4170862165557,-6.562311404347802],[106.4220371400021,-6.549911085228358],[106.4036114216299,-6.515356150965505],[106.411853531915,-6.468045026856454],[106.4012687101828,-6.452933476598658],[106.4401588704356,-6.449700894080904],[106.4546700108124,-6.42692233829523],[106.4445593791121,-6.422333677956863],[106.4539293372692,-6.413958968931225],[106.4393010170284,-6.404478559637798],[106.4420846687725,-6.396428105672473],[106.4342150199073,-6.39416549594081],[106.4379499457335,-6.387817410045375],[106.4273614053047,-6.376230811902398],[106.4319451067813,-6.366558444116847],[106.4254658277858,-6.349549275778425],[106.4425186609075,-6.324075158641643],[106.4689593136215,-6.303281611656945],[106.4841673872152,-6.325322656815117],[106.4762694402826,-6.350747770792945],[106.5193257162089,-6.354865035293037],[106.5318834796389,-6.339636741342484],[106.5132982548107,-6.325706414619318],[106.5268395501052,-6.324617168347561],[106.5579555236286,-6.340609668401402],[106.5772943551505,-6.338565284560164],[106.5938646156596,-6.362724522718536],[106.7188129997203,-6.358748000319884],[106.7378509999238,-6.438313000244714],[106.7875524222066,-6.439039072395206],[106.7951467688084,-6.441644849030562],[106.7943164328571,-6.451135854136306],[106.8232520000798,-6.444389998999237],[106.8241556595561,-6.461867180825624],[106.8502181500476,-6.435976788198142],[106.8554463650578,-6.455552580287342],[106.8821279623356,-6.456558566424667],[106.8918957850625,-6.427329240152328],[106.9053501725725,-6.412661956783853],[106.9146741465947,-6.414962032271968],[106.9218186604029,-6.388869517913846],[106.9455196795896,-6.368461840341658],[106.9439483517351,-6.358053404441026],[106.9648091868945,-6.324951317749043],[106.9611683634293,-6.308528626994451],[106.9708690103966,-6.302884735442119]],[[106.7794177296446,-6.514956500342154],[106.7650911589299,-6.515495264394903],[106.762527977784,-6.549680535927997],[106.7399005467729,-6.542337414040381],[106.7354841974378,-6.565328084823178],[106.7412513635596,-6.575494048211698],[106.7494420389191,-6.572296300933526],[106.7628970001965,-6.583116000403048],[106.790482229971,-6.627551465827412],[106.7715999069102,-6.653705539678859],[106.7847619760844,-6.660374097186742],[106.7951556918817,-6.643700640372233],[106.8058000001699,-6.652168000252948],[106.8099720001078,-6.646176000022289],[106.8190620092044,-6.671999501076068],[106.8310869998652,-6.681089000257127],[106.8439073788225,-6.678644669915527],[106.8484831203997,-6.647568030040566],[106.8319463371538,-6.613600271235479],[106.8379444590696,-6.579862421413533],[106.8292888234205,-6.550353100215371],[106.8188650001198,-6.53814100020698],[106.8097255858672,-6.546476035640473],[106.8029954149065,-6.538221800695502],[106.7962779999298,-6.550888999927355],[106.7887332005768,-6.539739635076084],[106.7888479999353,-6.515453999902191],[106.7794177296446,-6.514956500342154]]]]}},{"type":"Feature","properties":{"kode":"32.02","nama":"Kabupaten Sukabumi","lat":-7.076318269658096,"lng":106.7075692002419},"geometry":{"type":"MultiPolygon","coordinates":[[[[106.5810062439431,-7.414039119010133],[106.5815176731022,-7.415079883729606],[106.5810606880005,-7.415727129403463],[106.5808534707112,-7.413613477979623],[106.5810062439431,-7.414039119010133]]],[[[106.5881531166731,-7.41348141343641],[106.5881204056323,-7.413423972837999],[106.588186021068,-7.413378795395057],[106.5882175899699,-7.413429813934761],[106.5881531166731,-7.41348141343641]]],[[[106.5822760713836,-7.412638138938891],[106.5812359766591,-7.41364625736887],[106.5805849178598,-7.413136935321222],[106.5811195261453,-7.412638827819577],[106.5822760713836,-7.412638138938891]]],[[[106.4936568553796,-7.380677213682389],[106.4935400145601,-7.380854820793274],[106.4933713413144,-7.380805349087519],[106.4934641774299,-7.38050839474658],[106.4936568553796,-7.380677213682389]]],[[[106.4899830726607,-7.378490860165047],[106.4899009276857,-7.378060618202901],[106.4899974150488,-7.377983337660846],[106.4900725102382,-7.378076832979356],[106.4899830726607,-7.378490860165047]]],[[[106.489008777733,-7.376690841908821],[106.4889766377617,-7.376838532172484],[106.4889489917027,-7.376836161559534],[106.4890400282747,-7.376561192045354],[106.489008777733,-7.376690841908821]]],[[[106.488071731825,-7.376417322101662],[106.4879689977711,-7.376729912055761],[106.4877068498913,-7.376475694397725],[106.4877521397495,-7.376266662276602],[106.488071731825,-7.376417322101662]]],[[[106.4801566600019,-7.374087853171821],[106.4800542011405,-7.373992782241049],[106.4800680399082,-7.373906250373156],[106.4801738217645,-7.373924731441121],[106.4801566600019,-7.374087853171821]]],[[[106.4778089842972,-7.37342339987002],[106.4777390584109,-7.373357564999576],[106.4779030857589,-7.373139000064802],[106.4779786791728,-7.373244323266873],[106.4778089842972,-7.37342339987002]]],[[[106.4772881626186,-7.373022454222848],[106.4772979742222,-7.373113855020356],[106.477235602641,-7.373227273020148],[106.4771452333659,-7.37295704832908],[106.4772881626186,-7.373022454222848]]],[[[106.3797684516528,-7.248809748870747],[106.3796780841763,-7.248757607977189],[106.3796859802239,-7.248653373854078],[106.3798013641417,-7.248732729132072],[106.3797684516528,-7.248809748870747]]],[[[106.3788594322171,-7.247470302212625],[106.378979826258,-7.247311086237555],[106.3787935829576,-7.247557957333831],[106.3786926817219,-7.24730614176499],[106.3788594322171,-7.247470302212625]]],[[[106.3774175024159,-7.246931275557848],[106.3772393206382,-7.246811395929135],[106.3774049631686,-7.246711058568493],[106.3774937847104,-7.24677418108353],[106.3774175024159,-7.246931275557848]]],[[[106.3775432609128,-7.245916925725541],[106.3774569188019,-7.246422405869239],[106.3770455419183,-7.246480353685384],[106.3770397287006,-7.245996099340494],[106.3775432609128,-7.245916925725541]]],[[[106.3902530601307,-7.228275994441517],[106.39004197126,-7.228240806667844],[106.3902268053229,-7.22800313383745],[106.3903659142556,-7.228092200894291],[106.3902530601307,-7.228275994441517]]],[[[106.3887484008181,-7.218878247233266],[106.3885733783588,-7.219100628890888],[106.3883771543822,-7.218964099213724],[106.3885997581724,-7.218719415268796],[106.3887484008181,-7.218878247233266]]],[[[106.3810270717421,-7.209085477312875],[106.3813054685725,-7.208523924439517],[106.3817670842836,-7.208600067339236],[106.381772787784,-7.208659755343375],[106.3810270717421,-7.209085477312875]]],[[[106.4178813539413,-7.186584104272934],[106.4176029571109,-7.18643776658963],[106.4175565565899,-7.1862200461182],[106.4176350790957,-7.186248599593163],[106.4178813539413,-7.186584104272934]]],[[[106.4345816006605,-7.184506834922447],[106.4343424646331,-7.184185606980157],[106.4344352638763,-7.184057116342827],[106.4345459092663,-7.184110653883539],[106.4345816006605,-7.184506834922447]]],[[[106.4426896139346,-7.184448538169511],[106.4422327583352,-7.184127310227132],[106.4421328202735,-7.183763252971679],[106.4428252433903,-7.184205832732963],[106.4426896139346,-7.184448538169511]]],[[[106.4463465748346,-7.180724575978362],[106.4474179299935,-7.181828677251615],[106.4474482596296,-7.182086511083589],[106.4463926830759,-7.181089653064968],[106.4463465748346,-7.180724575978362]]],[[[106.4484795643805,-7.153267567044511],[106.4486574970459,-7.15332680089105],[106.4487494851008,-7.153616510293651],[106.4481299673242,-7.153253463876189],[106.4484795643805,-7.153267567044511]]],[[[106.5254621511574,-7.072964015077136],[106.525065792952,-7.073580585775367],[106.5248043303556,-7.073596091886073],[106.5252183089779,-7.072391048008412],[106.5254621511574,-7.072964015077136]]],[[[106.4569624510564,-6.957191226793639],[106.4568596522512,-6.957248590949731],[106.4566638968214,-6.957224196839177],[106.4569245491287,-6.957066096922818],[106.4569624510564,-6.957191226793639]]],[[[106.74156791143,-6.715603831951248],[106.7775671272213,-6.754759751761056],[106.7931775781828,-6.752360180677711],[106.8143777320467,-6.768577730677698],[106.8313055279279,-6.766972222290216],[106.8998643800371,-6.788224267036273],[106.9204942423155,-6.786666423616498],[106.935638598043,-6.767532394704271],[106.9589921587612,-6.761791292733913],[106.9929099035692,-6.799010381323959],[106.9959536491416,-6.834403801194425],[107.031474824004,-6.87135135927777],[107.03181870407,-6.89706454769066],[107.0484015559871,-6.910566128024324],[107.0485803412099,-6.942241443887535],[107.063976755323,-6.961539279813848],[107.0416991461987,-6.962791057861021],[107.0323120703459,-6.981157021679144],[107.0570944325621,-7.016154928706956],[107.0560556652369,-7.03134071170444],[107.048076809897,-7.030754726049774],[107.0394089083945,-7.045874137281575],[107.0113656835794,-7.030057074274491],[106.9958633356245,-7.031803756438108],[106.9845289406582,-7.014403892925251],[106.9748751375776,-7.016714010243311],[106.9583641289015,-7.033273986105541],[106.953977959915,-7.068296728810956],[106.9435759226907,-7.074841409203606],[106.9482757680124,-7.085975433419448],[106.9366250805831,-7.109111369893721],[106.9423595320668,-7.132854625740296],[106.9659089732206,-7.144947100628122],[106.9674303320443,-7.155955949107699],[106.9578518273999,-7.164548026070498],[106.9748161069778,-7.185738942098467],[106.9678958750946,-7.195912948124032],[106.9826378687427,-7.222401041874508],[106.9799579403067,-7.241190068366946],[106.9669738856363,-7.245513944912644],[106.960317870973,-7.260270022843222],[106.975995134368,-7.284710925968411],[106.9671689719706,-7.312170025825963],[106.9537450121227,-7.321150897695698],[106.9405931169789,-7.317818012890934],[106.9341090832677,-7.334128013197176],[106.9150770050997,-7.322981018059486],[106.9093991452544,-7.349296040879575],[106.8952780831171,-7.341427026935746],[106.8768382022213,-7.353529078703928],[106.8753661055614,-7.363960053413691],[106.8686420823662,-7.355588980347142],[106.8556568666711,-7.362025967824052],[106.8585558888433,-7.354220088086531],[106.8231351736494,-7.362458051597701],[106.7951239566054,-7.396819970665084],[106.7771451383375,-7.401954971844375],[106.7808470662392,-7.415602085867493],[106.7898301027771,-7.409734037395913],[106.7942850627055,-7.426977057345211],[106.7925582798408,-7.4372497091068],[106.5978272561231,-7.41295209316453],[106.5750596217042,-7.418054722347537],[106.5600448627803,-7.417034394721504],[106.5237395870125,-7.407855659411115],[106.4907257957589,-7.37627237387091],[106.4429229205564,-7.360612810932458],[106.4140873633412,-7.362915541219176],[106.4053632775933,-7.382505065955928],[106.3981068530489,-7.332647018644937],[106.3726387119071,-7.308028377107848],[106.3783354629113,-7.295255015606442],[106.3702725758188,-7.279553260074837],[106.3849634960686,-7.267916391628119],[106.3732217154099,-7.236901452440029],[106.3759543683994,-7.236485339726587],[106.3762664160624,-7.237641159212131],[106.3776239220065,-7.237458396287958],[106.3787066886628,-7.239092083133051],[106.380081134237,-7.239827822995596],[106.3809345395974,-7.239837946663811],[106.3913647202057,-7.228583478045073],[106.3866427092937,-7.216510388943202],[106.3983727870746,-7.207831944688418],[106.4009247491779,-7.186392174559123],[106.4248130440868,-7.190536153420694],[106.4366230302287,-7.184502687249132],[106.4436837272223,-7.191747236245919],[106.4628993804021,-7.180273352832937],[106.4662193203654,-7.172319838589639],[106.4491858469493,-7.153219425436034],[106.4571692231812,-7.129243416050794],[106.467357496951,-7.127734368945918],[106.4842479376922,-7.104004811572721],[106.5059820046659,-7.096142376169627],[106.5453082084071,-7.054655472971642],[106.5452465481897,-7.027374706877224],[106.5399408341022,-7.026413943148916],[106.5332261305816,-7.021741859898859],[106.5431643109843,-7.025543502830337],[106.5344716673337,-7.019922871343435],[106.5377080243059,-7.021725399607507],[106.5407551837048,-7.020807108161512],[106.5430024716868,-6.985166660712742],[106.5098917739862,-6.964542314875891],[106.4446275441259,-6.952085504842102],[106.4166623651761,-6.96314471265829],[106.4139354642503,-6.975743083176748],[106.3970656296751,-6.978914742921009],[106.3896578591229,-6.942165259619041],[106.4002874203282,-6.923598630072617],[106.3928985436329,-6.900634794160413],[106.4310799922479,-6.862095580846343],[106.436089923811,-6.819777742748538],[106.447384929371,-6.818386953794845],[106.4572407714445,-6.803730993790306],[106.4976494756428,-6.791170723949661],[106.5255893332811,-6.768530602605142],[106.5257036739854,-6.758563883116667],[106.5471270000111,-6.751976000192243],[106.5755420000633,-6.717540000370618],[106.5889587554423,-6.743732166805997],[106.6317439280399,-6.754998292437246],[106.6560482115558,-6.747749781027571],[106.6590941595679,-6.731782655345223],[106.6731987416287,-6.731639098365675],[106.6829678818624,-6.746531309372354],[106.693807045359,-6.744809426014146],[106.7252435156757,-6.718351734744735],[106.74156791143,-6.715603831951248]],[[106.9147309306879,-6.892468446361625],[106.9009900002884,-6.913942000422927],[106.9006340000592,-6.933246000302588],[106.911524024714,-6.952324734398888],[106.8737926643001,-6.963114776026006],[106.8748425553398,-6.976121516094994],[106.8887456011286,-6.969342431907658],[106.8973041378758,-6.97807138568585],[106.91183061619,-6.97819551281265],[106.931261757724,-6.96534806066447],[106.946500614212,-6.968960498827918],[106.9556684983026,-6.958359136764684],[106.9544369999676,-6.904015000391865],[106.9180653982996,-6.902888719138981],[106.9147309306879,-6.892468446361625]]]]}},{"type":"Feature","properties":{"kode":"32.03","nama":"Kabupaten Cianjur","lat":-7.130889287643893,"lng":107.15920189006812},"geometry":{"type":"MultiPolygon","coordinates":[[[[107.2302258577372,-6.604940633603266],[107.2683882011546,-6.644619628792795],[107.2514428163329,-6.693943068717604],[107.2714440983665,-6.707375582017487],[107.2878030172955,-6.707760041292835],[107.3019128792761,-6.726250925439795],[107.2903528956697,-6.736672971680306],[107.2844258732555,-6.774384959798033],[107.2912399572582,-6.788398990021331],[107.3141560688476,-6.800709912032747],[107.3242821311155,-6.851801995565569],[107.3380009759644,-6.857628997180391],[107.3434950512557,-6.848949260599894],[107.3493270036384,-6.865817041123438],[107.3411360917573,-6.885737930061423],[107.323242480656,-6.887883510115848],[107.2832137202371,-6.923302739629626],[107.2508997598161,-6.928524629707836],[107.1902290205529,-6.968105892872582],[107.1845679159766,-6.996020367146175],[107.1956289997786,-7.021112024200508],[107.1819356830854,-7.058126868659968],[107.2233524463584,-7.058302901057959],[107.2244455759027,-7.049142734949213],[107.2521732034307,-7.048257520568128],[107.2855744756816,-7.085195713111573],[107.3044422647988,-7.085604721180942],[107.3181818354235,-7.103289169759267],[107.3041635316217,-7.164710679254397],[107.2758651295721,-7.180628040951279],[107.2722335421443,-7.16929021956794],[107.2514479505625,-7.201308187023229],[107.2821600817224,-7.206340154674321],[107.2890050403504,-7.214006970445278],[107.3064123259682,-7.204061262717047],[107.3060418223723,-7.19366724744546],[107.3184023995511,-7.190363004249249],[107.3311485106953,-7.20725911971252],[107.3429801057473,-7.204374635081282],[107.3556673922364,-7.217544118266409],[107.3533221141244,-7.235513428002242],[107.3784699536255,-7.239575768207088],[107.3835762826194,-7.251374852767149],[107.395276110804,-7.244897224027617],[107.4225771961807,-7.256977918695976],[107.4379781042062,-7.251941779089836],[107.4421575136584,-7.242557233929218],[107.477712814195,-7.255222112910146],[107.4549442453807,-7.292119797290723],[107.4845640860638,-7.356907145448392],[107.4738160562661,-7.401505011347157],[107.4318800172491,-7.423579996019995],[107.420308962089,-7.462072935617384],[107.4260649838121,-7.50284707932927],[107.4067335725964,-7.502221447961403],[107.3992747942964,-7.493687350290904],[107.3519639076083,-7.499639550125074],[107.239675541693,-7.488076026787186],[107.0796720411318,-7.452341108255459],[106.874119819674,-7.434419134335516],[106.793795391744,-7.436830073748872],[106.7898301027771,-7.409734037395913],[106.7808470662392,-7.415602085867493],[106.7771451383375,-7.401954971844375],[106.7951239566054,-7.396819970665084],[106.8231351736494,-7.362458051597701],[106.8585558888433,-7.354220088086531],[106.8556568666711,-7.362025967824052],[106.8686420823662,-7.355588980347142],[106.8753661055614,-7.363960053413691],[106.8768382022213,-7.353529078703928],[106.8952780831171,-7.341427026935746],[106.9093991452544,-7.349296040879575],[106.9150770050997,-7.322981018059486],[106.9341090832677,-7.334128013197176],[106.9405931169789,-7.317818012890934],[106.9537450121227,-7.321150897695698],[106.9671689719706,-7.312170025825963],[106.975995134368,-7.284710925968411],[106.960317870973,-7.260270022843222],[106.9669738856363,-7.245513944912644],[106.9799579403067,-7.241190068366946],[106.9826378687427,-7.222401041874508],[106.9678958750946,-7.195912948124032],[106.9748161069778,-7.185738942098467],[106.9578518273999,-7.164548026070498],[106.9674303320443,-7.155955949107699],[106.9659089732206,-7.144947100628122],[106.9423595320668,-7.132854625740296],[106.9364046882258,-7.117076763281974],[106.9587389249615,-7.032575934131983],[106.9824020476165,-7.013717021323433],[106.9958633356245,-7.031803756438108],[107.0113656835794,-7.030057074274491],[107.0394089083945,-7.045874137281575],[107.0594076147697,-7.023187554262193],[107.0325439308578,-6.983733044244537],[107.0416991461987,-6.962791057861021],[107.063976755323,-6.961539279813848],[107.0485803412099,-6.942241443887535],[107.0484015559871,-6.910566128024324],[107.03181870407,-6.89706454769066],[107.031474824004,-6.87135135927777],[106.9959536491416,-6.834403801194425],[106.9929099035692,-6.799010381323959],[106.9645176275865,-6.767894280996226],[106.9681684524123,-6.754368901903244],[106.9849819408639,-6.744670819802393],[106.9865377922854,-6.720336795706475],[107.0039364111365,-6.68850324143138],[106.9923913301958,-6.667847166613398],[107.0513254624003,-6.65658787223247],[107.0685195232575,-6.665221693026594],[107.1210448563351,-6.663283014599378],[107.1345959803203,-6.670465041828137],[107.1699001757526,-6.638681579791043],[107.1796826421403,-6.646315576602539],[107.2123474910439,-6.640438471058533],[107.2132790357989,-6.627443040863649],[107.2234051196506,-6.62466231011745],[107.2302258577372,-6.604940633603266]]]]}},{"type":"Feature","properties":{"kode":"32.04","nama":"Kabupaten Bandung","lat":-7.097588023276304,"lng":107.60872729837905},"geometry":{"type":"MultiPolygon","coordinates":[[[[107.7499965903704,-6.812852939611406],[107.7409869150142,-6.854865862569496],[107.7588468186259,-6.899191589120494],[107.7528806370318,-6.95523579129869],[107.7813603244195,-6.955125305988012],[107.828546218833,-6.971636778714333],[107.8310376556634,-6.964224832609903],[107.8616461210718,-6.967576441299687],[107.9173627613824,-6.953146524992063],[107.9162474653483,-6.968247351733829],[107.889412023746,-6.982501045886539],[107.9064229421651,-6.990224209579558],[107.9100738479298,-7.035920959784362],[107.9346303193339,-7.03515200616012],[107.9384322761287,-7.043779273594523],[107.9237406975751,-7.053364587905334],[107.8919596457211,-7.050547771862074],[107.8492924992495,-7.05901305970487],[107.834792175019,-7.069370570595338],[107.8338428137949,-7.089929580685598],[107.8111215088506,-7.098010322018736],[107.8072409647987,-7.142879904583913],[107.7883155579168,-7.161517242426711],[107.7647459539627,-7.15567780858393],[107.7366878750455,-7.173423073815747],[107.7211480757232,-7.198374415047208],[107.7253181996752,-7.211865640586782],[107.7071127720368,-7.227445907602518],[107.7062072275816,-7.237907435879424],[107.7109613236063,-7.249057466229018],[107.7376919384322,-7.264104091730398],[107.7368248543836,-7.275661700227224],[107.7222830812992,-7.289491921614814],[107.730961846612,-7.294651485977236],[107.7155266267524,-7.299189948857058],[107.6962438859466,-7.282338143890214],[107.6676026389507,-7.301150073417054],[107.6576667194437,-7.289773521830493],[107.6077945959439,-7.309305695901073],[107.5992276370459,-7.282952287318149],[107.5821551627307,-7.276700884837942],[107.554997619045,-7.250606265166918],[107.5462537841848,-7.257486124684912],[107.5339314209984,-7.247992021414599],[107.5204105403142,-7.256946408250079],[107.5029027329748,-7.249723648927179],[107.4926159312803,-7.258699007952866],[107.4421575136584,-7.242557233929218],[107.4379781042062,-7.251941779089836],[107.4225771961807,-7.256977918695976],[107.395276110804,-7.244897224027617],[107.3838101189419,-7.251447269775627],[107.3784699536255,-7.239575768207088],[107.3533221141244,-7.235513428002242],[107.3556673922364,-7.217544118266409],[107.3429801057473,-7.204374635081282],[107.3311485106953,-7.20725911971252],[107.3184023995511,-7.190363004249249],[107.3060418223723,-7.19366724744546],[107.3064123259682,-7.204061262717047],[107.2890050403504,-7.214006970445278],[107.2821600817224,-7.206340154674321],[107.2514479505625,-7.201308187023229],[107.2722335421443,-7.16929021956794],[107.2758651295721,-7.180628040951279],[107.3015627039557,-7.168215804915405],[107.3102847959067,-7.124308857567633],[107.3305932863511,-7.098224036909765],[107.354705661737,-7.098239202177385],[107.3589819200796,-7.090256085849659],[107.3707455983307,-7.103523233610324],[107.3761939997534,-7.092212999830031],[107.3909690003192,-7.099602999778635],[107.396234000299,-7.092181999299799],[107.4089476090449,-7.096888975345887],[107.4221400006606,-7.075160000333706],[107.4194150000023,-7.056716999689775],[107.4376510000936,-7.046044000330268],[107.4777386849924,-7.057180556137758],[107.4816545337298,-7.022536753568235],[107.4693660749844,-6.998464756843052],[107.4864800008514,-6.999969998916259],[107.4877314542433,-6.979726345994023],[107.5049000004347,-6.981792999747042],[107.5309184376359,-6.942012961229142],[107.5223262203788,-6.935580020701408],[107.5276429844362,-6.916880677301388],[107.5439052541242,-6.919383772942726],[107.5610807205988,-6.949035761691017],[107.5837703676084,-6.961938686720951],[107.6942844340794,-6.969499127082982],[107.7160931429842,-6.961348509326174],[107.7130287615682,-6.947474068273588],[107.7381920451269,-6.89962763710568],[107.7260377580362,-6.895092383906291],[107.7149460019565,-6.904019918784136],[107.7145230283152,-6.890163028001232],[107.7076742862394,-6.8898014411835],[107.6999505568728,-6.908294135665719],[107.6808752896629,-6.889558179966019],[107.6687968226153,-6.89208211289916],[107.6701256123073,-6.883989687574025],[107.6564020711987,-6.894308220947635],[107.6459944482852,-6.888121658687555],[107.6432168831528,-6.893025096131193],[107.6324073442237,-6.889400171780461],[107.6239327627868,-6.861886283425171],[107.6606629996978,-6.832136999722741],[107.6899939322742,-6.829241144063473],[107.689250999634,-6.835442000148165],[107.70340000011,-6.84026000019882],[107.7272079999493,-6.832667999928236],[107.7499965903704,-6.812852939611406]]]]}},{"type":"Feature","properties":{"kode":"32.05","nama":"Kabupaten Garut","lat":-7.359447415174056,"lng":107.78793765042445},"geometry":{"type":"MultiPolygon","coordinates":[[[[107.8993915181041,-7.740605406414306],[107.8989662296079,-7.740621516869409],[107.8990619318627,-7.740278424609563],[107.8992589562359,-7.740236663691017],[107.8993915181041,-7.740605406414306]]],[[[107.9192157991698,-7.740106085727198],[107.919019493355,-7.740266700147983],[107.9188910018183,-7.740234577263897],[107.9190587541583,-7.739988303317506],[107.9192157991698,-7.740106085727198]]],[[[107.9067850982538,-7.738804044570972],[107.9062639959867,-7.73886472182939],[107.9061890428901,-7.738779061404503],[107.9068671892694,-7.738622017292211],[107.9067850982538,-7.738804044570972]]],[[[107.8518193387915,-7.735900253294029],[107.853247756279,-7.736947459857361],[107.8495752236177,-7.736227066026195],[107.8501028639561,-7.735344198875608],[107.8518193387915,-7.735900253294029]]],[[[107.9182521414233,-6.947613939831391],[107.9314229304239,-6.955915670671668],[107.9665506716762,-6.95873639966507],[107.9906888701953,-6.981968524927388],[108.0230828558892,-6.981772622908159],[108.0421160779947,-6.996352561421552],[108.0821162507645,-6.987134568905144],[108.1000584657257,-7.019531641072322],[108.1262268630794,-7.037199392837649],[108.1363508398195,-7.060369963103223],[108.1179862762457,-7.078060408361146],[108.1260022789821,-7.102149886108292],[108.1225057175649,-7.11476533834963],[108.1133572309515,-7.102631327373813],[108.0993809731535,-7.102882254412427],[108.0679744754418,-7.130209144036729],[108.0876995019306,-7.16267484796587],[108.0786284055765,-7.170892449926551],[108.0634419957516,-7.220177790072916],[107.9895408829055,-7.24520039178456],[107.9735586279284,-7.270319989875577],[107.9224715041566,-7.289005559259091],[107.9314977000589,-7.303014089228802],[107.9285374907127,-7.312703438013183],[107.940271012897,-7.316213609770176],[107.9470530333709,-7.330861819417382],[107.9379034315981,-7.330998831131089],[107.9291118130598,-7.349793683431719],[107.9045398553302,-7.362680603227182],[107.9409421517589,-7.393387251220655],[107.9403917990423,-7.407561070287087],[107.9514782689071,-7.421802277353144],[107.9453153462263,-7.438325886430412],[107.9533703957272,-7.460348520667618],[107.9432725388966,-7.503937048655799],[107.9468680940873,-7.540439070007014],[107.9351611963322,-7.557318532724081],[107.9403411600166,-7.580982425198694],[107.9169459948619,-7.597521904612207],[107.9251742007288,-7.61801669321576],[107.923250549973,-7.652110206920407],[107.930264886915,-7.657429853305046],[107.9233110329778,-7.665380451046903],[107.9311426252321,-7.68257859032964],[107.9270799999421,-7.700429272293067],[107.9069462180936,-7.736982315781197],[107.8746872674036,-7.740241565895526],[107.8503468716109,-7.734429201646246],[107.8433215143764,-7.735273910562483],[107.8315050630083,-7.702557712168615],[107.7898993566701,-7.681065709414873],[107.7184658953848,-7.666297870150522],[107.6903924758322,-7.668223892418683],[107.6752242323126,-7.628361854615821],[107.6256713609447,-7.598389611891036],[107.600679555617,-7.571089240575971],[107.4999477226094,-7.535180195309702],[107.4832070037003,-7.538917845182328],[107.4738480262654,-7.518519805644511],[107.4233192124118,-7.505204815749592],[107.4202819383608,-7.462552037746288],[107.4338398198518,-7.420406001635608],[107.4743510431662,-7.400408099254355],[107.4847987263802,-7.352523900157752],[107.4658845790101,-7.326974326304096],[107.4549442453807,-7.292119797290723],[107.4806371289004,-7.2515713321512],[107.4926159312803,-7.258699007952866],[107.5029027329748,-7.249723648927179],[107.5204105403142,-7.256946408250079],[107.5337743759867,-7.247984882596174],[107.5460629102751,-7.257467084238537],[107.5573972359937,-7.251450697091925],[107.5821551627307,-7.276700884837942],[107.5992276370459,-7.282952287318149],[107.6077945959439,-7.309305695901073],[107.6576667194437,-7.289773521830493],[107.6676026389507,-7.301150073417054],[107.6962438859466,-7.282338143890214],[107.7155266267524,-7.299189948857058],[107.730961846612,-7.294651485977236],[107.7222830812992,-7.289491921614814],[107.7368248543836,-7.275661700227224],[107.7376919384322,-7.264104091730398],[107.7109613236063,-7.249057466229018],[107.7062072275816,-7.237907435879424],[107.7071127720368,-7.227445907602518],[107.7253181996752,-7.211865640586782],[107.7211480757232,-7.198374415047208],[107.7366878750455,-7.173423073815747],[107.7647459539627,-7.15567780858393],[107.7883155579168,-7.161517242426711],[107.8072409647987,-7.142879904583913],[107.8111215088506,-7.098010322018736],[107.8338428137949,-7.089929580685598],[107.834792175019,-7.069370570595338],[107.8492924992495,-7.05901305970487],[107.8919596457211,-7.050547771862074],[107.9237406975751,-7.053364587905334],[107.9384322761287,-7.043779273594523],[107.9346303193339,-7.03515200616012],[107.9100738479298,-7.035920959784362],[107.9064229421651,-6.990224209579558],[107.889412023746,-6.982501045886539],[107.9162474653483,-6.968247351733829],[107.9182521414233,-6.947613939831391]]]]}},{"type":"Feature","properties":{"kode":"32.06","nama":"Kabupaten Tasikmalaya","lat":-7.4967358506542405,"lng":108.14156672113884},"geometry":{"type":"MultiPolygon","coordinates":[[[[108.3230549331388,-7.819623548388036],[108.3231786645638,-7.820226740771456],[108.3219544318516,-7.820458738879647],[108.3228088138757,-7.81962122004323],[108.3230549331388,-7.819623548388036]]],[[[108.322671994617,-7.818906191567424],[108.3226113182577,-7.819378514606771],[108.3216143244415,-7.819677137190054],[108.322183015234,-7.819026355381967],[108.322671994617,-7.818906191567424]]],[[[108.322107351673,-7.818509246104791],[108.3222158557772,-7.81877193897376],[108.3218246731702,-7.818881870302067],[108.3218517976224,-7.818703409734588],[108.322107351673,-7.818509246104791]]],[[[108.2983893820643,-7.816517582320496],[108.2986678976055,-7.816631185580717],[108.2988024568679,-7.817326598943345],[108.2979820188551,-7.816782178154894],[108.2983893820643,-7.816517582320496]]],[[[108.2626852464271,-7.375817496780072],[108.2638243448177,-7.375873315900775],[108.2645540349408,-7.376319663821355],[108.2639369965952,-7.376328140831027],[108.2626852464271,-7.375817496780072]]],[[[108.1293858558727,-7.040702796296986],[108.1391673725763,-7.03922726962272],[108.1561520226977,-7.066881227386705],[108.1937120964362,-7.070781382954364],[108.2088330383142,-7.087972928407885],[108.2196421482666,-7.087944722071241],[108.2199465400009,-7.123327235863179],[108.2014050689888,-7.137451984321589],[108.2033478501232,-7.152059023904726],[108.1925778741696,-7.169590112893313],[108.1993068229516,-7.225367345926229],[108.1885198749924,-7.254949836865413],[108.1933173102458,-7.269313204240894],[108.1791718602932,-7.271584870145612],[108.1763731601932,-7.288405320249306],[108.1534910789502,-7.295133892215303],[108.1612883323907,-7.3215116868149],[108.1524714231177,-7.334803162136153],[108.1671365517105,-7.34411655923182],[108.1636104853357,-7.363088000610655],[108.1711731623117,-7.385614340629302],[108.1846326903465,-7.395274181758075],[108.1789487681711,-7.406824765650359],[108.1863113199116,-7.414281950351657],[108.1837843958332,-7.441188882660724],[108.1938071349913,-7.44156995868657],[108.1874750039683,-7.446478950343209],[108.1996917121029,-7.450503948898105],[108.2131587944428,-7.434689731346004],[108.2685898253602,-7.425393638105841],[108.2779038717664,-7.404977516798875],[108.2712772757258,-7.393355610373113],[108.2825252368502,-7.384623871394495],[108.2652028904012,-7.374429665696506],[108.284427892933,-7.363734821804505],[108.286098077864,-7.348343550014728],[108.2973397554254,-7.340345843086097],[108.3235295998112,-7.339399974828956],[108.3424439711125,-7.355866110932289],[108.4052364646911,-7.360121451943406],[108.4149387421293,-7.377030113848607],[108.4001911160273,-7.389256165039874],[108.3959334115977,-7.408226815914779],[108.4048836993233,-7.421927173400248],[108.4206149786983,-7.423076647269403],[108.4247141191613,-7.484135854086364],[108.4424100313979,-7.488629733075739],[108.4277144229823,-7.500790516868764],[108.4167310648868,-7.489130715709872],[108.4104505288689,-7.497921575220427],[108.3998870165726,-7.479398713879507],[108.3740259364479,-7.478952341677195],[108.3520280758351,-7.498018047294933],[108.3396917749555,-7.494817727955708],[108.3343014229724,-7.507488214209682],[108.3331850666376,-7.548626443055876],[108.353844030078,-7.56220153397356],[108.3588886907606,-7.608114917369483],[108.3616365899567,-7.605044779393014],[108.3673616201427,-7.608707355659909],[108.3592769181953,-7.613761827945956],[108.3647783769207,-7.622578049237542],[108.3575212769854,-7.62229968927917],[108.3546485033259,-7.637568976127244],[108.3664028690973,-7.658749166840532],[108.3544295229043,-7.672282173083803],[108.3555731331937,-7.683354887817798],[108.3403582643225,-7.681701434773362],[108.3299309714372,-7.690890544662902],[108.3237173827511,-7.68285938385345],[108.3248002258498,-7.692994396174394],[108.3144506191009,-7.690225755014505],[108.3243051121912,-7.714739013094877],[108.3320076481345,-7.712163911435325],[108.3244820304214,-7.720007155305967],[108.3197296512026,-7.714604863024003],[108.320502204813,-7.725983967785836],[108.3129336561634,-7.724589648993056],[108.3241747347762,-7.757233758630981],[108.3251313157577,-7.778975762121635],[108.3180967269824,-7.786620242330303],[108.3434921399504,-7.803138184779338],[108.340765659008,-7.816824679215521],[108.1450676608439,-7.785941326131222],[107.9944892172037,-7.742773448835542],[107.9100679231962,-7.731059800769095],[107.931234342591,-7.686092211886012],[107.9236122231257,-7.676383476416308],[107.930264886915,-7.657429853305046],[107.923250549973,-7.652110206920407],[107.9251742007288,-7.61801669321576],[107.9170061181379,-7.597104337694986],[107.9424827416852,-7.57354991069981],[107.9351611963322,-7.557318532724081],[107.946168540246,-7.54500528236786],[107.9432725388966,-7.503937048655799],[107.9533703957272,-7.460348520667618],[107.9455851473367,-7.450951134087517],[107.9517325036522,-7.424245613943884],[107.9403917990423,-7.407561070287087],[107.9436014848207,-7.398180211447495],[107.9045398553302,-7.362680603227182],[107.9291118130598,-7.349793683431719],[107.9379034315981,-7.330998831131089],[107.9470530333709,-7.330861819417382],[107.940271012897,-7.316213609770176],[107.9285374907127,-7.312703438013183],[107.9314977000589,-7.303014089228802],[107.9224715041566,-7.289005559259091],[107.9735586279284,-7.270319989875577],[107.9895408829055,-7.24520039178456],[108.06487708441,-7.218615138877541],[108.0786284055765,-7.170892449926551],[108.0876995019306,-7.16267484796587],[108.0679744754418,-7.130209144036729],[108.0993809731535,-7.102882254412427],[108.1133572309515,-7.102631327373813],[108.1225057175649,-7.11476533834963],[108.1260022789821,-7.102149886108292],[108.1179862762457,-7.078060408361146],[108.1363508398195,-7.060369963103223],[108.1293858558727,-7.040702796296986]]]]}},{"type":"Feature","properties":{"kode":"32.07","nama":"Kabupaten Ciamis","lat":-7.290249924234724,"lng":108.4286452357121},"geometry":{"type":"MultiPolygon","coordinates":[[[[108.3579888578995,-7.051960317214848],[108.4013100003563,-7.085510000086418],[108.4167409996975,-7.08917399998004],[108.4137700002854,-7.096342999629694],[108.4255189998021,-7.094922999796508],[108.4262450000068,-7.102315999883472],[108.4387100001665,-7.106531000005559],[108.4394500001175,-7.117905000215589],[108.4680099996618,-7.117999000053813],[108.5113099999566,-7.131885000092612],[108.5056899997937,-7.14043699966778],[108.5162900002833,-7.141329000333022],[108.5084700002903,-7.160860999935163],[108.5194330004327,-7.160454000052034],[108.5169500001424,-7.165677999939727],[108.5289500004423,-7.171062000011278],[108.5258699996008,-7.181056999580874],[108.5811083552665,-7.206225940774472],[108.5853182679238,-7.218453453364119],[108.5818045474419,-7.253707830851645],[108.5731722941661,-7.25445656232047],[108.567343135977,-7.278009044981352],[108.5559760092855,-7.287800043237417],[108.5643447360208,-7.303875957209608],[108.5591896251012,-7.332261099769858],[108.5466047093399,-7.344299181861728],[108.5354109908246,-7.343448762250552],[108.5237647829185,-7.359330223910624],[108.48917296566,-7.350014032621458],[108.4697128362784,-7.361610290382518],[108.4782145412681,-7.36875209813073],[108.4696152562391,-7.381886133638086],[108.5329337156185,-7.415883008893668],[108.5441177862069,-7.412299860749964],[108.5654230762141,-7.429809044951411],[108.5670960823184,-7.444531997253793],[108.6002368731333,-7.394469505263394],[108.6155911036466,-7.40584427978959],[108.631060163196,-7.381731899007863],[108.6505024113573,-7.388222324200892],[108.6662513767996,-7.353057913092157],[108.6831419830162,-7.369420467980151],[108.6779416541841,-7.376647097985138],[108.6851433181097,-7.379341424567069],[108.687491316671,-7.399986971021892],[108.6971535104262,-7.400098823302041],[108.6995691101264,-7.414749209308517],[108.7230607887245,-7.430560663243994],[108.7123855113823,-7.458504765682309],[108.7181103149392,-7.469421851836947],[108.7076925341831,-7.469298332651845],[108.7061177448381,-7.477244905927608],[108.6984254980383,-7.461796353618747],[108.6487151194073,-7.467887341327709],[108.6461862114246,-7.479487870868499],[108.6596628265782,-7.512782415176281],[108.6466126348653,-7.540278497854373],[108.5902963616878,-7.564173654590415],[108.5277790282796,-7.573915372696297],[108.5212746510044,-7.544870063002999],[108.5346370783385,-7.535726886886244],[108.5270197846354,-7.526871968666419],[108.494330275422,-7.531524681418914],[108.4580618844485,-7.516163431696991],[108.4530764540152,-7.50359011898876],[108.4336151797968,-7.505028641258686],[108.4270800016408,-7.500570877244143],[108.4425696781481,-7.488338351833405],[108.4254273885632,-7.486279696650636],[108.4206149786983,-7.423076647269403],[108.4048836993233,-7.421927173400248],[108.396079785254,-7.408786833645457],[108.4001911160273,-7.389256165039874],[108.4149387421293,-7.377030113848607],[108.4057427011648,-7.36033286367073],[108.373685343404,-7.359819352580991],[108.3627392568114,-7.352261078685788],[108.3424439711125,-7.355866110932289],[108.3235295998112,-7.339399974828956],[108.2780351494027,-7.334502103289323],[108.2699393624117,-7.318852610059849],[108.2524886350425,-7.321373515874966],[108.2495090219239,-7.312986812591297],[108.198645662967,-7.28281863277365],[108.1881283398511,-7.262038748289593],[108.1992514696797,-7.230660388566061],[108.1925156320908,-7.170156621930505],[108.2033478501232,-7.152059023904726],[108.2014050689888,-7.137451984321589],[108.2199465400009,-7.123327235863179],[108.2196421482666,-7.087944722071241],[108.1670253946064,-7.063493908417121],[108.2096306650232,-7.053396315087816],[108.2278041433466,-7.054595270555256],[108.2450079357676,-7.066621794560105],[108.3145542227992,-7.056578311639753],[108.3423648928256,-7.069960568125636],[108.3493623333051,-7.054032420859428],[108.3579888578995,-7.051960317214848]]]]}},{"type":"Feature","properties":{"kode":"32.08","nama":"Kabupaten Kuningan","lat":-7.00337928092881,"lng":108.55981098532055},"geometry":{"type":"MultiPolygon","coordinates":[[[[108.4456100818398,-6.781915064228786],[108.4559403081987,-6.799124129375026],[108.4682541404163,-6.791321628390427],[108.4782867856067,-6.79914606294039],[108.5125122730231,-6.791162868371695],[108.5050278055888,-6.822901617015979],[108.5118561321549,-6.82858549422514],[108.5080719585542,-6.851958643076798],[108.5246735073765,-6.857621557089181],[108.5232086511584,-6.870391250255884],[108.5364837956906,-6.868393305606516],[108.5376282216652,-6.877532850260763],[108.5789261287379,-6.898766896874768],[108.6095963038264,-6.902052293878195],[108.6210327754423,-6.910411728818192],[108.6542587698265,-6.902603523433796],[108.6657791688736,-6.91718282702574],[108.652450585726,-6.933090126208334],[108.6629867991015,-6.940390030275604],[108.6827240203973,-6.923312095276905],[108.6839676308016,-6.931869899975921],[108.7068329342925,-6.936937219976683],[108.7256012502975,-6.962715066946749],[108.717475947557,-6.994316958560701],[108.7355041952625,-7.006058121385176],[108.742037886839,-6.995019597975975],[108.7604699373378,-6.988018535027311],[108.792022974181,-7.003107636408216],[108.7933720139074,-7.029363743741682],[108.7763418949626,-7.038835232659827],[108.7874699773576,-7.056495534441324],[108.7686627476877,-7.112455486331529],[108.7260150283709,-7.115182815334612],[108.6976968664173,-7.150970289347373],[108.676298925555,-7.156533193352103],[108.6575256120174,-7.156950190998471],[108.6350738959436,-7.138700808995128],[108.5897867842328,-7.15443806256653],[108.5625811151264,-7.170762975430892],[108.562961207294,-7.194385362394477],[108.5258699996008,-7.181056999580874],[108.5289500004423,-7.171062000011278],[108.5169500001424,-7.165677999939727],[108.5194330004327,-7.160454000052034],[108.5084700002903,-7.160860999935163],[108.5162900002833,-7.141329000333022],[108.5056899997937,-7.14043699966778],[108.5113099999566,-7.131885000092612],[108.4680099996618,-7.117999000053813],[108.4394500001175,-7.117905000215589],[108.4387100001665,-7.106531000005559],[108.4262450000068,-7.102315999883472],[108.4255189998021,-7.094922999796508],[108.4137700002854,-7.096342999629694],[108.4167409996975,-7.08917399998004],[108.3857425441832,-7.073510166161227],[108.3931400004108,-7.057089999803593],[108.3905711391468,-7.042646227641195],[108.3831799997573,-7.041376000002301],[108.3939649026582,-7.031857263401945],[108.3831399997112,-7.006653999582361],[108.3856599999092,-6.952740999997146],[108.4013300003793,-6.935282999810592],[108.4076500004473,-6.892490999559956],[108.3948100000815,-6.804858999942879],[108.4181366350977,-6.781933172078229],[108.4456100818398,-6.781915064228786]]]]}},{"type":"Feature","properties":{"kode":"32.09","nama":"Kabupaten Cirebon","lat":-6.746221280652283,"lng":108.55215665975435},"geometry":{"type":"MultiPolygon","coordinates":[[[[108.5390921740646,-6.516445812724018],[108.5629704037612,-6.690594072558368],[108.5479566017159,-6.701277057090475],[108.5429181337649,-6.696510642152357],[108.5488185803133,-6.725569456065531],[108.518230846976,-6.737212237554661],[108.5372383196928,-6.760767391202086],[108.5296049191318,-6.77918443471384],[108.5443298652311,-6.796348721716043],[108.5604089681994,-6.755870933396827],[108.5701819997995,-6.750107998585245],[108.5888118139141,-6.74958761937308],[108.5911127203758,-6.743301055199495],[108.602506802447,-6.763369245893961],[108.6263729767315,-6.769525099004063],[108.6289009170437,-6.759425525367639],[108.6309719990585,-6.768197169064098],[108.6423536929686,-6.764138009761282],[108.6533731966158,-6.746724912724548],[108.6761551086714,-6.764892574232898],[108.6849906671856,-6.800514270816897],[108.7187709299345,-6.810612123150931],[108.72945184063,-6.808338315061117],[108.7317151437389,-6.798252465978453],[108.7320673443326,-6.808366867636798],[108.7502756471035,-6.815435632448422],[108.7962230959192,-6.791587462591301],[108.8111735533169,-6.772415431027293],[108.8037462656777,-6.759236387149484],[108.8244417676735,-6.747632594868306],[108.8250641848643,-6.738434294806853],[108.8446801892394,-6.735756385348849],[108.8381926823465,-6.751518812743011],[108.8466387732609,-6.758007514834911],[108.8349653662587,-6.756839084156389],[108.8269954016166,-6.768556087593306],[108.832663348235,-6.800554087401149],[108.8254426222793,-6.802791273298573],[108.8247001716756,-6.832263664736241],[108.7929216927819,-6.880139429091318],[108.7832557713368,-6.88468279507484],[108.7786947858357,-6.874801120874955],[108.7713602227961,-6.895240102948356],[108.7612402012744,-6.896120980798574],[108.7669765116568,-6.9015216560995],[108.7527899312104,-6.922002006986964],[108.76339954905,-6.939218230736691],[108.7571598782259,-6.95823398171285],[108.7628315804131,-6.962128890635792],[108.7604699373378,-6.988018535027311],[108.742037886839,-6.995019597975975],[108.7373123541819,-7.006006618110908],[108.717475947557,-6.994316958560701],[108.7256012502975,-6.962715066946749],[108.7154541366991,-6.943839465418903],[108.6839676308016,-6.931869899975921],[108.6828537449045,-6.923323531955353],[108.6692886850248,-6.940400984018139],[108.655998258313,-6.936700229731833],[108.652420071729,-6.931586171964258],[108.6657791688736,-6.91718282702574],[108.6542587698265,-6.902603523433796],[108.6210327754423,-6.910411728818192],[108.6095963038264,-6.902052293878195],[108.5789261287379,-6.898766896874768],[108.5376282216652,-6.877532850260763],[108.5364837956906,-6.868393305606516],[108.5230484360366,-6.870254393225554],[108.5246735073765,-6.857621557089181],[108.5080719585542,-6.851958643076798],[108.5118561321549,-6.82858549422514],[108.5050278055888,-6.822901617015979],[108.5125122730231,-6.791162868371695],[108.4782867856067,-6.79914606294039],[108.4682541404163,-6.791321628390427],[108.4559403081987,-6.799124129375026],[108.4473419782497,-6.782544970074226],[108.4189529901884,-6.781827796715393],[108.3979630528527,-6.795139257670505],[108.3922043295662,-6.788790099783241],[108.3990021412359,-6.773615736377073],[108.3587570677845,-6.750737541104605],[108.3702240542967,-6.733170376711487],[108.3582993218563,-6.71395526582275],[108.3681030823914,-6.699173315296195],[108.3366040012738,-6.671500999671379],[108.345985465357,-6.6250003526841],[108.3235245447221,-6.619488585929449],[108.328636232776,-6.598352785752385],[108.360862781792,-6.55477703083525],[108.432273932696,-6.52061451574724],[108.4468384118633,-6.532069099709118],[108.4432755083581,-6.56467856026726],[108.4560318528877,-6.57287681331418],[108.4752960703574,-6.55825319203112],[108.488281301341,-6.558377645611805],[108.4906921867951,-6.545453929155513],[108.5244675203599,-6.51824370408363],[108.5390921740646,-6.516445812724018]]]]}},{"type":"Feature","properties":{"kode":"32.10","nama":"Kabupaten Majalengka","lat":-6.815084455834766,"lng":108.25719365362505},"geometry":{"type":"MultiPolygon","coordinates":[[[[108.122451847275,-6.542554229793821],[108.1322327326545,-6.554964879425621],[108.1278687310572,-6.565772364303139],[108.1419983628342,-6.565186830108053],[108.1476670064273,-6.578002320350754],[108.1484586373562,-6.606277688964183],[108.1622131061499,-6.614447218564194],[108.1726013100025,-6.603243365588777],[108.1877351085885,-6.609824801273571],[108.2073975170818,-6.573372227346378],[108.2237187508197,-6.573335115023474],[108.2762769999836,-6.591487999771387],[108.2731689996497,-6.610437998614741],[108.2808478537456,-6.620628686164912],[108.2925110426505,-6.620893809901388],[108.2855148846043,-6.611677035067113],[108.2938280449283,-6.608476167141379],[108.3085785578542,-6.623897898968848],[108.3154373741355,-6.607849462882402],[108.3227234466299,-6.620602955661851],[108.345985465357,-6.6250003526841],[108.3366040012738,-6.671500999671379],[108.3528159997587,-6.679342999779595],[108.368858384307,-6.702229388775186],[108.3583298358533,-6.713637229574391],[108.3702240542967,-6.733170376711487],[108.3587570677845,-6.750737541104605],[108.4008179407954,-6.778875234304564],[108.3921967132078,-6.788957956444523],[108.4076500004473,-6.892490999559956],[108.4013300003793,-6.935282999810592],[108.3856599999092,-6.952740999997146],[108.3831399997112,-7.006653999582361],[108.3939649026582,-7.031857263401945],[108.3831799997573,-7.041376000002301],[108.3905711391468,-7.042646227641195],[108.3931400004108,-7.057089999803593],[108.3857460308547,-7.073609370376114],[108.3558333070615,-7.051581821343937],[108.3423648928256,-7.069960568125636],[108.3145542227992,-7.056578311639753],[108.2450079357676,-7.066621794560105],[108.2278041433466,-7.054595270555256],[108.2096306650232,-7.053396315087816],[108.1561520226977,-7.066881227386705],[108.1363069232259,-7.038552707941007],[108.1650013633224,-6.998486580691114],[108.1707919900584,-6.968373635434925],[108.2200154613446,-6.927396616360663],[108.2112098817307,-6.915282260967518],[108.2155141179822,-6.902505911018934],[108.2095320561595,-6.906629030105619],[108.2141340129744,-6.889011500979939],[108.205274912907,-6.892846117554256],[108.1933578768645,-6.885435820806477],[108.1983549670082,-6.8707005441947],[108.1889806714209,-6.865251982692814],[108.1885325851107,-6.85305655971236],[108.1794459988338,-6.852008389975221],[108.1790761859174,-6.833638696668468],[108.1647990572308,-6.835209704364313],[108.1594875721937,-6.825659156045186],[108.1621217952847,-6.810416836267911],[108.1543616550664,-6.795572918855068],[108.1656922396052,-6.796433132982641],[108.1696480398252,-6.783979187289616],[108.1641910498771,-6.761177912830333],[108.148650628224,-6.755122617414847],[108.1622689720355,-6.72422682670664],[108.1379094728439,-6.707216107936968],[108.1177479496083,-6.706356874969702],[108.091862869276,-6.672630858427357],[108.0683095358564,-6.665375314319259],[108.0699380785796,-6.657056160913014],[108.0583471573955,-6.655455382959533],[108.0504795940581,-6.638176077164174],[108.0422218922266,-6.637116391608159],[108.0490952217671,-6.623360011755056],[108.0709000258156,-6.614144642561185],[108.0734482530345,-6.575182278439299],[108.1047898008087,-6.562071655882188],[108.122451847275,-6.542554229793821]]]]}},{"type":"Feature","properties":{"kode":"32.11","nama":"Kabupaten Sumedang","lat":-6.824748018353603,"lng":107.98127183168265},"geometry":{"type":"MultiPolygon","coordinates":[[[[107.8566455928199,-6.57921621985265],[107.9060786636994,-6.593852778782664],[107.9394735543611,-6.625350079242746],[108.018810695757,-6.663304789884065],[108.0293481582909,-6.663447459232844],[108.0348660053619,-6.654747639891649],[108.0318447023712,-6.637069791437681],[108.0498895101929,-6.637645407909146],[108.0542172772056,-6.652160984641657],[108.091862869276,-6.672630858427357],[108.1177479496083,-6.706356874969702],[108.1379094728439,-6.707216107936968],[108.1622689720355,-6.72422682670664],[108.148650628224,-6.755122617414847],[108.1641910498771,-6.761177912830333],[108.1696480398252,-6.783979187289616],[108.1656922396052,-6.796433132982641],[108.1543616550664,-6.795572918855068],[108.1621217952847,-6.810416836267911],[108.1594875721937,-6.825659156045186],[108.1647990572308,-6.835209704364313],[108.1790761859174,-6.833638696668468],[108.1794459988338,-6.852008389975221],[108.1885325851107,-6.85305655971236],[108.1889806714209,-6.865251982692814],[108.1983549670082,-6.8707005441947],[108.1933578768645,-6.885435820806477],[108.205274912907,-6.892846117554256],[108.2141340129744,-6.889011500979939],[108.2095320561595,-6.906629030105619],[108.2155141179822,-6.902505911018934],[108.2112098817307,-6.915282260967518],[108.2200154613446,-6.927396616360663],[108.1707919900584,-6.968373635434925],[108.1650013633224,-6.998486580691114],[108.1376692531336,-7.038797643696241],[108.129409409117,-7.040722501342315],[108.1002059320582,-7.019684137313024],[108.0821162507645,-6.987134568905144],[108.0421160779947,-6.996352561421552],[108.0230828558892,-6.981772622908159],[107.9906888701953,-6.981968524927388],[107.9665506716762,-6.95873639966507],[107.9314229304239,-6.955915670671668],[107.9159757342927,-6.945705798783556],[107.9126794878681,-6.954529988068429],[107.8999849537426,-6.953100594816489],[107.8899267750007,-6.963863735023316],[107.8447393225618,-6.969562862935756],[107.8310489646381,-6.964222885577679],[107.8286408661831,-6.971632173286117],[107.7813603244195,-6.955125305988012],[107.7528806370318,-6.95523579129869],[107.7592398889098,-6.903440914566498],[107.7432474032451,-6.870719021665454],[107.7455078905767,-6.823992356162271],[107.7500000824379,-6.812844997698412],[107.7732452002059,-6.802871829171479],[107.8019224641505,-6.81090488934906],[107.8366623332002,-6.776748281907689],[107.8325341437359,-6.71660069896303],[107.8390208933996,-6.697649631725059],[107.8276448076618,-6.688031654037533],[107.8509687582017,-6.654796504554986],[107.8557125219154,-6.601453578919418],[107.8476071229705,-6.586355441150697],[107.8566455928199,-6.57921621985265]]]]}},{"type":"Feature","properties":{"kode":"32.12","nama":"Kabupaten Indramayu","lat":-6.447487543473922,"lng":108.16902667217846},"geometry":{"type":"MultiPolygon","coordinates":[[[[108.1988266236498,-6.221491377824843],[108.2407398783427,-6.249657851128879],[108.3214008856424,-6.254807388050469],[108.3353167908373,-6.272949918903573],[108.3400833271839,-6.252695947160162],[108.3486113148604,-6.247213669175426],[108.3574734942064,-6.262358916131009],[108.3579172763612,-6.250157610685195],[108.3726441766875,-6.331789805754865],[108.3852256624344,-6.357732583891521],[108.4530342092614,-6.435320716577734],[108.4920826708786,-6.464688166125913],[108.5426029150925,-6.484724528913847],[108.5364272148442,-6.48434162366696],[108.5390182713762,-6.516149817959675],[108.5027695179989,-6.534015087825988],[108.4869995587826,-6.55930556609892],[108.4752960703574,-6.55825319203112],[108.4545517396711,-6.573065656554781],[108.4432755083581,-6.56467856026726],[108.4470291661631,-6.533040881931099],[108.437568732611,-6.522149928276536],[108.39407354256,-6.534411794069043],[108.3860931745604,-6.545595997757018],[108.360862781792,-6.55477703083525],[108.328636232776,-6.598352785752385],[108.3235855736154,-6.62081704287221],[108.3154373741355,-6.607849462882402],[108.3077011729709,-6.624185904156103],[108.2938280449283,-6.608476167141379],[108.2855148846043,-6.611677035067113],[108.2925110426505,-6.620893809901388],[108.2808478537456,-6.620628686164912],[108.2732689997645,-6.610971999857877],[108.2739000009844,-6.590012000053739],[108.2237187508197,-6.573335115023474],[108.2073975170818,-6.573372227346378],[108.1877351085885,-6.609824801273571],[108.1726013100025,-6.603243365588777],[108.1622131061499,-6.614447218564194],[108.1484586373562,-6.606277688964183],[108.1420975481634,-6.565329877172025],[108.1278687310572,-6.565772364303139],[108.1322327326545,-6.554964879425621],[108.1197586619327,-6.541150427650048],[108.1047898008087,-6.562071655882188],[108.0734482530345,-6.575182278439299],[108.0709000258156,-6.614144642561185],[108.0490952217671,-6.623360011755056],[108.0427967199927,-6.640618505439625],[108.0318447023712,-6.637069791437681],[108.0348660053619,-6.654747639891649],[108.0280277080124,-6.663958630286507],[107.9901670934367,-6.653347105884126],[107.9394735543611,-6.625350079242746],[107.9060786636994,-6.593852778782664],[107.855322647822,-6.579054820323708],[107.8514312039869,-6.571598629373269],[107.8672775678056,-6.565490377379017],[107.8699715112763,-6.572588594987642],[107.8864438347152,-6.555394618666702],[107.8936815812401,-6.557140531010645],[107.8984150872865,-6.549233542294068],[107.8930058756207,-6.546112881304359],[107.9095066032472,-6.537573462345384],[107.9208087161494,-6.513587191695506],[107.915146500011,-6.498718947621266],[107.9057609179321,-6.504453766028443],[107.9191811042247,-6.483618453628707],[107.897915530977,-6.482364929098131],[107.8948417597395,-6.459904673961495],[107.8862438407808,-6.455941725929807],[107.8972627706604,-6.424698413800715],[107.8879500552509,-6.416312950682083],[107.8905027781807,-6.403600388746859],[107.9004311379867,-6.40547480072147],[107.8958659796313,-6.39452134418466],[107.9235133552572,-6.359858395048849],[107.9166084990831,-6.347509888570428],[107.9254190213708,-6.279590645092163],[107.9118360937608,-6.269775312980278],[107.9196440410397,-6.24980234340338],[107.966390086933,-6.269814135813671],[107.9722456186404,-6.264028789896673],[107.9699493895528,-6.270221438768323],[107.9747200106201,-6.272669902394038],[107.9742421099855,-6.265131785003834],[107.9750554874209,-6.272856812092157],[108.0313860571209,-6.306850504646969],[108.129766307769,-6.335207513715683],[108.1379789382775,-6.322219780818176],[108.1584539777689,-6.315987243416447],[108.1908641863332,-6.294449793423133],[108.1971859382805,-6.279246227231531],[108.2118913879772,-6.275495434666548],[108.2021363590058,-6.241820540985169],[108.1895867011654,-6.243626075682832],[108.1945093301415,-6.237275771159893],[108.167726116667,-6.228915296603591],[108.1988266236498,-6.221491377824843]]],[[[108.3767881564483,-5.925041790346323],[108.3872739916015,-5.929082613371842],[108.3851188310692,-5.934628131682888],[108.3754333817452,-5.932571396552681],[108.3767881564483,-5.925041790346323]]],[[[108.406034350405,-5.868658880103154],[108.4059422490356,-5.868694344868056],[108.4058085540216,-5.868348560037954],[108.4061383336172,-5.868466776820273],[108.406034350405,-5.868658880103154]]],[[[108.4560340103613,-5.806608997207422],[108.4555634041279,-5.806782795689428],[108.4550107986095,-5.806779248763298],[108.455096362807,-5.806608997207422],[108.4560340103613,-5.806608997207422]]]]}},{"type":"Feature","properties":{"kode":"32.13","nama":"Kabupaten Subang","lat":-6.4846429896221265,"lng":107.73183253452774},"geometry":{"type":"MultiPolygon","coordinates":[[[[107.8876408548416,-6.182229397368725],[107.8986327277182,-6.187122107699031],[107.8971212470479,-6.207317419363426],[107.8867448926627,-6.204764733305782],[107.8863953792434,-6.226585644212061],[107.919467221735,-6.249460303350211],[107.9118360937608,-6.269775312980278],[107.9254190213708,-6.279590645092163],[107.9166084990831,-6.347509888570428],[107.9235133552572,-6.359858395048849],[107.8958659796313,-6.39452134418466],[107.9004311379867,-6.40547480072147],[107.8905027781807,-6.403600388746859],[107.8879500552509,-6.416312950682083],[107.8972627706604,-6.424698413800715],[107.8862684570238,-6.456410751155221],[107.8948417597395,-6.459904673961495],[107.897915530977,-6.482364929098131],[107.9191811042247,-6.483618453628707],[107.9057609179321,-6.504453766028443],[107.915146500011,-6.498718947621266],[107.9208087161494,-6.513587191695506],[107.9095066032472,-6.537573462345384],[107.8930058756207,-6.546112881304359],[107.8984150872865,-6.549233542294068],[107.8936815812401,-6.557140531010645],[107.8864438347152,-6.555394618666702],[107.8699715112763,-6.572588594987642],[107.8667302763812,-6.565483345579874],[107.8508877904393,-6.572586656948579],[107.8560259086688,-6.626588650745616],[107.8484236039662,-6.638701556431651],[107.8510374331311,-6.654506088285287],[107.8276448076618,-6.688031654037533],[107.8390208933996,-6.697649631725059],[107.8325341437359,-6.71660069896303],[107.8366623332002,-6.776748281907689],[107.8019224641505,-6.81090488934906],[107.7767430080834,-6.802633882947332],[107.7335358762798,-6.814269808005217],[107.7076493192607,-6.792939911647603],[107.6880188996526,-6.798347241931672],[107.6711045162604,-6.776344087909329],[107.6290200000731,-6.774132999438346],[107.6184730002288,-6.76026900041398],[107.6006689283285,-6.76139270960581],[107.6023560618828,-6.736107583198318],[107.5913930005866,-6.724441999398748],[107.5841331532225,-6.689538220812245],[107.5989280000272,-6.653289999833571],[107.5795189989027,-6.633898000392406],[107.590400792063,-6.599836578095601],[107.5824357053436,-6.595281359946696],[107.5842150616758,-6.584669000074221],[107.5539399173934,-6.566570993756286],[107.563675030878,-6.527871851304815],[107.5548173256591,-6.51733563702999],[107.5654831897974,-6.48718714157324],[107.5453492289838,-6.47015163568934],[107.5433198260492,-6.448193774223191],[107.5269089838626,-6.437336208798942],[107.5264970098292,-6.425803889238039],[107.5396424550353,-6.403827436087254],[107.5377656023008,-6.386966947266685],[107.5620423449783,-6.358652340333196],[107.5827332622303,-6.312414400603997],[107.5806199318644,-6.256452803853811],[107.5994339945833,-6.252996220898836],[107.6020737673905,-6.238819390902143],[107.6238862111798,-6.222736598914905],[107.6443640277777,-6.215645412205965],[107.6678382990983,-6.239295674555726],[107.6901854671857,-6.231337861553036],[107.6958123588533,-6.220840477306115],[107.7212364808789,-6.237505424735516],[107.7462102889737,-6.230850547714598],[107.7639585300622,-6.213100402761355],[107.7811974104322,-6.221065307817656],[107.786214855831,-6.215741038018478],[107.7762871093627,-6.207221100173558],[107.7824644823501,-6.204751685042157],[107.8051815631787,-6.220902549413124],[107.8043630470171,-6.197545327554791],[107.8189827067866,-6.186901793582837],[107.8500369499453,-6.18945465500829],[107.8538987863,-6.190761714381558],[107.8557154950741,-6.190706385391279],[107.8602595328512,-6.190838077615161],[107.863802362589,-6.191806875886544],[107.848063138603,-6.192940775296466],[107.8545733443844,-6.212368598332122],[107.8592332813909,-6.212459968552667],[107.8715308106984,-6.207001091826906],[107.8763233464454,-6.193524381345109],[107.8861495684479,-6.193288338985584],[107.8818554342809,-6.185187542770868],[107.8876408548416,-6.182229397368725]]]]}},{"type":"Feature","properties":{"kode":"32.14","nama":"Kabupaten Purwakarta","lat":-6.595259676071498,"lng":107.430775994088},"geometry":{"type":"MultiPolygon","coordinates":[[[[107.502807525347,-6.408200664728873],[107.5294037994458,-6.418358086356494],[107.5267258711021,-6.437024823037144],[107.5420914726434,-6.445762406709647],[107.5453492289838,-6.47015163568934],[107.565422160904,-6.486994017559836],[107.5548020452783,-6.517446259037544],[107.5636521566218,-6.527714005896605],[107.555732818415,-6.540621980619824],[107.5624085462175,-6.546832299371078],[107.5534592729272,-6.564452415846293],[107.5645447994031,-6.567636232626021],[107.5737458316049,-6.583972700879385],[107.5842150616758,-6.584669000074221],[107.5824357053436,-6.595281359946696],[107.590400792063,-6.599836578095601],[107.5795189989027,-6.633898000392406],[107.5989280000272,-6.653289999833571],[107.5841331532225,-6.689538220812245],[107.593772990731,-6.72854399790717],[107.5709693402629,-6.736148028408787],[107.5613619421999,-6.773154432730858],[107.5125680006128,-6.754423999767737],[107.5015850022461,-6.736568000113134],[107.4872920014248,-6.73538400037124],[107.4535752595906,-6.700992321838121],[107.425140501433,-6.700015262394369],[107.4108887848895,-6.688835792737605],[107.3959733147167,-6.695651228421421],[107.3716507992451,-6.689589198882365],[107.3708039760228,-6.701046175040907],[107.3434600001789,-6.694549999582725],[107.3236840001166,-6.722639999936034],[107.3021489701989,-6.72843695340262],[107.289159826265,-6.708657992772053],[107.2714440983665,-6.707375582017487],[107.2515490604409,-6.694103996102533],[107.2683882011546,-6.644619628792795],[107.2205125483155,-6.590748932417227],[107.2500624253408,-6.573036602157404],[107.2730776682998,-6.53607015111655],[107.2840576512397,-6.530794650652608],[107.2891359996268,-6.501727000000982],[107.3289139993816,-6.480181000152977],[107.3486819999743,-6.47979200020055],[107.3904528047532,-6.511201148214311],[107.389572267746,-6.49184580693836],[107.3732224571507,-6.468302912849103],[107.4332581860165,-6.459513868170478],[107.4450486883464,-6.438557635626355],[107.4544303331934,-6.440460738672086],[107.4613769997488,-6.426590001027747],[107.4782534956024,-6.43191431039705],[107.502807525347,-6.408200664728873]]]]}},{"type":"Feature","properties":{"kode":"32.15","nama":"Kabupaten Karawang","lat":-6.252282718246672,"lng":107.3542921153967},"geometry":{"type":"MultiPolygon","coordinates":[[[[107.0982700983863,-5.940207701923831],[107.1331029960065,-5.976094542029457],[107.1678017048849,-5.988770727287188],[107.2332437028347,-5.97726779397341],[107.2663704120649,-5.960663764820832],[107.3040480307921,-5.958303074127506],[107.3427425228492,-5.970194605396698],[107.3890028718851,-6.017407268130873],[107.4732510059292,-6.148590194182083],[107.5425134390441,-6.178507337243814],[107.6204441630677,-6.187486774694832],[107.6427935830575,-6.214189181385591],[107.6020737673905,-6.238819390902143],[107.5994339945833,-6.252996220898836],[107.5806351645813,-6.256424199117453],[107.5827332622303,-6.312414400603997],[107.5620423449783,-6.358652340333196],[107.5377656023008,-6.386966947266685],[107.5348435556856,-6.415009245780005],[107.5209503961439,-6.418183296821648],[107.5003253758155,-6.408376680939013],[107.4782534956024,-6.43191431039705],[107.4613769997488,-6.426590001027747],[107.4544303331934,-6.440460738672086],[107.4450486883464,-6.438557635626355],[107.4332581860165,-6.459513868170478],[107.3732224571507,-6.468302912849103],[107.389572267746,-6.49184580693836],[107.3904528047532,-6.511201148214311],[107.3486819999743,-6.47979200020055],[107.3058167760234,-6.491047565992306],[107.2891359996268,-6.501727000000982],[107.2840576512397,-6.530794650652608],[107.2730776682998,-6.53607015111655],[107.2500624253408,-6.573036602157404],[107.2205125483155,-6.590748932417227],[107.1931077486238,-6.578285830726464],[107.1642381187942,-6.501979007125484],[107.1822434922435,-6.467800749405032],[107.1990968215611,-6.460510885368968],[107.2089082227363,-6.468166982120475],[107.2168733085564,-6.461359670012693],[107.2053758089465,-6.451929700095586],[107.2117082088668,-6.449280887303103],[107.1962129322811,-6.422990935782983],[107.2214128083545,-6.408061662815427],[107.221222054954,-6.38423507309012],[107.2047959800505,-6.375670590025687],[107.2149888637452,-6.34989371522268],[107.2266007831997,-6.349158437611794],[107.2147218235534,-6.329958582822285],[107.2247392108459,-6.320559665595996],[107.2173997258168,-6.315148970048837],[107.2239381379348,-6.316335833232038],[107.2331391944184,-6.299007082710676],[107.2384950241261,-6.306086225698752],[107.2364503399113,-6.296673450819038],[107.254989768563,-6.294834782399209],[107.2761460732827,-6.267049977774234],[107.2691346582379,-6.231987171170931],[107.2836839280709,-6.225881772725542],[107.2722169433573,-6.216876690207033],[107.2910386458169,-6.21698206916708],[107.2966233610793,-6.202945868856683],[107.2785874736331,-6.162015151378134],[107.2926560756174,-6.14143200618205],[107.2824174443097,-6.148042398238011],[107.2811891151856,-6.127599442959911],[107.2706300041714,-6.129683200019612],[107.2653275878979,-6.111335924113596],[107.2485047716779,-6.116098114036709],[107.246795798987,-6.101092038966342],[107.2216340298866,-6.103863414964542],[107.1891252079621,-6.089252623409783],[107.1856843388612,-6.076560183805383],[107.1770173636605,-6.081719552115564],[107.1596375928007,-6.067674327108445],[107.1435930022153,-6.071304471124409],[107.1405412319923,-6.057171018127931],[107.1303407076576,-6.061526916833752],[107.1361619491147,-6.049636037573051],[107.1265947147743,-6.05431904129066],[107.1113206579221,-6.028898375359652],[107.0939485277025,-6.027396809714939],[107.1015779037973,-6.016244573328303],[107.0846177718928,-6.002277496709033],[107.0843812699797,-5.990820086177954],[107.0982700983863,-5.940207701923831]]]]}},{"type":"Feature","properties":{"kode":"32.16","nama":"Kabupaten Bekasi","lat":-6.21974730768743,"lng":107.12171204226702},"geometry":{"type":"MultiPolygon","coordinates":[[[[107.0158973260008,-5.92680601378646],[107.0360331520084,-5.936433162760205],[107.0366066020131,-5.931005612119193],[107.0300678436561,-5.931076995806687],[107.0196663918906,-5.921066753627694],[107.0201803553391,-5.918849097407878],[107.0370554932165,-5.923065502271089],[107.0340170491476,-5.927840957194323],[107.0381187643695,-5.932173479822182],[107.0381096290562,-5.923843197305682],[107.0428495148933,-5.925461229652011],[107.0327376133502,-5.956383305744931],[107.0744007863672,-5.968570904623486],[107.0712979688263,-5.94361987725545],[107.0619430698169,-5.930253777989395],[107.0575910741688,-5.938999319762742],[107.0593042853645,-5.932631883154808],[107.0469994193877,-5.926124537217595],[107.0963420076776,-5.937560656299183],[107.097137591127,-5.961317214917442],[107.0843812699797,-5.990820086177954],[107.0846177718928,-6.002277496709033],[107.1015779037973,-6.016244573328303],[107.0939485277025,-6.027396809714939],[107.1113206579221,-6.028898375359652],[107.1265947147743,-6.05431904129066],[107.1361619491147,-6.049636037573051],[107.1303407076576,-6.061526916833752],[107.1405412319923,-6.057171018127931],[107.1435930022153,-6.071304471124409],[107.1596375928007,-6.067674327108445],[107.1770173636605,-6.081719552115564],[107.1856843388612,-6.076560183805383],[107.1891252079621,-6.089252623409783],[107.2216340298866,-6.103863414964542],[107.246795798987,-6.101092038966342],[107.2485047716779,-6.116098114036709],[107.2653275878979,-6.111335924113596],[107.2706300041714,-6.129683200019612],[107.2811891151856,-6.127599442959911],[107.2824174443097,-6.148042398238011],[107.2926560756174,-6.14143200618205],[107.2785874736331,-6.162015151378134],[107.2966233610793,-6.202945868856683],[107.2910386458169,-6.21698206916708],[107.2722169433573,-6.216876690207033],[107.2836839280709,-6.225881772725542],[107.2691346582379,-6.231987171170931],[107.2761460732827,-6.267049977774234],[107.254989768563,-6.294834782399209],[107.2364503399113,-6.296673450819038],[107.2384950241261,-6.306086225698752],[107.2331391944184,-6.299007082710676],[107.2239381379348,-6.316335833232038],[107.2173997258168,-6.315148970048837],[107.2247392108459,-6.320559665595996],[107.2147218235534,-6.329958582822285],[107.2266007831997,-6.349158437611794],[107.2149888637452,-6.34989371522268],[107.2047959800505,-6.375670590025687],[107.221222054954,-6.38423507309012],[107.2214128083545,-6.408061662815427],[107.1962129322811,-6.422990935782983],[107.2117082088668,-6.449280887303103],[107.2053758089465,-6.451929700095586],[107.2168733085564,-6.461359670012693],[107.2089082227363,-6.468166982120475],[107.1990968215611,-6.460510885368968],[107.1822434922435,-6.467800749405032],[107.1739503454321,-6.485828759689464],[107.0553854643678,-6.435730907255514],[107.0584114213501,-6.423073669813987],[107.0512089561285,-6.417232436427759],[107.0624903702344,-6.399079284581236],[107.0514430001943,-6.394362999652684],[107.0415279998174,-6.406939999581222],[107.023456269891,-6.409438327017173],[107.0200370447739,-6.40046881808141],[107.0086836444347,-6.401588295963093],[107.0063726026136,-6.37802652600337],[106.9975645732465,-6.378836748616993],[106.9909605340015,-6.363450681203878],[107.0019493923507,-6.35378134503302],[107.0163322408403,-6.357885950676038],[107.0165073442386,-6.330391038015896],[107.0289651066544,-6.330143315261764],[107.0411704662441,-6.307439256616369],[107.0366132327145,-6.282685418197413],[107.0275439170182,-6.277863686859656],[107.0154689258503,-6.291247681735061],[107.0140567941858,-6.286430687126447],[107.0179370873268,-6.262786902593368],[107.041720688559,-6.245210392445592],[107.0423895890084,-6.233754356078673],[107.0302600323747,-6.226615761608016],[107.0337838405518,-6.198784047445808],[107.0064139867162,-6.193227079865763],[107.0106448131077,-6.172440295782947],[106.9773710638237,-6.175702891375304],[106.9715810000632,-6.168941000426801],[106.970621261562,-6.088324462803633],[106.9904379550476,-6.087295650074135],[107.000342702254,-6.07685321620293],[107.0022068673531,-6.085611915957116],[107.0161123044394,-6.076940940571855],[107.001555395765,-6.069919548448314],[106.9967495185754,-6.052796311900258],[106.9718368751718,-6.052552224205757],[106.988780541389,-6.045687955334848],[107.0064436409613,-6.049591290905346],[107.0071489126922,-6.038210169863393],[107.0161109149868,-6.034540088754063],[107.0130804344145,-6.023248119305239],[106.994943230246,-6.028151712331623],[106.9933061610506,-6.012671890595271],[107.0060522524095,-6.015801151801695],[106.9948250026718,-6.007406413075404],[107.0088447867576,-6.000587829764451],[107.0162509286375,-5.958576513894957],[107.0043536237208,-5.941025610143739],[106.9907050357089,-5.941668064229758],[107.0086465527963,-5.919976327445545],[107.0156470060046,-5.918552456930274],[107.0158973260008,-5.92680601378646]]]]}},{"type":"Feature","properties":{"kode":"32.17","nama":"Kabupaten Bandung Barat","lat":-6.890437540720964,"lng":107.41498197504157},"geometry":{"type":"MultiPolygon","coordinates":[[[[107.4121094985546,-6.689968323379406],[107.425140501433,-6.700015262394369],[107.4535752595906,-6.700992321838121],[107.4872920014248,-6.73538400037124],[107.5015850022461,-6.736568000113134],[107.5125680006128,-6.754423999767737],[107.5274710007861,-6.755999999600241],[107.5516082019571,-6.773866291995726],[107.5614190491499,-6.773065202896759],[107.5709693402629,-6.736148028408787],[107.5899991980047,-6.727618275363038],[107.6023560618828,-6.736107583198318],[107.6006689283285,-6.76139270960581],[107.6184730002288,-6.76026900041398],[107.6290200000731,-6.774132999438346],[107.6711045162604,-6.776344087909329],[107.6880188996526,-6.798347241931672],[107.7076493192607,-6.792939911647603],[107.726211648249,-6.810884743635962],[107.7456925070036,-6.815084071272874],[107.7272079999493,-6.832667999928236],[107.70340000011,-6.84026000019882],[107.689250999634,-6.835442000148165],[107.6899939322742,-6.829241144063473],[107.6606629996978,-6.832136999722741],[107.6228825273069,-6.86300262627018],[107.6160429484234,-6.847144263696751],[107.6045429999595,-6.859352000194611],[107.5975914168105,-6.836887229561998],[107.5705160378849,-6.882775960741919],[107.5618196530546,-6.872971907927176],[107.563238061987,-6.856084773093744],[107.5515001520105,-6.847252417065323],[107.5517503083301,-6.829350964775109],[107.5395991301958,-6.832049545150357],[107.5360631299095,-6.857978783094313],[107.5222854460166,-6.865528100641231],[107.5103193483593,-6.898183778258708],[107.525659374081,-6.921212284419357],[107.5223262203788,-6.935580020701408],[107.5309184376359,-6.942012961229142],[107.5049000004347,-6.981792999747042],[107.4876458711601,-6.979834402235844],[107.4864800008514,-6.999969998916259],[107.4693660749844,-6.998464756843052],[107.4816545337298,-7.022536753568235],[107.4777386849924,-7.057180556137758],[107.4376510000936,-7.046044000330268],[107.4248129998201,-7.05103100008058],[107.4221400006606,-7.075160000333706],[107.4089476090449,-7.096888975345887],[107.396234000299,-7.092181999299799],[107.3909690003192,-7.099602999778635],[107.3761939997534,-7.092212999830031],[107.3707455983307,-7.103523233610324],[107.3589819200796,-7.090256085849659],[107.354705661737,-7.098239202177385],[107.3371409722781,-7.095807912904809],[107.3206131094076,-7.107177761844222],[107.3044422647988,-7.085604721180942],[107.2855744756816,-7.085195713111573],[107.2521732034307,-7.048257520568128],[107.2244455759027,-7.049142734949213],[107.2233524463584,-7.058302901057959],[107.1821711984421,-7.058557172675321],[107.1956289997786,-7.021112024200508],[107.1845679159766,-6.996020367146175],[107.1902290205529,-6.968105892872582],[107.2508997598161,-6.928524629707836],[107.2832137202371,-6.923302739629626],[107.323242480656,-6.887883510115848],[107.3411360917573,-6.885737930061423],[107.3493270036384,-6.865817041123438],[107.3434950512557,-6.848949260599894],[107.3380009759644,-6.857628997180391],[107.3242821311155,-6.851801995565569],[107.3141560688476,-6.800709912032747],[107.2912399572582,-6.788398990021331],[107.2844258732555,-6.774384959798033],[107.2908619344308,-6.735603960154605],[107.3236840001166,-6.722639999936034],[107.3434600001789,-6.694549999582725],[107.3708039760228,-6.701046175040907],[107.3716507992451,-6.689589198882365],[107.3958436153906,-6.695652195192618],[107.4121094985546,-6.689968323379406]]]]}},{"type":"Feature","properties":{"kode":"32.18","nama":"Kabupaten Pangandaran","lat":-7.635641122158087,"lng":108.51859098997194},"geometry":{"type":"MultiPolygon","coordinates":[[[[108.4971254124079,-7.793885318352682],[108.4965924130095,-7.793866282402976],[108.4965638586352,-7.793580746753984],[108.4970635462458,-7.793442737692117],[108.4971254124079,-7.793885318352682]]],[[[108.498322035034,-7.792930320178097],[108.498129962328,-7.792964530388672],[108.4980601461588,-7.792629809917776],[108.4984472143675,-7.792672060067466],[108.498322035034,-7.792930320178097]]],[[[108.5004290548571,-7.788917002917265],[108.5000078906517,-7.788827773083166],[108.4998686917868,-7.78847442315607],[108.5006253606719,-7.788360209256221],[108.5004290548571,-7.788917002917265]]],[[[108.5010608016148,-7.787874799282494],[108.5010001261549,-7.787942613560776],[108.5005218541003,-7.787974737344231],[108.5007395745718,-7.787714185760989],[108.5010608016148,-7.787874799282494]]],[[[108.503455412937,-7.783156248961713],[108.5030271099133,-7.782870713312721],[108.5030746993379,-7.782428133551526],[108.503407822613,-7.782594696088355],[108.503455412937,-7.783156248961713]]],[[[108.5059224493616,-7.775629447740754],[108.5056868827435,-7.775508095022569],[108.5056654680869,-7.775286805141927],[108.5058796191491,-7.775308219798464],[108.5059224493616,-7.775629447740754]]],[[[108.506595837428,-7.754144103567454],[108.5062567642383,-7.754060822748769],[108.5065541961193,-7.753781237014471],[108.5066969643934,-7.753876414964526],[108.506595837428,-7.754144103567454]]],[[[108.6857572483984,-7.461077756633098],[108.6989299439618,-7.461901049993428],[108.7061177448381,-7.477244905927608],[108.7076925341831,-7.469298332651845],[108.7203042704258,-7.47220814578922],[108.7186298928554,-7.484027852703238],[108.7352029007933,-7.504479795805866],[108.7547790517119,-7.559280909186564],[108.7484858901118,-7.567474296901259],[108.7507996056174,-7.591859381804936],[108.7405424158999,-7.592633677402264],[108.7318452378675,-7.61340265221058],[108.7410937686625,-7.613371103993209],[108.7488405584451,-7.633028853099048],[108.7694143740742,-7.654132149079355],[108.7852004302557,-7.658990393791568],[108.7877975086482,-7.669330790583454],[108.8003866332366,-7.667735760197107],[108.7946534003342,-7.690572600145344],[108.7765331942516,-7.699486489609767],[108.7750131691225,-7.690146505856513],[108.7621839642186,-7.696444051651578],[108.7017025790109,-7.674377296674865],[108.6740370973342,-7.681871754677675],[108.6585092104318,-7.701778726606871],[108.6759634037881,-7.716252179094755],[108.6702127231388,-7.730774505239228],[108.6510254633546,-7.718882672697162],[108.6553700126161,-7.699541288899318],[108.640591637794,-7.687658515228239],[108.5905120901609,-7.682984290692366],[108.539125478658,-7.691283108628503],[108.5027070016269,-7.711230282951113],[108.4968085209965,-7.7409235838563],[108.5076599188702,-7.763750639180581],[108.4956694522835,-7.79452449081253],[108.4458273859252,-7.820099934564232],[108.3754635234229,-7.813526231250537],[108.3424641321141,-7.819236762566532],[108.3434921399504,-7.803138184779338],[108.3180967269824,-7.786620242330303],[108.3251313157577,-7.778975762121635],[108.3241747347762,-7.757233758630981],[108.3129336561634,-7.724589648993056],[108.3210606181531,-7.725418967811119],[108.3201949946033,-7.714131466194178],[108.3238776068661,-7.720081060692311],[108.3320166350597,-7.713429528250052],[108.3243051121912,-7.714739013094877],[108.3144506191009,-7.690225755014505],[108.3248002258498,-7.692994396174394],[108.3237173827511,-7.68285938385345],[108.3299309714372,-7.690890544662902],[108.3403582643225,-7.681701434773362],[108.3547081859341,-7.683890093253146],[108.3544295229043,-7.672282173083803],[108.3663996729067,-7.659269303235731],[108.3552172255946,-7.642093495918071],[108.3575212769854,-7.62229968927917],[108.3647783769207,-7.622578049237542],[108.3592769181953,-7.613761827945956],[108.3673616201427,-7.608707355659909],[108.3588886907606,-7.608114917369483],[108.353844030078,-7.56220153397356],[108.3331850666376,-7.548626443055876],[108.3396917749555,-7.494817727955708],[108.3520280758351,-7.498018047294933],[108.3734910727549,-7.479064551887475],[108.3998870165726,-7.479398713879507],[108.4104505288689,-7.497921575220427],[108.4203055561565,-7.489833332642152],[108.4329180613196,-7.504849061035283],[108.4530764540152,-7.50359011898876],[108.4580618844485,-7.516163431696991],[108.485388889186,-7.528491666557072],[108.5208728456054,-7.523789078303248],[108.5346370783385,-7.535726886886244],[108.5212993481864,-7.544752453263096],[108.5241168486138,-7.568922923953706],[108.5530033263425,-7.574307832340547],[108.6466126348653,-7.540278497854373],[108.6596628265782,-7.512782415176281],[108.6461862114246,-7.479487870868499],[108.6487151194073,-7.467887341327709],[108.6857572483984,-7.461077756633098]]]]}},{"type":"Feature","properties":{"kode":"32.71","nama":"Kota Bogor","lat":-6.593489394557198,"lng":106.79935624590286},"geometry":{"type":"MultiPolygon","coordinates":[[[[106.7830141607749,-6.514903012264099],[106.7889930003267,-6.515797000431149],[106.7887332005768,-6.539739635076084],[106.7962779999298,-6.550888999927355],[106.8029954149065,-6.538221800695502],[106.8097255858672,-6.546476035640473],[106.8188650001198,-6.53814100020698],[106.8292888234205,-6.550353100215371],[106.8379444590696,-6.579862421413533],[106.8319463371538,-6.613600271235479],[106.8484831203997,-6.647568030040566],[106.8439073788225,-6.678644669915527],[106.8310869998652,-6.681089000257127],[106.8190620092044,-6.671999501076068],[106.8099720001078,-6.646176000022289],[106.8058000001699,-6.652168000252948],[106.8053970643231,-6.648696715181205],[106.7951556918817,-6.643700640372233],[106.7847619760844,-6.660374097186742],[106.7715999069102,-6.653705539678859],[106.790482229971,-6.627551465827412],[106.7628970001965,-6.583116000403048],[106.7494420389191,-6.572296300933526],[106.7412513635596,-6.575494048211698],[106.7354841974378,-6.565328084823178],[106.7399005467729,-6.542337414040381],[106.7627778589111,-6.549461789330095],[106.7650911589299,-6.515495264394903],[106.7830141607749,-6.514903012264099]]]]}},{"type":"Feature","properties":{"kode":"32.72","nama":"Kota Sukabumi","lat":-6.939938819968468,"lng":106.9243569962512},"geometry":{"type":"MultiPolygon","coordinates":[[[[106.9150890353308,-6.893183598943934],[106.9180653982996,-6.902888719138981],[106.9544369999676,-6.904015000391865],[106.9556684983026,-6.958359136764684],[106.946500614212,-6.968960498827918],[106.931261757724,-6.96534806066447],[106.91183061619,-6.97819551281265],[106.8973041378758,-6.97807138568585],[106.8887456011286,-6.969342431907658],[106.8748425553398,-6.976121516094994],[106.8737926643001,-6.963114776026006],[106.911524024714,-6.952324734398888],[106.9006340000592,-6.933246000302588],[106.9009900002884,-6.913942000422927],[106.9150890353308,-6.893183598943934]]]]}},{"type":"Feature","properties":{"kode":"32.73","nama":"Kota Bandung","lat":-6.919241381150077,"lng":107.6366006270422},"geometry":{"type":"MultiPolygon","coordinates":[[[[107.597902245892,-6.83708198044897],[107.6045429999595,-6.859352000194611],[107.6188460003427,-6.850784952263637],[107.6324430356177,-6.889435863174568],[107.6543355091765,-6.894793630021993],[107.6701256123073,-6.883989687574025],[107.6687968226153,-6.89208211289916],[107.6808752896629,-6.889558179966019],[107.6999505568728,-6.908294135665719],[107.7076742862394,-6.8898014411835],[107.7145230283152,-6.890163028001232],[107.7149460019565,-6.904019918784136],[107.7260377580362,-6.895092383906291],[107.7381920451269,-6.89962763710568],[107.7130287615682,-6.947474068273588],[107.7160931429842,-6.961348509326174],[107.6942844340794,-6.969499127082982],[107.5870718705705,-6.962485666080535],[107.5610807205988,-6.949035761691017],[107.5455461814113,-6.92675513534116],[107.564525999975,-6.932265000029662],[107.5689719990586,-6.910361999906359],[107.55643759372,-6.88965613682118],[107.576185714799,-6.891020799570206],[107.5757177525723,-6.867535052000998],[107.597902245892,-6.83708198044897]]]]}},{"type":"Feature","properties":{"kode":"32.74","nama":"Kota Cirebon","lat":-6.7417188626629745,"lng":108.5533057192006},"geometry":{"type":"MultiPolygon","coordinates":[[[[108.5620545746589,-6.6913266054385],[108.5684089072454,-6.706039872042417],[108.5715907778922,-6.703465227238396],[108.5743161751514,-6.707341992338981],[108.5776957626494,-6.704479032980951],[108.5750211159318,-6.706995386427898],[108.5740013036173,-6.707554220650706],[108.5708723310933,-6.704257974226095],[108.5713691858394,-6.717279527028523],[108.5736174918539,-6.715870438669728],[108.5720346436839,-6.714866732313832],[108.5733780986205,-6.71301975685619],[108.5730386971782,-6.712035030692024],[108.57305767737,-6.711797832703751],[108.5735149682413,-6.71056761320468],[108.5785154803052,-6.705809302057623],[108.5745436379786,-6.718224430313206],[108.5839349784166,-6.729615369253831],[108.5891855613646,-6.726667574149196],[108.5821330976644,-6.732878255327161],[108.5833073559498,-6.734568620145679],[108.5855369003078,-6.731688225631042],[108.5898698707979,-6.728798647239723],[108.5902836290863,-6.726975351830936],[108.5899005565655,-6.728833088576173],[108.5853727083838,-6.733177717877296],[108.5911127203758,-6.743301055199495],[108.5604089681994,-6.755870933396827],[108.5444593082505,-6.796386793615542],[108.5296049191318,-6.77918443471384],[108.5372383196928,-6.760767391202086],[108.518230846976,-6.737212237554661],[108.5488185803133,-6.725569456065531],[108.5429181337649,-6.696510642152357],[108.5479566017159,-6.701277057090475],[108.5620545746589,-6.6913266054385]]]]}},{"type":"Feature","properties":{"kode":"32.75","nama":"Kota Bekasi","lat":-6.28083355275356,"lng":106.97536610721336},"geometry":{"type":"MultiPolygon","coordinates":[[[[107.0051882161634,-6.172313503065644],[107.0106448131077,-6.172440295782947],[107.0064139867162,-6.193227079865763],[107.0337838405518,-6.198784047445808],[107.0302600323747,-6.226615761608016],[107.0423895890084,-6.233754356078673],[107.0414966377597,-6.246120027017613],[107.0168065657705,-6.264524713844447],[107.014088381074,-6.282586428920548],[107.0154689258503,-6.291247681735061],[107.0275439170182,-6.277863686859656],[107.0402022156598,-6.287484376003042],[107.0372531201354,-6.321350603147805],[107.0165073442386,-6.330391038015896],[107.0163322408403,-6.357885950676038],[107.0019493923507,-6.35378134503302],[106.9996195798798,-6.360487680362129],[106.9797693992384,-6.36412568984868],[106.9818094726291,-6.357752752987071],[106.9661569999457,-6.342198999783991],[106.975763726215,-6.341004791837594],[106.9809487036199,-6.315054895566944],[106.9666851933671,-6.303068377003988],[106.9618414790011,-6.335861650894418],[106.9502460809919,-6.344180527309432],[106.9538188050939,-6.350698489743482],[106.9439483517351,-6.358053404441026],[106.9367459269831,-6.382355821863665],[106.9218186604029,-6.388869517913846],[106.9211959320467,-6.3970079300719],[106.8994291702201,-6.398430178210094],[106.9161778292435,-6.362938706156366],[106.922816994209,-6.314253123882522],[106.9207249723796,-6.300234291279486],[106.9102849280071,-6.294136320334846],[106.9043495490925,-6.262052440667602],[106.9192436405816,-6.251178346603385],[106.9440025205999,-6.25239632902728],[106.9426634111876,-6.237588017572974],[106.9662381943373,-6.206929219807548],[106.9730042086774,-6.174971728162663],[107.0051882161634,-6.172313503065644]]]]}},{"type":"Feature","properties":{"kode":"32.76","nama":"Kota Depok","lat":-6.396203965197009,"lng":106.81683662885987},"geometry":{"type":"MultiPolygon","coordinates":[[[[106.7922037706876,-6.315725545197707],[106.8092499533228,-6.314935114863633],[106.7924076191164,-6.348382418014146],[106.7938381239304,-6.364326709010352],[106.8362906543902,-6.355077422784809],[106.8411396252935,-6.335879434088535],[106.8622649996301,-6.357206666654295],[106.8683709061925,-6.353005535876725],[106.8715932283448,-6.353084051187955],[106.8846771023664,-6.372512971396453],[106.9012756402586,-6.370207187011959],[106.9060244743501,-6.359665126244511],[106.9142665630515,-6.365544811044169],[106.8977239998628,-6.396415999898401],[106.9184582122767,-6.395645357347294],[106.917074965937,-6.409583190711635],[106.8918957850625,-6.427329240152328],[106.8800492657611,-6.457990049700938],[106.8554463650578,-6.455552580287342],[106.8527529836633,-6.436100152699868],[106.8241556595561,-6.461867180825624],[106.8232520000798,-6.444389998999237],[106.7943164328571,-6.451135854136306],[106.7951467688084,-6.441644849030562],[106.7875524222066,-6.439039072395206],[106.7374740014241,-6.437798999923831],[106.7170727423133,-6.36517597209341],[106.7698950000543,-6.36123399984914],[106.7786849998129,-6.317209000295047],[106.7922037706876,-6.315725545197707]]]]}},{"type":"Feature","properties":{"kode":"32.77","nama":"Kota Cimahi","lat":-6.886318982931995,"lng":107.54289593465946},"geometry":{"type":"MultiPolygon","coordinates":[[[[107.5479364903768,-6.82835741176511],[107.5549246714365,-6.85357444510453],[107.563238061987,-6.856084773093744],[107.5618196530546,-6.872971907927176],[107.576185714799,-6.891020799570206],[107.55643759372,-6.88965613682118],[107.5689719990586,-6.910361999906359],[107.5641529998611,-6.932867999958229],[107.5455461814113,-6.92675513534116],[107.5425756883175,-6.918846943331739],[107.5190101582922,-6.918879975430484],[107.510353072936,-6.898675180415185],[107.5222854460166,-6.865528100641231],[107.5360631299095,-6.857978783094313],[107.5395991301958,-6.832049545150357],[107.5479364903768,-6.82835741176511]]]]}},{"type":"Feature","properties":{"kode":"32.78","nama":"Kota Tasikmalaya","lat":-7.3605265931657415,"lng":108.21912255640495},"geometry":{"type":"MultiPolygon","coordinates":[[[[108.1939725661811,-7.271880692240166],[108.2021497643002,-7.286511061136539],[108.2495090219239,-7.312986812591297],[108.2524886350425,-7.321373515874966],[108.2696465827237,-7.318697208109607],[108.2780351494027,-7.334502103289323],[108.3094143230127,-7.335799538118141],[108.2868699246074,-7.347164465067983],[108.284427892933,-7.363734821804505],[108.2652028904012,-7.374429665696506],[108.2825252368502,-7.384623871394495],[108.2712772757258,-7.393355610373113],[108.2779038717664,-7.404977516798875],[108.2685898253602,-7.425393638105841],[108.2131587944428,-7.434689731346004],[108.1996917121029,-7.450503948898105],[108.1874750039683,-7.446478950343209],[108.192745694858,-7.43802801208309],[108.1837843958332,-7.441188882660724],[108.1863113199116,-7.414281950351657],[108.1789487681711,-7.406824765650359],[108.1846326903465,-7.395274181758075],[108.1711731623117,-7.385614340629302],[108.1636104853357,-7.363088000610655],[108.1671365517105,-7.34411655923182],[108.1524714231177,-7.334803162136153],[108.1612883323907,-7.3215116868149],[108.1539858598597,-7.292403215935631],[108.1763731601932,-7.288405320249306],[108.1802373914425,-7.270900740576706],[108.1939725661811,-7.271880692240166]],[[108.2626852464271,-7.375817496780072],[108.2626619998515,-7.375836000331119],[108.2639369965952,-7.376328140831027],[108.2645540349408,-7.376319663821355],[108.2626852464271,-7.375817496780072]]]]}},{"type":"Feature","properties":{"kode":"32.79","nama":"Kota Banjar","lat":-7.3769887499210665,"lng":108.5672046175411},"geometry":{"type":"MultiPolygon","coordinates":[[[[108.5758051871598,-7.336447186688203],[108.5834407128187,-7.349767910660513],[108.6454140103484,-7.345652085975],[108.6479520554431,-7.336999284089599],[108.6648552054035,-7.347644111286725],[108.6505024113573,-7.388222324200892],[108.631060163196,-7.381731899007863],[108.6155911036466,-7.40584427978959],[108.6002368731333,-7.394469505263394],[108.5670960823184,-7.444531997253793],[108.5654230762141,-7.429809044951411],[108.5441177862069,-7.412299860749964],[108.5329337156185,-7.415883008893668],[108.4696152562391,-7.381886133638086],[108.4782145412681,-7.36875209813073],[108.4697128362784,-7.361610290382518],[108.48917296566,-7.350014032621458],[108.5237647829185,-7.359330223910624],[108.5509254580436,-7.334995983977403],[108.5758051871598,-7.336447186688203]]]]}}]}