{"type":"FeatureCollection","features":[{"type":"Feature","properties":{"kode":"34.01","nama":"Kabupaten Kulon Progo","lat":-7.818708973161017,"lng":110.16711452957185},"geometry":{"type":"MultiPolygon","coordinates":[[[[110.252777186618,-7.642342693560415],[110.266178502436,-7.649443853750863],[110.2607397399471,-7.687496261343333],[110.2706982639138,-7.704089156889075],[110.2324570031882,-7.713450751351018],[110.2167638712557,-7.737435910438854],[110.2202066703016,-7.776984244027555],[110.2361414060011,-7.798213665428281],[110.2283509550326,-7.805897524251274],[110.2336235443911,-7.824240267574182],[110.2212006163155,-7.836783835205789],[110.2573590237999,-7.866194211193792],[110.273586948379,-7.892487254583073],[110.2732895155987,-7.910511672076018],[110.268682878712,-7.927750867208675],[110.2478816308326,-7.928150615858235],[110.2156934882639,-7.981725355240846],[110.2057392405735,-7.983111751905784],[110.1435135420164,-7.946998913968687],[110.0035291750314,-7.888300978807087],[110.0262307524473,-7.88885777156885],[110.0326548904109,-7.89603572127147],[110.0500833325798,-7.841555555244621],[110.0596944448428,-7.838555555394481],[110.0630000307269,-7.812505551989605],[110.0806022497941,-7.806240942965096],[110.1017058551412,-7.775072693649835],[110.1113611124255,-7.777416666845641],[110.1126210338337,-7.764626111206034],[110.130249371911,-7.747875646343942],[110.1235137240792,-7.73063286111764],[110.1343463009411,-7.721342038804017],[110.1272386161692,-7.716022724269215],[110.1385083022165,-7.694256707980588],[110.115556133209,-7.673777456964074],[110.1308248957524,-7.654336137802512],[110.1389593445982,-7.654137082760108],[110.1414444439061,-7.644805556231375],[110.144769367912,-7.650671639684407],[110.1893881880145,-7.645645622847112],[110.2025010858565,-7.653920043974764],[110.2149054780055,-7.645856057011339],[110.239654300006,-7.653236621272955],[110.252777186618,-7.642342693560415]]]]}},{"type":"Feature","properties":{"kode":"34.02","nama":"Kabupaten Bantul","lat":-7.901333454949657,"lng":110.35488149436632},"geometry":{"type":"MultiPolygon","coordinates":[[[[110.3510592232046,-7.77000707426703],[110.3448009103338,-7.80778305274568],[110.3513263848048,-7.825034772736465],[110.3751405144233,-7.824365324599984],[110.3876570025686,-7.839928598925709],[110.3952127026042,-7.835622708820881],[110.3933069330685,-7.826259902972125],[110.3977882278445,-7.833333231843102],[110.4051074547452,-7.830403258603428],[110.3969626888771,-7.786214494303393],[110.4113000037922,-7.790249999637736],[110.4128655031405,-7.783161662880359],[110.4210234665598,-7.786306855576867],[110.4215690618628,-7.822295666211935],[110.4284304502052,-7.82311818795394],[110.4300018401129,-7.835895597303892],[110.4448717461342,-7.822463271063],[110.464282348052,-7.822012541645477],[110.4677143732198,-7.828108186043873],[110.4814156651009,-7.817384302143785],[110.5213088967883,-7.833654394134974],[110.4889099882054,-7.837760747160675],[110.4675445578351,-7.866666302208073],[110.475672095391,-7.889264478272987],[110.4949766618436,-7.890635047769194],[110.4978485316844,-7.900322890189119],[110.4919510034361,-7.938368289364987],[110.4880065913312,-7.945178020649094],[110.4764175452335,-7.942675082389065],[110.4726104739942,-7.953566036043717],[110.4772338769419,-7.971399757692569],[110.4633636438172,-7.968422873117013],[110.4706802321071,-7.962728962171787],[110.4665374727263,-7.954191662015545],[110.4546356154413,-7.967231248023569],[110.4494399990567,-7.946916565746846],[110.4434738003757,-7.966760130975174],[110.4318614591391,-7.962973041772407],[110.4212014729697,-7.973271349393211],[110.3969880776377,-7.967141857210861],[110.3973402377618,-7.980704784797935],[110.3656458176004,-7.972452814345824],[110.3609924258598,-7.982401817190058],[110.3482471987493,-7.97433734729072],[110.3524199801979,-7.993549116298641],[110.3315283126815,-7.999081362414876],[110.3390012831827,-8.028066897769097],[110.2114990493417,-7.985540780282711],[110.2478816308326,-7.928150615858235],[110.268682878712,-7.927750867208675],[110.2732895155987,-7.910511672076018],[110.273586948379,-7.892487254583073],[110.2573590237999,-7.866194211193792],[110.2214147673777,-7.837412011654957],[110.2321244842576,-7.827916535119942],[110.2340180499931,-7.812960719561505],[110.2535983018203,-7.796504711623057],[110.2563768139388,-7.800915628153663],[110.2867107675879,-7.784587437260341],[110.2906984622643,-7.793134377249692],[110.2803505381469,-7.818487704643821],[110.2924230498839,-7.835228354305083],[110.3063570863106,-7.828879129867942],[110.3093516866311,-7.818700965377249],[110.3165833285579,-7.823722224800792],[110.316042444803,-7.805168008596723],[110.3305976267791,-7.80656465393557],[110.3510592232046,-7.77000707426703]]]]}},{"type":"Feature","properties":{"kode":"34.03","nama":"Kabupaten Gunungkidul","lat":-7.9939102537875755,"lng":110.611797527351},"geometry":{"type":"MultiPolygon","coordinates":[[[[110.8264817057662,-8.20562263577596],[110.8264112735614,-8.205542686046101],[110.8265197767664,-8.20551032574091],[110.8265216806312,-8.205556011300779],[110.8264817057662,-8.20562263577596]]],[[[110.8197690176261,-8.203728555628302],[110.8193716476835,-8.203735694446728],[110.8197642593132,-8.203155104724296],[110.8198522993442,-8.20331452934198],[110.8197690176261,-8.203728555628302]]],[[[110.8244810649492,-8.202854341754389],[110.8244239579993,-8.202856244719907],[110.8244144395748,-8.202808656194431],[110.8245039077292,-8.202780101820188],[110.8244810649492,-8.202854341754389]]],[[[110.7196945791416,-8.20149802111672],[110.7184442957678,-8.20044028798888],[110.7187522991793,-8.199684234239939],[110.7192325047764,-8.199992820412287],[110.7196945791416,-8.20149802111672]]],[[[110.7126538120239,-8.199540727622416],[110.712491686742,-8.199784540124337],[110.7120426237681,-8.199468039918116],[110.7121781237215,-8.199174664878832],[110.7126538120239,-8.199540727622416]]],[[[110.8048010189519,-8.198419382748305],[110.8047058401025,-8.198383691354287],[110.8047385583379,-8.198291486562841],[110.8047920958786,-8.19830338369421],[110.8048010189519,-8.198419382748305]]],[[[110.8022409170847,-8.198148322586967],[110.802188569347,-8.198103112768322],[110.8022290199534,-8.198026969868693],[110.8022528142161,-8.198093595243154],[110.8022409170847,-8.198148322586967]]],[[[110.7648125796369,-8.19633966004723],[110.7647055045555,-8.196175477116512],[110.7648554107487,-8.196089816691625],[110.7648803948144,-8.196229014657224],[110.7648125796369,-8.19633966004723]]],[[[110.7281685643278,-8.195772872220246],[110.7280900409227,-8.19577763143256],[110.7280805233976,-8.195696730219897],[110.7281611107467,-8.19567222189546],[110.7281685643278,-8.195772872220246]]],[[[110.7616800197171,-8.195936341089265],[110.7615372523424,-8.195790004305152],[110.7619548480379,-8.195654374849486],[110.7618977410879,-8.195811419861148],[110.7616800197171,-8.195936341089265]]],[[[110.7972791064456,-8.19577853794911],[110.7971325313413,-8.195774731118881],[110.7970906526116,-8.195694781389022],[110.7972543598009,-8.195609120964136],[110.7972791064456,-8.19577853794911]]],[[[110.7629328059043,-8.195670436741214],[110.7628435760702,-8.195643668420498],[110.7628435760702,-8.195509823219709],[110.7629090107423,-8.195521720351078],[110.7629328059043,-8.195670436741214]]],[[[110.7061531210697,-8.196196204691013],[110.7059964034113,-8.195872485626658],[110.7066373969983,-8.195460792181812],[110.706658510382,-8.195577430653849],[110.7061531210697,-8.196196204691013]]],[[[110.7440424240187,-8.195649378216157],[110.7439639024122,-8.195549441053789],[110.7440602701654,-8.195363842567254],[110.7441566379186,-8.195449503891421],[110.7440424240187,-8.195649378216157]]],[[[110.7063645831591,-8.195452652417927],[110.7062225784093,-8.195228172642004],[110.7064743049453,-8.195098867218924],[110.7065668937472,-8.195329435405068],[110.7063645831591,-8.195452652417927]]],[[[110.6797013671245,-8.187454625330641],[110.679635931553,-8.187457599388708],[110.6796270093791,-8.18735647242324],[110.6796894699931,-8.187353498365173],[110.6797013671245,-8.187454625330641]]],[[[110.6797311113018,-8.187186934929063],[110.679635931553,-8.18709175697892],[110.6796924440512,-8.186984680998215],[110.6797876229006,-8.187062013700945],[110.6797311113018,-8.187186934929063]]],[[[110.6883690303066,-8.18560185733979],[110.6882583849166,-8.185616134077272],[110.6881227563602,-8.18533059932765],[110.6883654608974,-8.185398412706562],[110.6883690303066,-8.18560185733979]]],[[[110.6767032468574,-8.18550644106935],[110.6766175864326,-8.185501681857126],[110.6767175226956,-8.185140004207785],[110.6769459522939,-8.185330361007264],[110.6767032468574,-8.18550644106935]]],[[[110.6786717486024,-8.184426852617115],[110.6785638101717,-8.184697448728233],[110.6779788137713,-8.184324139247572],[110.6785262490872,-8.18392666498358],[110.6786717486024,-8.184426852617115]]],[[[110.6790730710655,-8.18288962885319],[110.6792252102753,-8.18320532596502],[110.6788954675519,-8.183720938770271],[110.6785176236894,-8.182980978389391],[110.6790730710655,-8.18288962885319]]],[[[110.6820411755598,-8.182809571204679],[110.6817850612317,-8.182790523563792],[110.6817847779452,-8.18255642373991],[110.6820884430273,-8.182629910941657],[110.6820411755598,-8.182809571204679]]],[[[110.6721081500712,-8.180161458084783],[110.6719047072365,-8.180275671984631],[110.6718547382057,-8.179858076289097],[110.6719332598121,-8.179825954304292],[110.6721081500712,-8.180161458084783]]],[[[110.6627544732404,-8.177579725723731],[110.6623691461193,-8.177638010785486],[110.6622484993688,-8.177437790221802],[110.6624864033249,-8.177211718645854],[110.6627544732404,-8.177579725723731]]],[[[110.6046150206667,-8.148074528816345],[110.6046007439293,-8.147655744217168],[110.6051924141986,-8.147405086975184],[110.6046864052534,-8.147917484704141],[110.6046150206667,-8.148074528816345]]],[[[110.5770539997424,-8.145658000116534],[110.5769460001578,-8.145645000416373],[110.5769329995583,-8.145459999979003],[110.5771139998113,-8.145469000393994],[110.5770539997424,-8.145658000116534]]],[[[110.5856989991096,-8.145678727691035],[110.5854062490992,-8.145687978117593],[110.5853844369423,-8.145569040079064],[110.5857074986023,-8.145416290229583],[110.5856989991096,-8.145678727691035]]],[[[110.5784847788495,-8.139452042177968],[110.5777332738715,-8.139612762718755],[110.577504036682,-8.138927206825102],[110.5783690621826,-8.138934414891335],[110.5784847788495,-8.139452042177968]]],[[[110.5758765650515,-8.138181881088862],[110.5758180299782,-8.138134767405507],[110.5759607982524,-8.138063382818821],[110.5759607982524,-8.138096219764694],[110.5758765650515,-8.138181881088862]]],[[[110.5554152231341,-8.13464901494008],[110.5551368263036,-8.13446698676195],[110.5551725176976,-8.13424926629061],[110.5554830374124,-8.13441701773117],[110.5554152231341,-8.13464901494008]]],[[[110.5538281220703,-8.133987524904267],[110.5536924926145,-8.133955402919462],[110.5536068321896,-8.1337983579078],[110.5538031380045,-8.133816204054582],[110.5538281220703,-8.133987524904267]]],[[[110.4038624827674,-8.08014537930573],[110.403811920184,-8.080082917792346],[110.4038833038714,-8.080062097587675],[110.4039070981342,-8.080136456232427],[110.4038624827674,-8.08014537930573]]],[[[110.3482437723323,-8.041228501094437],[110.3481010040582,-8.041154143348965],[110.3482021319229,-8.041032196178914],[110.348294335815,-8.041118451055667],[110.3482437723323,-8.041228501094437]]],[[[110.5649237299463,-7.782895458158804],[110.5820889666326,-7.789117025630147],[110.5758561207635,-7.805880205107289],[110.5861569258016,-7.802687384315269],[110.5858236568363,-7.808582720016481],[110.6000641759211,-7.806737407405321],[110.6042506297628,-7.79827535442397],[110.6257833637113,-7.803186931631582],[110.6507256496691,-7.792424315729533],[110.6576764872802,-7.804803036730749],[110.6712383383787,-7.786138835238957],[110.6818001653455,-7.806282825292125],[110.7087781162172,-7.805153664410084],[110.7133349828233,-7.790773557054002],[110.7403320838586,-7.804845322853352],[110.7523253437397,-7.824992074724405],[110.7622475243039,-7.823458108305007],[110.7678696297796,-7.808178302986216],[110.7855835932083,-7.816719381194463],[110.7828859544233,-7.871011224688188],[110.770493516063,-7.904044140025039],[110.7674337157934,-7.982584206895619],[110.755678554122,-8.024864906590139],[110.7887354013178,-8.110769377804488],[110.7856153716521,-8.150690371563378],[110.8037076088191,-8.162502441434487],[110.814699119269,-8.137828984419997],[110.8304927504401,-8.13634346088195],[110.8288381417669,-8.146239258035308],[110.8152832082535,-8.153540860022606],[110.8138432146926,-8.179634236830484],[110.8222621946447,-8.181873495665197],[110.8250899932087,-8.168276273331259],[110.8326258631931,-8.169175506344555],[110.8388113462666,-8.179108562410224],[110.8345774262073,-8.203366313204778],[110.7995567717277,-8.197880359690828],[110.7989526035798,-8.189096504100384],[110.7081325549734,-8.200337224782999],[110.7077489176784,-8.183568843627214],[110.6739547190352,-8.181249054100519],[110.6445936861497,-8.168364997746362],[110.6039896977664,-8.145187601626418],[110.595760091655,-8.149228838340132],[110.5487566166246,-8.128390809088497],[110.5455309678799,-8.135002076184854],[110.5273266823805,-8.1313321353697],[110.514206949691,-8.120930136816256],[110.4364603330779,-8.100008745806946],[110.430693202929,-8.089120375005248],[110.3755308345804,-8.07146287730987],[110.3390012831827,-8.028066897769097],[110.3315283126815,-7.999081362414876],[110.3524199801979,-7.993549116298641],[110.3482471987493,-7.97433734729072],[110.3609924258598,-7.982401817190058],[110.3656458176004,-7.972452814345824],[110.3973402377618,-7.980704784797935],[110.3969880776377,-7.967141857210861],[110.4212014729697,-7.973271349393211],[110.4318614591391,-7.962973041772407],[110.4434738003757,-7.966760130975174],[110.4494399990567,-7.946916565746846],[110.4546356154413,-7.967231248023569],[110.4665374727263,-7.954191662015545],[110.4706802321071,-7.962728962171787],[110.4633636438172,-7.968422873117013],[110.4774551452388,-7.971160862683639],[110.4726104739942,-7.953566036043717],[110.4764175452335,-7.942675082389065],[110.4880065913312,-7.945178020649094],[110.4919510034361,-7.938368289364987],[110.4978485316844,-7.900322890189119],[110.4949766618436,-7.890635047769194],[110.475672095391,-7.889264478272987],[110.4675445578351,-7.866666302208073],[110.4889099882054,-7.837760747160675],[110.5162734964248,-7.837604005220626],[110.5297888642647,-7.823759288560232],[110.5423637912561,-7.823447249890662],[110.5437678344181,-7.792188875915843],[110.5550272187312,-7.795060711582539],[110.5531502167092,-7.787003778001881],[110.5649237299463,-7.782895458158804]]]]}},{"type":"Feature","properties":{"kode":"34.04","nama":"Kabupaten Sleman","lat":-7.716463527037873,"lng":110.38321299281007},"geometry":{"type":"MultiPolygon","coordinates":[[[[110.4544581549199,-7.571705841851077],[110.4685485151019,-7.617773466172454],[110.4917735671964,-7.766765996753281],[110.5095204269262,-7.769298770921455],[110.530466510621,-7.79795722014958],[110.5435841532862,-7.792556635680174],[110.5423637912561,-7.823447249890662],[110.5191826296747,-7.831029907104518],[110.4814156651009,-7.817384302143785],[110.4677143732198,-7.828108186043873],[110.4539579636891,-7.820389464102443],[110.4300018401129,-7.835895597303892],[110.4284304502052,-7.82311818795394],[110.4215690618628,-7.822295666211935],[110.4210234665598,-7.786306855576867],[110.4001379144333,-7.791352859846582],[110.3907509051303,-7.780389278742187],[110.3522610987707,-7.7664680117892],[110.3435342736879,-7.791873303809886],[110.3305976267791,-7.80656465393557],[110.316042444803,-7.805168008596723],[110.3165833285579,-7.823722224800792],[110.3093516866311,-7.818700965377249],[110.2981290567107,-7.832991075777488],[110.2865470801837,-7.833381025413892],[110.288969440987,-7.823638735339315],[110.2803505381469,-7.818487704643821],[110.2906984622643,-7.793134377249692],[110.2867107675879,-7.784587437260341],[110.2563768139388,-7.800915628153663],[110.2535983018203,-7.796504711623057],[110.2334389180717,-7.815200492808464],[110.2283509550326,-7.805897524251274],[110.2361414060011,-7.798213665428281],[110.2202066703016,-7.776984244027555],[110.2159103966475,-7.74176149929369],[110.2324570031882,-7.713450751351018],[110.2721724452022,-7.706355585142059],[110.3028457220525,-7.655776906578885],[110.385787035943,-7.599085063025227],[110.4452249117004,-7.54116155925855],[110.4550127740204,-7.554800607262172],[110.4544581549199,-7.571705841851077]]]]}},{"type":"Feature","properties":{"kode":"34.71","nama":"Kota Yogyakarta","lat":-7.803297519308451,"lng":110.37435793496881},"geometry":{"type":"MultiPolygon","coordinates":[[[[110.3606269422796,-7.771318901845773],[110.3971268861969,-7.788483850749087],[110.4035659987719,-7.83309260204195],[110.3933069330685,-7.826259902972125],[110.3952127026042,-7.835622708820881],[110.3876570025686,-7.839928598925709],[110.3751405144233,-7.824365324599984],[110.3516317046395,-7.825584485135798],[110.3448009103338,-7.80778305274568],[110.3510807718602,-7.768221533297107],[110.3606269422796,-7.771318901845773]]]]}}]}