{"type":"FeatureCollection","features":[{"type":"Feature","properties":{"kode":"36.01","nama":"Kabupaten Pandeglang","lat":-6.590233346882594,"lng":105.74297025290407},"geometry":{"type":"MultiPolygon","coordinates":[[[[105.5498751512173,-6.995084682811807],[105.5696157602592,-7.006367000736517],[105.5685777141902,-7.01384276722992],[105.5210713256812,-7.008902865874481],[105.5218831230078,-7.001323630581061],[105.5498751512173,-6.995084682811807]]],[[[105.8148901659485,-6.950302103359344],[105.8204455318359,-6.953546925650115],[105.8143698182125,-6.957849081769644],[105.7661969951953,-6.971370965197802],[105.8148901659485,-6.950302103359344]]],[[[105.2629490019949,-6.853235845857578],[105.2630183972812,-6.853946449668839],[105.2626003213478,-6.854493465001425],[105.2623023210953,-6.852589465331497],[105.2629490019949,-6.853235845857578]]],[[[105.2659517052071,-6.846985634079753],[105.2655787050932,-6.846885633964809],[105.2669057051343,-6.846149634198254],[105.2669057051343,-6.846345634243604],[105.2659517052071,-6.846985634079753]]],[[[105.2456930309087,-6.841194645816166],[105.2451164944307,-6.840955140167519],[105.2459714754033,-6.840462301793763],[105.2461457208484,-6.840921340047749],[105.2456930309087,-6.841194645816166]]],[[[105.24290065664,-6.839898267690873],[105.2427800395672,-6.839843004351102],[105.2429250831261,-6.839533121356371],[105.2430162069325,-6.839665851397817],[105.24290065664,-6.839898267690873]]],[[[105.2395469318455,-6.837958597311359],[105.2400409078616,-6.838061388921871],[105.2393080341385,-6.839212334981219],[105.2389116156786,-6.838067099616899],[105.2395469318455,-6.837958597311359]]],[[[105.239093050304,-6.822063545995841],[105.2379754771866,-6.821813622600529],[105.2392355002182,-6.820874678223791],[105.2393991750319,-6.821133583148312],[105.239093050304,-6.822063545995841]]],[[[105.4430925382901,-6.810439391264803],[105.4429688949986,-6.80883840286988],[105.4444617012466,-6.8083756989793],[105.444191963988,-6.810289127141437],[105.4430925382901,-6.810439391264803]]],[[[105.4818332995672,-6.805488337416835],[105.4818099792472,-6.805554184877653],[105.481773714985,-6.805551634400401],[105.481778850114,-6.805458438556026],[105.4818332995672,-6.805488337416835]]],[[[105.4816499017216,-6.805485838200801],[105.4816379767113,-6.805437160596454],[105.4816810200631,-6.805419168759545],[105.481674658259,-6.805463919024549],[105.4816499017216,-6.805485838200801]]],[[[105.2356769683175,-6.802070356961369],[105.2354210437462,-6.801892055573847],[105.2360291976894,-6.801754326201141],[105.2358651991197,-6.80200757528933],[105.2356769683175,-6.802070356961369]]],[[[105.227486086114,-6.79437363333644],[105.2274320863218,-6.794105632668827],[105.2275620860215,-6.793748633292721],[105.227646086298,-6.794166631884461],[105.227486086114,-6.79437363333644]]],[[[105.232937437313,-6.792370815260877],[105.232678271585,-6.79218829155637],[105.232816777972,-6.791865898991992],[105.232931721222,-6.792095620916142],[105.232937437313,-6.792370815260877]]],[[[105.2301855586167,-6.791219228884219],[105.2298941539921,-6.791173161112488],[105.2299968493751,-6.790789435683812],[105.2301757083423,-6.790922109967371],[105.2301855586167,-6.791219228884219]]],[[[105.2286057519539,-6.789836901651628],[105.2285425583924,-6.789395297654791],[105.2289211936582,-6.789482810683082],[105.2289287110913,-6.789628005328189],[105.2286057519539,-6.789836901651628]]],[[[105.2303121813621,-6.789265575845586],[105.2302193821188,-6.789244161189049],[105.2302229506288,-6.789133515799043],[105.2302836269878,-6.789158499864793],[105.2303121813621,-6.789265575845586]]],[[[105.2304299637719,-6.788977660590482],[105.2303288368065,-6.788971713373807],[105.2304002213931,-6.788775406659634],[105.2305072955753,-6.788811098953022],[105.2304299637719,-6.788977660590482]]],[[[105.2301958792365,-6.787516183125301],[105.2299967882213,-6.787080422923068],[105.2303704772158,-6.786723122274267],[105.2307111368096,-6.787227462077698],[105.2301958792365,-6.787516183125301]]],[[[105.4366707664428,-6.77185591062173],[105.4353750942852,-6.772555861064048],[105.4348180092438,-6.771932200110856],[105.4362141671501,-6.769766743240594],[105.4366707664428,-6.77185591062173]]],[[[105.4225887240904,-6.767481770966891],[105.4212440415793,-6.766461891203316],[105.4223018493509,-6.765378869139464],[105.4233612750029,-6.766161541921604],[105.4225887240904,-6.767481770966891]]],[[[105.4241073165994,-6.765577436749285],[105.4237983338261,-6.765367391092151],[105.4238660779572,-6.765224861138356],[105.4242836295859,-6.765411066667396],[105.4241073165994,-6.765577436749285]]],[[[105.4232018422912,-6.7584275108209],[105.4252089986964,-6.760349128209667],[105.421180748193,-6.763907634929359],[105.4205680032109,-6.761672717122184],[105.4232018422912,-6.7584275108209]]],[[[105.4205270166086,-6.757439310575623],[105.418870200999,-6.7564434373147],[105.4192960281892,-6.75442811416607],[105.4214926402732,-6.755725424888385],[105.4205270166086,-6.757439310575623]]],[[[105.4175892057773,-6.754460109346531],[105.4189091218585,-6.758295535310647],[105.4171051124111,-6.759765898077656],[105.4165920725662,-6.755054595393232],[105.4175892057773,-6.754460109346531]]],[[[105.2086946053718,-6.751738216745266],[105.2084557787113,-6.751692774901556],[105.2085485527736,-6.751233656607861],[105.2087299352384,-6.751350680889149],[105.2086946053718,-6.751738216745266]]],[[[105.4346835309203,-6.757152604009401],[105.4293443719452,-6.755196172964943],[105.4286437802862,-6.749562380799182],[105.4351333232444,-6.755102841323061],[105.4346835309203,-6.757152604009401]]],[[[105.4258845181561,-6.752861997882834],[105.4188335419344,-6.753275169813192],[105.418822906552,-6.74879749660711],[105.4230878460274,-6.74829516498983],[105.4258845181561,-6.752861997882834]]],[[[105.2103528329169,-6.745977307206966],[105.2102211982498,-6.745870268997648],[105.2102110269174,-6.745765710219302],[105.2103350317364,-6.745782517649061],[105.2103528329169,-6.745977307206966]]],[[[105.2247479904275,-6.745770223017348],[105.2242462253831,-6.745674172724828],[105.2241643861776,-6.745592460323716],[105.2244756532289,-6.745596458709517],[105.2247479904275,-6.745770223017348]]],[[[105.2106867421995,-6.745692142078656],[105.211429066898,-6.745749162693641],[105.2114417473389,-6.745815772779621],[105.2105898006788,-6.745838068771874],[105.2104698491043,-6.745440947042062],[105.2106867421995,-6.745692142078656]]],[[[105.2129544600803,-6.744523265336414],[105.2133443899317,-6.745050123264543],[105.2121587399339,-6.743886953619941],[105.2124724936107,-6.743807556073803],[105.2129544600803,-6.744523265336414]]],[[[105.2119472796433,-6.74447732436894],[105.2110590021713,-6.744367240155994],[105.2112948889481,-6.743679043852761],[105.2115699016298,-6.74373964197084],[105.2119472796433,-6.74447732436894]]],[[[105.2466122720387,-6.726449393224846],[105.2464578719333,-6.726368518991936],[105.246422383786,-6.726243321671958],[105.246562833608,-6.72625842128907],[105.2466122720387,-6.726449393224846]]],[[[105.2488763018,-6.726089328059962],[105.2676953269778,-6.736699910872161],[105.2581111368196,-6.750972140052162],[105.247685917771,-6.748202784830574],[105.2488763018,-6.726089328059962]]],[[[105.2471911233717,-6.725229774934131],[105.2471091591604,-6.725761060224737],[105.2469320583679,-6.725826922974036],[105.2467318908641,-6.725314749176262],[105.2471911233717,-6.725229774934131]]],[[[105.5028605299895,-6.707996239235018],[105.502753384761,-6.707484902705988],[105.5035271596507,-6.707330802074799],[105.503502228645,-6.707547617828239],[105.5028605299895,-6.707996239235018]]],[[[105.1779989372012,-6.688445829611282],[105.1779382608421,-6.688424414954745],[105.1780274906762,-6.688317339873232],[105.1780596135604,-6.688370877414033],[105.1779989372012,-6.688445829611282]]],[[[105.1783558556383,-6.688174571599141],[105.1781988124253,-6.688121034058429],[105.1782202270819,-6.688013958077636],[105.1784236708158,-6.688060357699292],[105.1783558556383,-6.688174571599141]]],[[[105.1829874765908,-6.68710274429614],[105.1829398880654,-6.687129512616855],[105.1828982467567,-6.687081923192188],[105.1829607082701,-6.687046231798081],[105.1829874765908,-6.68710274429614]]],[[[105.1824044937724,-6.686359023849845],[105.1818891390725,-6.685138297594299],[105.1822647274353,-6.684732923685458],[105.1827053160975,-6.686016294016709],[105.1824044937724,-6.686359023849845]]],[[[105.1785653068435,-6.682867322369005],[105.1783745597382,-6.68278912361913],[105.1784484723192,-6.682514459874404],[105.178649190208,-6.682621112274471],[105.1785653068435,-6.682867322369005]]],[[[105.1796222809436,-6.681466719113764],[105.1797263450948,-6.681927729580987],[105.1788057280021,-6.682554178432535],[105.17873576974,-6.681955120232511],[105.1796222809436,-6.681466719113764]]],[[[105.1843011738602,-6.681169803443669],[105.1838647166834,-6.681234790253291],[105.1838347638633,-6.68083713522554],[105.1842326446209,-6.68075289662882],[105.1843011738602,-6.681169803443669]]],[[[105.179761257676,-6.681401210697294],[105.1795210829317,-6.681072592126362],[105.1797785282565,-6.680628518591262],[105.1799907295885,-6.680989885075021],[105.179761257676,-6.681401210697294]]],[[[105.184006626105,-6.680510353070338],[105.1836485133683,-6.680793109814135],[105.1831676629573,-6.680532650861063],[105.1835351115563,-6.680039496825233],[105.184006626105,-6.680510353070338]]],[[[105.1789534290575,-6.680376950335968],[105.1786772814314,-6.680270805153458],[105.1786089032783,-6.680111456978092],[105.1790187639048,-6.680009802110635],[105.1789534290575,-6.680376950335968]]],[[[105.1815578216362,-6.677763694938469],[105.1813619160197,-6.677772777191907],[105.1813039394253,-6.677527007765142],[105.1815794890022,-6.67751226967546],[105.1815578216362,-6.677763694938469]]],[[[105.5559937544083,-6.67586496079922],[105.5580227607419,-6.677284841022483],[105.5581938558618,-6.677936156128687],[105.5561275357573,-6.677676974212935],[105.5559937544083,-6.67586496079922]]],[[[105.1969838513238,-6.668157878782991],[105.1969121402831,-6.668028533789786],[105.1970566766244,-6.667609106175191],[105.197101570781,-6.667922320258838],[105.1969838513238,-6.668157878782991]]],[[[105.1967063124464,-6.668100459768382],[105.1964362190563,-6.667833546380989],[105.1966381753116,-6.667329059088781],[105.1967916706991,-6.667728787053821],[105.1967063124464,-6.668100459768382]]],[[[105.5699660866656,-6.664092474587927],[105.570026029178,-6.664124467070457],[105.5699469140189,-6.66424280436189],[105.5698459453342,-6.664118294123948],[105.5699660866656,-6.664092474587927]]],[[[105.569728971415,-6.664275102613785],[105.5696350543144,-6.664156079139686],[105.5697037247472,-6.664080646704455],[105.5698373424195,-6.664156934394931],[105.569728971415,-6.664275102613785]]],[[[105.569536125292,-6.664166892587956],[105.5694893803307,-6.664144208088699],[105.5694716735789,-6.664070753262567],[105.5695679549972,-6.664069242401619],[105.569536125292,-6.664166892587956]]],[[[105.5696317259235,-6.664097431651132],[105.5696228010515,-6.664083421112891],[105.569675156883,-6.664054468338935],[105.5696881970527,-6.664083469676355],[105.5696317259235,-6.664097431651132]]],[[[105.5699359755649,-6.664069834155465],[105.5699179288694,-6.664049170432821],[105.5699369216516,-6.664013772217706],[105.5699720824457,-6.664053544735252],[105.5699359755649,-6.664069834155465]]],[[[105.5696363808144,-6.664034644583142],[105.5695972639027,-6.66401244032178],[105.5696620708479,-6.663971728012789],[105.5696738132959,-6.663999424433857],[105.5696363808144,-6.664034644583142]]],[[[105.5698950213382,-6.664016792141218],[105.5698821250601,-6.664096898353104],[105.5696868336805,-6.66403652686414],[105.569802345302,-6.663950505811193],[105.5698950213382,-6.664016792141218]]],[[[105.5695563312597,-6.663962247359815],[105.5695312950333,-6.663946409399183],[105.5695547862244,-6.663918114929039],[105.569566720228,-6.663947093783288],[105.5695563312597,-6.663962247359815]]],[[[105.5698606429544,-6.663959420790614],[105.5698382983988,-6.663917328022232],[105.5698831026231,-6.663879981875612],[105.5699348190367,-6.663928030853831],[105.5698606429544,-6.663959420790614]]],[[[105.5682869489835,-6.663020006068424],[105.5682425944202,-6.662989875182549],[105.5683119726195,-6.662919787418246],[105.5683323899279,-6.66296952442396],[105.5682869489835,-6.663020006068424]]],[[[105.5681368719192,-6.662882759631631],[105.5680910532595,-6.66282476415148],[105.5681216248132,-6.662781105663455],[105.5681849766554,-6.662831624180025],[105.5681368719192,-6.662882759631631]]],[[[105.5679500890254,-6.662102356738301],[105.5679297175825,-6.662068438807348],[105.5679708040094,-6.66206000316654],[105.567977105559,-6.662086216605604],[105.5679500890254,-6.662102356738301]]],[[[105.5679538140174,-6.661730551823445],[105.5680006273271,-6.661712718267302],[105.5680194060708,-6.661735991822563],[105.5679688587759,-6.661777251818605],[105.5679538140174,-6.661730551823445]]],[[[105.5678473279918,-6.661671835087083],[105.5678226110247,-6.661635650864532],[105.5678489054028,-6.661603420061705],[105.5678829816144,-6.661627228713555],[105.5678473279918,-6.661671835087083]]],[[[105.5791316073379,-6.651521313058043],[105.5802773517184,-6.652897485330626],[105.580304325984,-6.653903157604616],[105.5790277239503,-6.652806966768114],[105.5791316073379,-6.651521313058043]]],[[[105.5705948233925,-6.646138750103229],[105.5711473839447,-6.647369716938804],[105.5692593670262,-6.646951294766338],[105.5693546708814,-6.64625062036979],[105.5705948233925,-6.646138750103229]]],[[[105.5813881619341,-6.64211900179044],[105.5832974055509,-6.642650841063417],[105.5830985942248,-6.64432961362074],[105.5806410618356,-6.643555282050587],[105.5813881619341,-6.64211900179044]]],[[[105.1080126172885,-6.616699477099156],[105.1104887062888,-6.617398268315337],[105.1114559829074,-6.618670809909925],[105.1065268869064,-6.620079561922213],[105.1080126172885,-6.616699477099156]]],[[[105.1264243386124,-6.584546218333268],[105.1258380148126,-6.584299715059742],[105.1257221587507,-6.583852605413369],[105.1265697149205,-6.584214152660976],[105.1264243386124,-6.584546218333268]]],[[[105.1853264369656,-6.537855458262757],[105.1851522202988,-6.537467561778491],[105.1855669309692,-6.53727182433517],[105.1856089239128,-6.537509313703786],[105.1853264369656,-6.537855458262757]]],[[[105.2615044902401,-6.521284722911584],[105.266698093942,-6.534412150200523],[105.250041826769,-6.559895060908242],[105.2590889678816,-6.60463762322772],[105.2430668441596,-6.635841936256329],[105.2293780843312,-6.643123194679638],[105.2162096542522,-6.638151988823163],[105.1841014955876,-6.679545458755846],[105.170203549854,-6.660909472594038],[105.1908144337392,-6.640341954017951],[105.1952381683069,-6.621201110942446],[105.1748301939584,-6.599209417880284],[105.1774860772208,-6.578911069989849],[105.1601783519495,-6.575381709398335],[105.1319922698274,-6.605002479980441],[105.127930380183,-6.623253800922128],[105.1122200388238,-6.609917594221563],[105.1013530260214,-6.619979104951738],[105.1209660689291,-6.587891253878268],[105.1241612297571,-6.58866594697585],[105.1569586180458,-6.564186775898921],[105.1849174873522,-6.538655299102717],[105.2118901331233,-6.547477945151029],[105.2210152031891,-6.529949440813957],[105.2389597527904,-6.533491605952761],[105.2615044902401,-6.521284722911584]]],[[[105.7246246626981,-6.490809319394567],[105.7234515888199,-6.493464797962004],[105.7189641471777,-6.488276886968761],[105.7204637064349,-6.488350510867384],[105.7246246626981,-6.490809319394567]]],[[[105.8083391840061,-6.3932461612813],[105.8111791342098,-6.396017274677471],[105.8086833041912,-6.399161685863034],[105.8045504904129,-6.395663497572261],[105.8083391840061,-6.3932461612813]]],[[[105.8977733593531,-6.239271961231977],[105.9163639998988,-6.250014000645602],[105.9303030005831,-6.281040999742319],[105.9345343890509,-6.240269766236643],[105.9463830001754,-6.237495999840429],[105.9496380000936,-6.248290000283222],[105.9774087438185,-6.245745447694232],[105.981436033846,-6.265158484976022],[106.0012549999184,-6.275420001331947],[106.060466181769,-6.266793337342661],[106.0774733949813,-6.251634871252224],[106.0850476561246,-6.22759230124366],[106.1048018952913,-6.239120413776059],[106.1087479747393,-6.252438807604825],[106.1226160000284,-6.248931000165462],[106.1349680957011,-6.257660240827415],[106.1741574819823,-6.250638011435043],[106.1802358522029,-6.257372168190915],[106.1694369999177,-6.295701000400803],[106.1564419995987,-6.298143999745757],[106.1515003427667,-6.325002512555836],[106.1300660000459,-6.326916000073338],[106.1321188923731,-6.346291499652938],[106.129512354012,-6.357743814625286],[106.1237907178674,-6.356474456630838],[106.1315379995791,-6.377459000732236],[106.1130216933965,-6.399250385996495],[106.1180709999767,-6.420465000059642],[106.1098510013227,-6.427284999802811],[106.0904970000366,-6.42386300117657],[106.0634800006016,-6.405052000649273],[106.0554407351019,-6.40667019037691],[106.055726734801,-6.414419170908018],[106.0428481760025,-6.41133911880523],[106.0366972691637,-6.428054832064748],[106.0230990000189,-6.431091999995767],[106.0236456277436,-6.445230128567551],[105.9838489112983,-6.504119515003629],[105.9851423558352,-6.514986218439204],[105.9747387124217,-6.517293906688407],[105.9828054504112,-6.542062818644093],[105.9655094289171,-6.554914375298163],[105.928690313807,-6.616573721300138],[105.9427820013884,-6.629524000132462],[105.9462182497725,-6.660209047309688],[105.9375070000481,-6.663603000577981],[105.9194510001636,-6.717643999770732],[105.9001420000533,-6.721615001231277],[105.8962350006449,-6.716239998876786],[105.8840335567033,-6.764497270932316],[105.8629688245517,-6.781258583416853],[105.8778003430115,-6.794757835405711],[105.8694614144128,-6.810598342839195],[105.8792117839967,-6.813677322050785],[105.8780902808418,-6.82229088291784],[105.8805850712441,-6.81748864888199],[105.8883975816831,-6.820752141997736],[105.8819546110165,-6.839798871920414],[105.8496866104488,-6.833672629887903],[105.7742335807153,-6.850300137641145],[105.7167085782383,-6.836577050690255],[105.6705230159245,-6.836008046933787],[105.6581445422368,-6.844632226096329],[105.6146162823157,-6.843361521816752],[105.5633304614317,-6.856499599776703],[105.5380239869175,-6.87429156500368],[105.5048934052065,-6.861951048102347],[105.4793000973217,-6.865058965698693],[105.4389530002808,-6.836136819058839],[105.4217020950757,-6.839329095761108],[105.4216100476656,-6.851976573759869],[105.4138890900096,-6.853761332319567],[105.404724280701,-6.828620791716115],[105.3270666322194,-6.802623822231605],[105.2951818228829,-6.804938016176435],[105.2670884239917,-6.845081646101007],[105.2376794788249,-6.836041222924009],[105.2442358072367,-6.82471104487881],[105.2353148167254,-6.817079055354095],[105.2389312406843,-6.796286166673208],[105.220962787103,-6.765492202603055],[105.2101617053984,-6.763457046705294],[105.212102987363,-6.745649401798363],[105.2349331237647,-6.758094072783186],[105.2634398052029,-6.761074610404875],[105.2793025438774,-6.734991868979527],[105.330317229057,-6.695961899222239],[105.3271042706456,-6.668102683791836],[105.3695980970745,-6.64642635958879],[105.4008786159555,-6.717218776025628],[105.4014994890103,-6.727445578550543],[105.3946339790749,-6.725108121842353],[105.3869431118352,-6.734399177080323],[105.3894484252047,-6.741252491309328],[105.4059303363161,-6.749024294835308],[105.4235653941277,-6.774345711585265],[105.43029601385,-6.767434562854716],[105.4429285675994,-6.822195345238916],[105.4635583138652,-6.828414158086885],[105.4782891460274,-6.820802520220041],[105.47958966643,-6.807600816124707],[105.5000731037908,-6.792254746059693],[105.5033718017672,-6.765525255386232],[105.5123398843782,-6.757128938349747],[105.5067331159406,-6.730376410642761],[105.5555043964109,-6.696751665856641],[105.5619012210646,-6.680835610874673],[105.5716860517699,-6.680618554102916],[105.5757484216524,-6.664448848035835],[105.5692151869314,-6.657660050271001],[105.5978250916547,-6.649266959102799],[105.6113344987881,-6.632931274158941],[105.6262282278505,-6.585356222411657],[105.6168482440513,-6.574851969143029],[105.616319643237,-6.559048109982228],[105.6500578671769,-6.481173284219625],[105.6638324951736,-6.482902504247149],[105.6658708382686,-6.471557427133482],[105.6771771474075,-6.475799967194699],[105.6740012068903,-6.509316115246459],[105.714721046839,-6.532706471726239],[105.7321341618621,-6.527175341668626],[105.7329013366274,-6.516993482763026],[105.7523903909039,-6.522110445340771],[105.7721288550627,-6.516482076086908],[105.7979701905719,-6.491467345241712],[105.8229425426643,-6.437264577797989],[105.825079768017,-6.39779849800222],[105.8070432006833,-6.407005668976388],[105.8260009993467,-6.391607763787269],[105.8085004180599,-6.402189794023697],[105.8254493201301,-6.390529532411974],[105.8188804479744,-6.359362084392632],[105.8281893196814,-6.318680049244811],[105.840930480957,-6.308923467144271],[105.8408177347507,-6.297166680397907],[105.8265406267486,-6.289083020764767],[105.8268604211716,-6.247787344010617],[105.8409300735641,-6.239979736675475],[105.877671173386,-6.239582209351439],[105.8836606959844,-6.223472731781125],[105.8977733593531,-6.239271961231977]]]]}},{"type":"Feature","properties":{"kode":"36.02","nama":"Kabupaten Lebak","lat":-6.64202012285075,"lng":106.2124224818975},"geometry":{"type":"MultiPolygon","coordinates":[[[[106.3499410519381,-6.996734088007698],[106.3498552161454,-6.996852073664232],[106.3494175322933,-6.99700544584461],[106.3495173399533,-6.996844203696976],[106.3499410519381,-6.996734088007698]]],[[[106.3759884437118,-6.995774619303211],[106.3758721883508,-6.995616016665788],[106.3761303657238,-6.995540130972237],[106.3761401593409,-6.995708690903316],[106.3759884437118,-6.995774619303211]]],[[[106.3759763793065,-6.995459465382029],[106.3758341722094,-6.995420161411285],[106.3758175887108,-6.995311886634229],[106.3760621674351,-6.995302015675423],[106.3759763793065,-6.995459465382029]]],[[[106.3071395629405,-6.994966413868812],[106.3070376562628,-6.995041387649862],[106.3067248540688,-6.99502237778045],[106.3068912987945,-6.99493868327357],[106.3071395629405,-6.994966413868812]]],[[[106.3617331235848,-6.994713612643081],[106.361722300244,-6.994897732644193],[106.3614350307022,-6.995142948088499],[106.3614291230556,-6.994733000227686],[106.3617331235848,-6.994713612643081]]],[[[106.3747843351291,-6.994672592765897],[106.3748500144167,-6.994766648362098],[106.3747104935945,-6.994841773229225],[106.3746797943371,-6.994748543210675],[106.3747843351291,-6.994672592765897]]],[[[106.3758447752162,-6.995008082157187],[106.3755891222403,-6.994933248670491],[106.3757565283412,-6.994651194297123],[106.3759557245771,-6.994822371255419],[106.3758447752162,-6.995008082157187]]],[[[106.3764735838889,-6.994688758978977],[106.3762682983434,-6.994828713274418],[106.3760631530921,-6.994726242721842],[106.3763676653355,-6.994626331639856],[106.3764735838889,-6.994688758978977]]],[[[106.3750393280027,-6.994545470896688],[106.3750689678587,-6.994638215281394],[106.3749474883359,-6.994619488698354],[106.3749518221689,-6.994554000067036],[106.3750393280027,-6.994545470896688]]],[[[106.3700814518975,-6.992361211900348],[106.3698013265701,-6.992058890405398],[106.3699394642349,-6.991851430299238],[106.3702110909691,-6.992183272040346],[106.3700814518975,-6.992361211900348]]],[[[106.3258300606089,-6.991209977158678],[106.3263677086029,-6.991221405743246],[106.3251333459273,-6.991658449277941],[106.3253278144271,-6.991331909939617],[106.3258300606089,-6.991209977158678]]],[[[106.2797347830338,-6.979813505588765],[106.2799799822904,-6.980011368130049],[106.279835294863,-6.980262434563648],[106.279597248814,-6.979987909314537],[106.2797347830338,-6.979813505588765]]],[[[106.2618748983079,-6.971869266053758],[106.2613449242289,-6.971992037002809],[106.2616587210732,-6.971302110404024],[106.2618091920407,-6.971321755194796],[106.2618748983079,-6.971869266053758]]],[[[106.1190599439613,-6.889319733718739],[106.1189960831028,-6.889295343205485],[106.1190632093996,-6.889172061441488],[106.1191492790161,-6.889254327824882],[106.1190599439613,-6.889319733718739]]],[[[106.119249119951,-6.888937552426081],[106.1192485156065,-6.889077344843545],[106.1192052429277,-6.889134410424695],[106.1190545237473,-6.888934683588736],[106.119249119951,-6.888937552426081]]],[[[106.119802545651,-6.888621616993954],[106.1197330964053,-6.888603087362525],[106.1195987098127,-6.888479168878518],[106.1198200761357,-6.888577882063522],[106.119802545651,-6.888621616993954]]],[[[106.1191868167183,-6.888457536585938],[106.1192932236035,-6.888566545209843],[106.1192235810035,-6.888636986407696],[106.119032933723,-6.888449350956786],[106.1191868167183,-6.888457536585938]]],[[[106.1058633354247,-6.884421413417456],[106.1058148340874,-6.884392662091602],[106.1058364888629,-6.884355236804732],[106.1058845189555,-6.884379703760216],[106.1058633354247,-6.884421413417456]]],[[[106.1058002767614,-6.884397477961172],[106.1057310145747,-6.884385388374951],[106.1057150363199,-6.884321478953018],[106.1057896072046,-6.884332272616226],[106.1058002767614,-6.884397477961172]]],[[[106.1051789990117,-6.883848762010717],[106.1051311002201,-6.883792216237764],[106.1051746364004,-6.88372320406259],[106.1052298952436,-6.883771989585589],[106.1051789990117,-6.883848762010717]]],[[[106.1052690823024,-6.883772005773351],[106.1052599200094,-6.883758156213896],[106.1052606250778,-6.883705231111462],[106.1052884024379,-6.883737186721798],[106.1052690823024,-6.883772005773351]]],[[[106.1051614937081,-6.883681283964086],[106.1051620126169,-6.883663510662411],[106.1051845181511,-6.883650164723302],[106.1051843580717,-6.883662128404459],[106.1051614937081,-6.883681283964086]]],[[[106.1053076182521,-6.883662855056708],[106.1052601799135,-6.883691151325503],[106.1052537641499,-6.883623810990062],[106.1053014542987,-6.883638928593675],[106.1053076182521,-6.883662855056708]]],[[[106.1071186837803,-6.883631453428833],[106.1070830769225,-6.88361088863159],[106.1071190552003,-6.88357135713236],[106.1071417540887,-6.883601586044356],[106.1071186837803,-6.883631453428833]]],[[[106.1071991218421,-6.883582297385064],[106.1070969984277,-6.883516764686862],[106.1071166207355,-6.883480504021992],[106.1071943068718,-6.883488292150889],[106.1071991218421,-6.883582297385064]]],[[[106.105259550388,-6.883557671249533],[106.1052593732215,-6.883586411783397],[106.1051076360087,-6.883533417433244],[106.1051736246631,-6.883469300267978],[106.105259550388,-6.883557671249533]]],[[[106.1068428742992,-6.883438646875976],[106.1067837996327,-6.883407969202419],[106.1068136409368,-6.883369463829662],[106.1068813472964,-6.883399118074766],[106.1068428742992,-6.883438646875976]]],[[[106.106673322416,-6.883243803358744],[106.1067438958142,-6.883257801306434],[106.1067328638306,-6.883434384089496],[106.106609200754,-6.883323485090712],[106.106673322416,-6.883243803358744]]],[[[106.1065478121319,-6.883296639428308],[106.1064761640438,-6.883242607260413],[106.1064965903455,-6.883158132142046],[106.1065612057351,-6.883251407126671],[106.1065478121319,-6.883296639428308]]],[[[106.1051510741628,-6.881153891338946],[106.1051272457259,-6.881109698653613],[106.1051320229246,-6.881078065000671],[106.1051463401316,-6.881092857049679],[106.1051510741628,-6.881153891338946]]],[[[106.0962051175722,-6.877263678675742],[106.0961038718962,-6.877206093286573],[106.0961200677869,-6.877090755234131],[106.0962185903157,-6.87717734196072],[106.0962051175722,-6.877263678675742]]],[[[106.0961046246288,-6.87708637283773],[106.0960051713016,-6.87711827898532],[106.0959394569405,-6.877028016729517],[106.0959784614369,-6.87698905899781],[106.0961046246288,-6.87708637283773]]],[[[106.0964777047823,-6.877106630066868],[106.0964181426832,-6.877047722674216],[106.0964698357144,-6.876919836381282],[106.0965398982977,-6.876955332622429],[106.0964777047823,-6.877106630066868]]],[[[106.0961130341892,-6.876852889948885],[106.096080542583,-6.876801499989219],[106.0961261229223,-6.876701920756982],[106.0961993987833,-6.876825358103726],[106.0961130341892,-6.876852889948885]]],[[[106.0958664463794,-6.87656132524486],[106.095987989754,-6.876744456891152],[106.0956790780271,-6.87673407961407],[106.0956696711185,-6.876604915384536],[106.0958664463794,-6.87656132524486]]],[[[106.0955964699013,-6.876616190184918],[106.0955535506559,-6.876563896406632],[106.0955929850283,-6.876444718249068],[106.0956384007917,-6.876547992795582],[106.0955964699013,-6.876616190184918]]],[[[106.0954409321533,-6.876599720001034],[106.0954107266238,-6.876505521412638],[106.0955236679829,-6.876442359327387],[106.0955287851254,-6.876486560106602],[106.0954409321533,-6.876599720001034]]],[[[106.0953784157814,-6.876336651215435],[106.0953064547291,-6.876252249841367],[106.0953948356033,-6.87622429441566],[106.0954553887552,-6.876267119232153],[106.0953784157814,-6.876336651215435]]],[[[106.0948369843394,-6.876134158964201],[106.0947844360529,-6.876134855938768],[106.0947850278069,-6.876064764577165],[106.094828840079,-6.876084990329971],[106.0948369843394,-6.876134158964201]]],[[[106.0943928910191,-6.876099270664752],[106.09428562708,-6.876037845170372],[106.0942948523256,-6.875978019569899],[106.0944160017971,-6.876041355224308],[106.0943928910191,-6.876099270664752]]],[[[106.094552095303,-6.875856182117061],[106.0946029034014,-6.87605709425945],[106.0943616692557,-6.875943086304374],[106.0945223772059,-6.875744217421679],[106.094552095303,-6.875856182117061]]],[[[106.07922641107,-6.856168002651123],[106.0790919696188,-6.856112084605019],[106.0792255639088,-6.85600868325407],[106.0792608002458,-6.856138552552141],[106.07922641107,-6.856168002651123]]],[[[106.2082792218088,-6.292793288079749],[106.2262119543183,-6.31264933320013],[106.234377693276,-6.302135268327883],[106.2438412124021,-6.304640191391701],[106.2452241970391,-6.297010099436466],[106.258382302901,-6.299057651589272],[106.2596844528752,-6.310804348841596],[106.2771313653203,-6.301421774994846],[106.2804836556962,-6.311702473890061],[106.3084586201692,-6.320046760649482],[106.3195475649682,-6.335149188184434],[106.4009426600758,-6.330301855845891],[106.410264928084,-6.34506349338542],[106.429235540288,-6.350331251585909],[106.434042198089,-6.393809562261391],[106.4539293372692,-6.413958968931225],[106.4444917986576,-6.421537135830117],[106.4546700108124,-6.42692233829523],[106.4405343445845,-6.449510773803161],[106.4012687101828,-6.452933476598658],[106.411853531915,-6.468045026856454],[106.4037904748506,-6.516722350655949],[106.4220371400021,-6.549911085228358],[106.4170862165557,-6.562311404347802],[106.4300108206429,-6.580048114328977],[106.42927632814,-6.681055395290229],[106.4493098328825,-6.707166463561424],[106.4507112877957,-6.726714580813179],[106.4667708673817,-6.751003094717038],[106.4995673599458,-6.752425461565696],[106.5261672439233,-6.767843073598882],[106.4976494756428,-6.791170723949661],[106.4572407714445,-6.803730993790306],[106.447384929371,-6.818386953794845],[106.436089923811,-6.819777742748538],[106.4310799922479,-6.862095580846343],[106.3928985436329,-6.900634794160413],[106.4002874203282,-6.923598630072617],[106.3896578591229,-6.942165259619041],[106.3971167570328,-6.978486462380288],[106.3806550995533,-6.995096159060469],[106.3726516909229,-6.989703110909743],[106.3432540313485,-6.997482091924993],[106.337013588906,-6.986572696772501],[106.3100264352719,-6.995701082638809],[106.3016572282985,-6.979620136959656],[106.2694756247004,-6.976274747081827],[106.26088553434,-6.963852811857744],[106.2455922418885,-6.96055680735073],[106.2358465991413,-6.951650318407391],[106.2489242273713,-6.939514812758389],[106.2377144946283,-6.930870143442273],[106.184866474908,-6.909433775448352],[106.1973299651058,-6.912121408376296],[106.1976336607649,-6.910856201652375],[106.1966638714406,-6.909805660402827],[106.1960228418807,-6.909476396118722],[106.1651899362666,-6.908574552373618],[106.1359115411847,-6.893196255102988],[106.1061216288101,-6.882933650567472],[106.0640504378775,-6.836312828973838],[106.0322488221255,-6.820773376789883],[105.9693399535761,-6.811555370783732],[105.9208976972709,-6.815554262019567],[105.8945477645677,-6.826681177094577],[105.9006015599141,-6.842777974224105],[105.8826747026755,-6.845621341851408],[105.8799518280145,-6.83145617875958],[105.8883975816831,-6.820752141997736],[105.8780902808418,-6.82229088291784],[105.8792117839967,-6.813677322050785],[105.8687061133964,-6.808901772698642],[105.8749774826248,-6.808636187609877],[105.8778003430115,-6.794757835405711],[105.8629688245517,-6.781258583416853],[105.8840335567033,-6.764497270932316],[105.8925098018859,-6.720810902101419],[105.9194510001636,-6.717643999770732],[105.9375070000481,-6.663603000577981],[105.9462182497725,-6.660209047309688],[105.9427820013884,-6.629524000132462],[105.928690313807,-6.616573721300138],[105.9333010012403,-6.601889000077214],[105.9662453117718,-6.554008509784896],[105.9751753998249,-6.552036536656728],[105.97515688818,-6.542290830057666],[105.9828054504112,-6.542062818644093],[105.9747387124217,-6.517293906688407],[105.9851423558352,-6.514986218439204],[105.9979244335658,-6.479334184125277],[106.0093929669119,-6.473606021600612],[106.023921000154,-6.429662000600781],[106.036352247858,-6.428387957138496],[106.0428481760025,-6.41133911880523],[106.055726734801,-6.414419170908018],[106.058593000067,-6.40499000138746],[106.0898170001545,-6.423620999909189],[106.1121427293035,-6.426708915683913],[106.1180709999767,-6.420465000059642],[106.1116690716704,-6.410969707885687],[106.1152135732478,-6.393311013192696],[106.1315379995791,-6.377459000732236],[106.1237907178674,-6.356474456630838],[106.129512354012,-6.357743814625286],[106.1321188923731,-6.346291499652938],[106.1301551444444,-6.326699868703915],[106.1515003427667,-6.325002512555836],[106.1564419995987,-6.298143999745757],[106.1701282557145,-6.290736277756962],[106.2082792218088,-6.292793288079749]]]]}},{"type":"Feature","properties":{"kode":"36.03","nama":"Kabupaten Tangerang","lat":-6.174464598725415,"lng":106.51892886777627},"geometry":{"type":"MultiPolygon","coordinates":[[[[106.6475782742181,-6.005791853011536],[106.6635260312015,-6.022332297397596],[106.6793184752675,-6.012756835159808],[106.709715862597,-6.036563148770283],[106.7148984154296,-6.044718537430497],[106.7086826305989,-6.055756722694542],[106.7250441449713,-6.089651080632822],[106.6757719996781,-6.098609000005321],[106.6725586653502,-6.119462408563229],[106.6413515086653,-6.122634400157415],[106.6427957020601,-6.108585606640363],[106.6357982732717,-6.106106019277283],[106.6320940008375,-6.1202260004295],[106.6140081335686,-6.126103864101998],[106.6133660374127,-6.147775503736489],[106.5903790187767,-6.148218542151954],[106.5920359998616,-6.158523000236275],[106.5514540061975,-6.190039464349776],[106.5526146469484,-6.199490201411598],[106.5829180002656,-6.220678001288674],[106.5923679998834,-6.219990000138313],[106.6011033982033,-6.205540368892829],[106.6125340853799,-6.215903923227443],[106.6116340007086,-6.227154001356076],[106.6386795832962,-6.230237077878779],[106.6519474720983,-6.269236666738712],[106.6462201189634,-6.27828253531069],[106.657529231289,-6.289840690595287],[106.6554761986677,-6.315779809390579],[106.6621623720959,-6.317285995752079],[106.6470141492836,-6.340426267857938],[106.6567130515662,-6.359632882851222],[106.5938646156596,-6.362724522718536],[106.5772943551505,-6.338565284560164],[106.5579555236286,-6.340609668401402],[106.5268395501052,-6.324617168347561],[106.5132982548107,-6.325706414619318],[106.5318834796389,-6.339636741342484],[106.5193257162089,-6.354865035293037],[106.4762694402826,-6.350747770792945],[106.4841673872152,-6.325322656815117],[106.4689593136215,-6.303281611656945],[106.4425186609075,-6.324075158641643],[106.4276926157217,-6.348456800940542],[106.410264928084,-6.34506349338542],[106.3993227517437,-6.316006988031989],[106.3919222630021,-6.313926079125202],[106.3988192339206,-6.300483589645881],[106.3827822372106,-6.26191793626372],[106.3871081075532,-6.23032032812059],[106.3664400924364,-6.2147782777952],[106.3792879789571,-6.200752118415468],[106.3737795522846,-6.191479535252301],[106.3907549402883,-6.17912184939378],[106.3925783795886,-6.151805282187953],[106.3772356792832,-6.128857472194475],[106.3507388063509,-6.109929438392817],[106.353531150942,-6.092441899074323],[106.3393862396833,-6.063178398564232],[106.3499987380514,-6.06248558244367],[106.3518755674036,-6.049804558833286],[106.3665239973846,-6.03846776267705],[106.3803823495658,-6.039107339831843],[106.3827540011963,-6.029757001284501],[106.3931124392877,-6.027651682978767],[106.4074785702798,-6.03090514235836],[106.4138813088754,-6.024238704552579],[106.4316062988917,-6.033070531779553],[106.4413406146777,-6.028043977147738],[106.4667385511433,-6.039552836094479],[106.4689982461722,-6.031204094992918],[106.4692396430952,-6.042443359673281],[106.4715715150135,-6.031640607028325],[106.4707139529866,-6.044697450127127],[106.4850711348251,-6.048668000128003],[106.5234274278336,-6.032924031318902],[106.5351754956527,-6.010459431557517],[106.5523307957296,-6.025266347264039],[106.5866783508253,-6.032488583181531],[106.6265934666153,-6.011448637244746],[106.632173586342,-6.016539079714692],[106.6475782742181,-6.005791853011536]]],[[[106.6437370566199,-6.003530122816851],[106.6435436061525,-6.006400108578073],[106.6333357190682,-6.014004866631221],[106.6330336655713,-6.006448179140093],[106.6437370566199,-6.003530122816851]]]]}},{"type":"Feature","properties":{"kode":"36.04","nama":"Kabupaten Serang","lat":-6.141738117820271,"lng":106.1460756084399},"geometry":{"type":"MultiPolygon","coordinates":[[[[105.8522656196626,-6.137891933765686],[105.8522049442029,-6.137849103553243],[105.8522549132338,-6.137777719865837],[105.8523084507745,-6.137827688896706],[105.8522656196626,-6.137891933765686]]],[[[105.8520550380096,-6.137631383081813],[105.8519907931407,-6.137599260197638],[105.8520157772064,-6.137538583838501],[105.8520800220754,-6.137577844641821],[105.8520550380096,-6.137631383081813]]],[[[106.1552968280862,-6.000495052104852],[106.1551668077021,-6.000932074055924],[106.1552904770739,-6.002904859271822],[106.1542675000451,-6.001315074630912],[106.1552968280862,-6.000495052104852]]],[[[106.1499591718784,-5.995589628058865],[106.1505362974123,-5.996281329919365],[106.1497270874352,-5.998359443733285],[106.1490872809533,-5.995850001576279],[106.1499591718784,-5.995589628058865]]],[[[106.1496977992141,-5.980636261354348],[106.1511247732897,-5.981224147276513],[106.1519044882017,-5.982866295842796],[106.1493590048143,-5.980982664918048],[106.1496977992141,-5.980636261354348]]],[[[106.1930349181271,-5.964844120359806],[106.1922556681646,-5.964668096055695],[106.1926625556325,-5.963718690764867],[106.1934906082051,-5.964061333363783],[106.1930349181271,-5.964844120359806]]],[[[106.3587681918986,-5.966074955894455],[106.3606027558126,-5.964618725973362],[106.3575108839202,-5.97329566925973],[106.3574845886429,-5.96297203762937],[106.3587681918986,-5.966074955894455]]],[[[106.3550821846951,-5.955533344787937],[106.3502095661186,-5.955775218351604],[106.3504660302832,-5.951535850199256],[106.3540222868991,-5.950969708085533],[106.3550821846951,-5.955533344787937]]],[[[106.114931508982,-5.947100919072116],[106.116759295605,-5.950413650969181],[106.1157416218784,-5.951751731557112],[106.1134577602675,-5.948188599624141],[106.114931508982,-5.947100919072116]]],[[[106.218069553667,-5.940668662029029],[106.2207588269584,-5.941226871223097],[106.2216323609448,-5.943242036091049],[106.2155152776081,-5.942854951694602],[106.218069553667,-5.940668662029029]]],[[[106.1697007234097,-5.937903812410975],[106.1703955252333,-5.938531989759514],[106.1702670336967,-5.939022158945376],[106.1694342228112,-5.938113205160248],[106.1697007234097,-5.937903812410975]]],[[[105.8568199537779,-5.937746950861004],[105.8661883228329,-5.967579090003009],[105.8509688881037,-5.980172376653829],[105.848733220262,-5.958402005847833],[105.829721465873,-5.950589192337289],[105.8568199537779,-5.937746950861004]]],[[[106.1507842378024,-5.919461821705666],[106.1691750921568,-5.934974558628951],[106.1571063872501,-5.944878320178296],[106.1396742173913,-5.935947489285168],[106.1391724694339,-5.921788935311038],[106.1507842378024,-5.919461821705666]]],[[[106.0927436153257,-5.899999688634664],[106.0940718420419,-5.900992841446477],[106.0944133928639,-5.902057457985314],[106.0940719481619,-5.902909445114783],[106.0927436153257,-5.899999688634664]]],[[[106.0907725199359,-5.899327052401463],[106.0908635825884,-5.899364075691497],[106.0908328752371,-5.899460068427302],[106.0907599986751,-5.899400065660457],[106.0907725199359,-5.899327052401463]]],[[[106.0912962419281,-5.899218200259674],[106.0912622988161,-5.899208227677447],[106.0912609462358,-5.899167193411151],[106.0913077172774,-5.899185251797848],[106.0912962419281,-5.899218200259674]]],[[[106.0910454210094,-5.899126749999509],[106.0911200449542,-5.899199118444524],[106.0909659650073,-5.899252462631014],[106.0910445783447,-5.899306190828017],[106.0910053993797,-5.899392642656291],[106.0909348862361,-5.899408396080545],[106.0909071043794,-5.899249502962149],[106.0910454210094,-5.899126749999509]]],[[[106.0912344018462,-5.899121427811663],[106.0912042547726,-5.899111084708756],[106.0912149746914,-5.899052796948982],[106.091269371984,-5.899078227078451],[106.0912344018462,-5.899121427811663]]],[[[106.0910495587902,-5.89893146041847],[106.0911460803274,-5.898956900440559],[106.0911505787363,-5.89899988443701],[106.0910665442857,-5.899022255072931],[106.0910495587902,-5.89893146041847]]],[[[106.0904429103121,-5.898938538982338],[106.0905530943499,-5.898928936021512],[106.0905399489596,-5.899009282352433],[106.090413465609,-5.899050714119162],[106.0904429103121,-5.898938538982338]]],[[[106.09079530426,-5.898713294782691],[106.0908619053527,-5.899105624924665],[106.0907743914251,-5.89932149369197],[106.0904726517916,-5.899178685847665],[106.09079530426,-5.898713294782691]]],[[[106.0909852069018,-5.898615193136595],[106.0910877718832,-5.898686958136582],[106.091095143626,-5.898746463578401],[106.0909008289102,-5.898757584594775],[106.0909852069018,-5.898615193136595]]],[[[106.0905953561908,-5.898474818857816],[106.0907472498858,-5.898616026808127],[106.0906844169523,-5.898795087223422],[106.0905770190143,-5.898691998836617],[106.0905953561908,-5.898474818857816]]],[[[106.0895145851301,-5.897171523147263],[106.0904195468247,-5.897903281711051],[106.0901400726064,-5.898467871594963],[106.0891187071626,-5.897340358270834],[106.0895145851301,-5.897171523147263]]],[[[106.0613534340138,-5.879542193117685],[106.0606784235705,-5.879925208081786],[106.0604692646449,-5.879821179004167],[106.0608257846823,-5.879197005437379],[106.0613534340138,-5.879542193117685]]],[[[106.0441500274019,-5.875502594968721],[106.0499632073362,-5.880245187765158],[106.0475357833498,-5.883993092607102],[106.0721599539188,-5.882323349243083],[106.1013529457819,-5.911654278222293],[106.1143343411569,-5.930958905828802],[106.1043067870287,-5.944310392910238],[106.1123993850237,-5.961155527605459],[106.1043537127537,-5.964395362256151],[106.1049877743664,-5.973645919223784],[106.1131471551172,-5.974377853155381],[106.1044416538593,-5.978400628586104],[106.1136500272271,-5.988946735403448],[106.1028224982597,-5.987248815380467],[106.1031369399179,-5.988394717142479],[106.101075634433,-5.987187210021697],[106.0999113019651,-5.988076236628962],[106.1107936607989,-5.99542202140915],[106.1229315055846,-5.98554029324985],[106.113386043831,-6.002880683696591],[106.1483435703995,-6.020333841033913],[106.1427075020496,-6.057673354241881],[106.1488846007438,-6.067554857570626],[106.1100672711877,-6.08575235408784],[106.0885128986514,-6.117244621941679],[106.0743495692773,-6.121732181395049],[106.0692157641962,-6.133421361606465],[106.0761726380568,-6.150065162377309],[106.065932498586,-6.174371176188823],[106.0757451030541,-6.182969995368896],[106.0864216709234,-6.173533794948653],[106.1025404088129,-6.17341926718538],[106.1113694562355,-6.181975149133815],[106.1220070816615,-6.167873431413699],[106.1495823325587,-6.169389584062016],[106.1512305902196,-6.179287561171946],[106.134881973924,-6.19239622500574],[106.1380389126657,-6.209292569796236],[106.192254973888,-6.217978967655195],[106.1998893358242,-6.198424279057217],[106.2284469818428,-6.194741206341607],[106.2195442700521,-6.186878162996815],[106.233001187355,-6.170815419595924],[106.2418616373048,-6.173998786714633],[106.2511616506897,-6.159141297632757],[106.2557407746171,-6.146234677288457],[106.242264806076,-6.130722389126912],[106.2223307969288,-6.12619520464495],[106.2301960382167,-6.099288293919595],[106.219242146408,-6.083401869800368],[106.2256578990928,-6.038743974155007],[106.2163940600379,-6.016224405132124],[106.2432118497471,-5.990588402832468],[106.2442468677988,-5.967024852215078],[106.2650470023173,-5.958894283044706],[106.3067513058282,-5.96861255582473],[106.3329215360001,-5.986468149885197],[106.3553603791782,-5.961842693285639],[106.3577095333683,-5.974432784645315],[106.3630520180363,-5.964242743707596],[106.3890931739109,-5.978154804300732],[106.4098665832762,-6.028753172620752],[106.3829430000195,-6.029657000270276],[106.3803823495658,-6.039107339831843],[106.3665239973846,-6.03846776267705],[106.3392794379957,-6.068133207981123],[106.3528292390782,-6.089557042123753],[106.3507388063509,-6.109929438392817],[106.3772356792832,-6.128857472194475],[106.3925783795886,-6.151805282187953],[106.3907549402883,-6.17912184939378],[106.3737795522846,-6.191479535252301],[106.3792879789571,-6.200752118415468],[106.3664400924364,-6.2147782777952],[106.3871081075532,-6.23032032812059],[106.3827822372106,-6.26191793626372],[106.3951342474476,-6.279893258866735],[106.39031244956,-6.281788705084671],[106.3989336771476,-6.302556855214706],[106.3919222630021,-6.313926079125202],[106.3993227517437,-6.316006988031989],[106.4009426600758,-6.330301855845891],[106.3195475649682,-6.335149188184434],[106.3084586201692,-6.320046760649482],[106.2804836556962,-6.311702473890061],[106.2771313653203,-6.301421774994846],[106.2596844528752,-6.310804348841596],[106.259301130343,-6.29994788958335],[106.2459542100189,-6.296990977151821],[106.2438412124021,-6.304640191391701],[106.234377693276,-6.302135268327883],[106.2224962973663,-6.31170736620195],[106.2137124939365,-6.292574760017081],[106.1718200387639,-6.291328888717177],[106.1797681831552,-6.271404903413539],[106.1745110432501,-6.250835223766486],[106.1349680957011,-6.257660240827415],[106.1226160000284,-6.248931000165462],[106.1096751892586,-6.252706427859315],[106.1048018952913,-6.239120413776059],[106.0855142199054,-6.227591340767694],[106.0658870846213,-6.263524141625768],[106.0269876496604,-6.275217007259019],[105.9948939997584,-6.273894000207906],[105.9923095559413,-6.265602250043737],[105.981436033846,-6.265158484976022],[105.9774087438185,-6.245745447694232],[105.9496380000936,-6.248290000283222],[105.9469780006343,-6.237450001316417],[105.9345343890509,-6.240269766236643],[105.9303030005831,-6.281040999742319],[105.9163639998988,-6.250014000645602],[105.8984996707234,-6.243555210004884],[105.8850901153167,-6.223480766324289],[105.877671173386,-6.239582209351439],[105.8409300735641,-6.239979736675475],[105.8268604211716,-6.247787344010617],[105.8561867177429,-6.14102346396164],[105.8801170793399,-6.109180642172855],[105.8848630266074,-6.06959955617448],[105.9225005922286,-6.046671346905067],[105.937614308054,-6.052565929873736],[105.9443347528466,-6.045892897339281],[105.9537281707186,-6.058070333878688],[105.972120359667,-6.049623172771116],[105.9865612126299,-6.062411925270154],[105.9848466101829,-6.037914467378672],[106.0032384573889,-6.046292583036265],[106.0296391118556,-6.040008724023308],[106.0202862327235,-6.078088621192882],[106.0363142299178,-6.080132886323567],[106.0498920008153,-6.075491001408543],[106.0659147108953,-6.044523226265833],[106.0850690006339,-6.035611999693983],[106.0880324178619,-6.002540675211935],[106.0642987667748,-5.993072857326424],[106.0578913615971,-5.958701701322403],[106.0314150732471,-5.933825389629969],[106.0448038606098,-5.911551420061904],[106.0441500274019,-5.875502594968721]]],[[[106.2703764513123,-5.807602668028692],[106.288983836335,-5.80882095082618],[106.2949848360814,-5.81100529705683],[106.2862760091306,-5.816982503439742],[106.254291294108,-5.8107863867823],[106.2703764513123,-5.807602668028692]]]]}},{"type":"Feature","properties":{"kode":"36.71","nama":"Kota Tangerang","lat":-6.1843711090906055,"lng":106.65199394470586},"geometry":{"type":"MultiPolygon","coordinates":[[[[106.6886261194,-6.103643441691434],[106.6968869679592,-6.110590307896383],[106.6858047231095,-6.128427215843305],[106.6868114296038,-6.172372014756603],[106.7243695527128,-6.184962643910889],[106.7134400936854,-6.191766391106039],[106.72471264857,-6.19395183900611],[106.7180894870402,-6.223044397281078],[106.7433080923946,-6.227564120088029],[106.7472313641362,-6.251472193786682],[106.7040109637351,-6.256101132061501],[106.687103407996,-6.238568587070573],[106.6881135588937,-6.230242127572065],[106.6118639996239,-6.227262000041182],[106.6125340853799,-6.215903923227443],[106.6011033982033,-6.205540368892829],[106.5881220001303,-6.22250600015171],[106.5526146469484,-6.199490201411598],[106.5526480001052,-6.184794000342801],[106.5792210006488,-6.172038000253436],[106.5920359998616,-6.158523000236275],[106.5903790187767,-6.148218542151954],[106.6133660374127,-6.147775503736489],[106.6140081335686,-6.126103864101998],[106.6320940008375,-6.1202260004295],[106.6357982732717,-6.106106019277283],[106.6427957020601,-6.108585606640363],[106.6446373553297,-6.122657727671913],[106.6725586653502,-6.119462408563229],[106.6757719996781,-6.098609000005321],[106.6879927916341,-6.097068797686837],[106.6886261194,-6.103643441691434]]]]}},{"type":"Feature","properties":{"kode":"36.72","nama":"Kota Cilegon","lat":-5.998895625700708,"lng":106.01849218045317},"geometry":{"type":"MultiPolygon","coordinates":[[[[105.9281216778732,-6.008282344654407],[105.9274324068801,-6.00785982607002],[105.9276849419066,-6.00728661798298],[105.9285584147391,-6.007735730419554],[105.9281216778732,-6.008282344654407]]],[[[105.9977218315973,-5.941398918725119],[105.997474675416,-5.942134546172343],[105.9963179431187,-5.94215377727492],[105.9972111443788,-5.941569716169396],[105.9977218315973,-5.941398918725119]]],[[[105.9888369191886,-5.930679797634556],[105.9937110378342,-5.933245440224847],[105.9876292079217,-5.937239192734526],[105.9854204370036,-5.93173155386804],[105.9888369191886,-5.930679797634556]]],[[[106.0105887675576,-5.901493796201666],[106.0114444149279,-5.90182478358681],[106.0118247022482,-5.902879215303506],[106.0104033777138,-5.901947721809878],[106.0105887675576,-5.901493796201666]]],[[[105.9314778173474,-5.903096014869184],[105.930099830243,-5.901483756170371],[105.9311011686841,-5.900681583388304],[105.9322000619834,-5.901500593277723],[105.9314778173474,-5.903096014869184]]],[[[106.0412280050684,-5.876998826734407],[106.0448269507033,-5.911434733925772],[106.0314150732471,-5.933825389629969],[106.0578913615971,-5.958701701322403],[106.0642987667748,-5.993072857326424],[106.0880324178619,-6.002540675211935],[106.0850690006339,-6.035611999693983],[106.0640397089655,-6.046490334061597],[106.0497419992939,-6.075622000255069],[106.0334300960222,-6.080545581613243],[106.0202862327235,-6.078088621192882],[106.0296391118556,-6.040008724023308],[106.0032384573889,-6.046292583036265],[105.9848466101829,-6.037914467378672],[105.9865612126299,-6.062411925270154],[105.972120359667,-6.049623172771116],[105.9537281707186,-6.058070333878688],[105.9443347528466,-6.045892897339281],[105.9381122186041,-6.052504694136277],[105.9245235811984,-6.048442870142327],[105.9419449780783,-6.021289661188848],[105.9697717405734,-6.011070020864721],[105.971398469364,-6.000240300249597],[105.9937730343981,-5.980997285196547],[106.0026617212615,-5.947572582009001],[105.9917400521617,-5.922927616416266],[106.0038450051429,-5.920780142389574],[106.0011873709005,-5.913121195686592],[106.0185938093569,-5.901559694923967],[106.0159290120143,-5.89410088065108],[106.0412280050684,-5.876998826734407]]]]}},{"type":"Feature","properties":{"kode":"36.73","nama":"Kota Serang","lat":-6.12332358762211,"lng":106.1667505708747},"geometry":{"type":"MultiPolygon","coordinates":[[[[106.1949663147437,-6.016792930449347],[106.2163940600379,-6.016224405132124],[106.2251998402005,-6.034279130677315],[106.219242146408,-6.083401869800368],[106.230196994196,-6.099707646890344],[106.2225066575562,-6.126799022057198],[106.2411036077454,-6.129594732810587],[106.2557407746171,-6.146234677288457],[106.2418616373048,-6.173998786714633],[106.233001187355,-6.170815419595924],[106.2195442700521,-6.186878162996815],[106.2295936866993,-6.193553728022109],[106.2002487417861,-6.198224440705306],[106.1922999822584,-6.217943962443843],[106.1753684218153,-6.218874294912683],[106.1581988593899,-6.214841563087673],[106.1572560659148,-6.207445908202017],[106.1376720594181,-6.208947513416944],[106.134881973924,-6.19239622500574],[106.1512305902196,-6.179287561171946],[106.1495823325587,-6.169389584062016],[106.1220070816615,-6.167873431413699],[106.1113694562355,-6.181975149133815],[106.1025404088129,-6.17341926718538],[106.0864216709234,-6.173533794948653],[106.0757451030541,-6.182969995368896],[106.0669984092492,-6.176666382747324],[106.0761726380568,-6.150065162377309],[106.0692157641962,-6.133421361606465],[106.0743495692772,-6.121732181395049],[106.0885128986513,-6.117244621941679],[106.1100672711877,-6.08575235408784],[106.1488846007438,-6.067554857570626],[106.1427075020496,-6.057673354241881],[106.1483435703995,-6.020333841033913],[106.1815914192087,-6.027100608106543],[106.1949663147437,-6.016792930449347]]]]}},{"type":"Feature","properties":{"kode":"36.74","nama":"Kota Tangerang Selatan","lat":-6.3021200760979115,"lng":106.70738498604467},"geometry":{"type":"MultiPolygon","coordinates":[[[[106.6614958206757,-6.231290452892039],[106.6917443306364,-6.231941018862911],[106.687103407996,-6.238568587070573],[106.7040109637351,-6.256101132061501],[106.7068031410522,-6.250817863253725],[106.753565795625,-6.251638314756373],[106.7515262978005,-6.274537278972207],[106.7621977386348,-6.27784482357974],[106.7601106900564,-6.286440475347614],[106.7798632160147,-6.316520980258992],[106.7698950000543,-6.36123399984914],[106.6509839123777,-6.362190373087166],[106.6570326085681,-6.358434145019735],[106.6470141492836,-6.340426267857938],[106.6621623720959,-6.317285995752079],[106.6554761986677,-6.315779809390579],[106.657529231289,-6.289840690595287],[106.6466455036871,-6.279465651018937],[106.6519474720983,-6.269236666738712],[106.6367066290078,-6.236532342093851],[106.6383250246803,-6.229894257214123],[106.6614958206757,-6.231290452892039]]]]}}]}