{"type":"FeatureCollection","features":[{"type":"Feature","properties":{"kode":"75.01","nama":"Kabupaten Gorontalo","lat":0.6928993446697708,"lng":122.7125178411949},"geometry":{"type":"MultiPolygon","coordinates":[[[[122.2790300216183,0.910322625388924],[122.3238334653422,0.926057457985349],[122.332977295266,0.91741085063026],[122.3516998285843,0.921002386750766],[122.3582763665611,0.908990026168796],[122.41752624534,0.884931743205383],[122.4561516370884,0.888766975815278],[122.4934227586535,0.871635979916549],[122.5069774610411,0.886702446260943],[122.535418352575,0.87020569004059],[122.5794601442704,0.875118196247834],[122.5958671040836,0.863028699914567],[122.5996170036219,0.843391120803647],[122.607044142873,0.851967248289951],[122.6435022557246,0.847591382836052],[122.6784502332917,0.824062995710692],[122.6853096701052,0.806310116818507],[122.6973223841208,0.806139640432077],[122.7151990843703,0.786839730669106],[122.7479171749377,0.776275575357507],[122.7558822643551,0.764499306597807],[122.7800002802888,0.770899789693599],[122.7850419417323,0.760192089993003],[122.8086399336861,0.762754072342561],[122.824166665859,0.745833333441601],[122.8488787793322,0.761834145929116],[122.8805365970863,0.760262991643776],[122.8801115639975,0.75061385064876],[122.8909213718239,0.751154229883896],[122.9069404873137,0.731204462815713],[122.9058180668503,0.702951910002733],[122.9206587898714,0.691715245262367],[122.9285287759823,0.696041235214848],[122.9300589922287,0.71193452655722],[122.952677939935,0.712212263285414],[122.9760776763437,0.726335394762698],[122.9749999998502,0.746666666833315],[123.0057952283671,0.782895909418732],[123.0376988901917,0.782519482887897],[123.070064156036,0.802990216425334],[123.0807011960035,0.695501697745213],[123.0782345525826,0.674416112113915],[123.0601014151482,0.65932510417028],[123.0559735008764,0.629462059826233],[123.0606275356323,0.613794516303942],[123.074545048815,0.608768450903272],[123.0599424770637,0.587728327800116],[123.0269770684371,0.563582618143352],[123.0306295408208,0.546783624065059],[123.006112453427,0.556115993258485],[122.9950361162239,0.551626448102136],[123.0046420447946,0.530160030161328],[123.0376220817938,0.50916166887591],[123.0406431095919,0.496041528793542],[123.0179426572279,0.496656117385916],[123.0102759808519,0.489062217747202],[123.0002867558291,0.495469347732255],[122.9888454476594,0.484736961641483],[122.9614223080931,0.493266378340726],[122.9291462693849,0.485941500100148],[122.9020358807513,0.492681727279917],[122.8880263777153,0.485769088372765],[122.8222394843648,0.497551182940834],[122.8154840451527,0.488901858733845],[122.7860654340726,0.494546297074036],[122.770395625158,0.483444965013222],[122.7219542304035,0.485113022148306],[122.6922037757837,0.473288993092622],[122.6848879528168,0.504247901819285],[122.650205994711,0.514959527959855],[122.6368406625665,0.534369254837339],[122.6295170820478,0.533531012945973],[122.639192786318,0.566014416432223],[122.6277543829584,0.583248471939532],[122.6312493912465,0.589185130589362],[122.6112506300126,0.607471746324093],[122.6037579976336,0.640648055863144],[122.5951741323804,0.639019658830284],[122.600761241638,0.649384870615341],[122.5882297114321,0.653237728138675],[122.5853517558789,0.662549010028821],[122.579502852175,0.655534957272527],[122.5778853450326,0.662380816121841],[122.5689686667706,0.659818781611518],[122.566874675426,0.676885688224013],[122.5434751998207,0.69294520935401],[122.5436884992249,0.700293868367405],[122.5068310514119,0.708739802799682],[122.4932277379698,0.727624421829651],[122.5014066268144,0.735811719335386],[122.493321419448,0.740358783331294],[122.4896839495547,0.734709292599797],[122.4859498816818,0.74208137265723],[122.4822888936176,0.734301513004462],[122.4718238786692,0.755364549034729],[122.4501381223765,0.753662343742276],[122.4427890442791,0.765749362443133],[122.4308774464371,0.755072106592467],[122.4106170688227,0.764332782731822],[122.4089297536053,0.757390989602522],[122.3988949212637,0.760357710939649],[122.3818668087062,0.780581452871784],[122.3595625265893,0.782564796128524],[122.3412513917385,0.79503264713898],[122.3174730857144,0.796177685551777],[122.2829265601127,0.779344915635447],[122.2572915551612,0.794132684775592],[122.251276366811,0.790924217578601],[122.2450899772207,0.813805517310781],[122.2545725997458,0.839155140397471],[122.2641779941193,0.844087723070006],[122.2476028583852,0.853658772334517],[122.2554002386301,0.863090942892805],[122.2481131292176,0.91382101692645],[122.2617492670151,0.929188251636523],[122.2790300216183,0.910322625388924]]]]}},{"type":"Feature","properties":{"kode":"75.02","nama":"Kabupaten Boalemo","lat":0.6529067801725993,"lng":122.32708525079249},"geometry":{"type":"MultiPolygon","coordinates":[[[[122.1213867288146,0.405530269606322],[122.1210787721676,0.40520592911035],[122.1171994898647,0.405841906279056],[122.1190370449237,0.408475918928561],[122.1213867288146,0.405530269606322]]],[[[122.2306292528379,0.43415011363683],[122.2319398870162,0.43085914443399],[122.2253364719007,0.431675260305051],[122.2262620847275,0.434151121776891],[122.2306292528379,0.43415011363683]]],[[[122.2929345036244,0.449228721728121],[122.2911186294212,0.450238445447956],[122.2930896996299,0.451628288314884],[122.2932568062567,0.449805637720077],[122.2929345036244,0.449228721728121]]],[[[122.3032019150365,0.452423991374149],[122.3018842265759,0.452896405244926],[122.3014961142543,0.456372489998477],[122.3039573977157,0.453276492016494],[122.3032019150365,0.452423991374149]]],[[[122.1476770751369,0.462205411850311],[122.1474037432882,0.461590434750844],[122.1468125145859,0.46160528975234],[122.1468541091299,0.462175702746512],[122.1476770751369,0.462205411850311]]],[[[122.3328162653585,0.45899658132724],[122.3325142568276,0.455512881114581],[122.3310906219347,0.454325451358548],[122.3284337080493,0.460231383771356],[122.3328162653585,0.45899658132724]]],[[[122.3499686965981,0.467741158127952],[122.3509876491608,0.464560660745958],[122.3469930818653,0.464525215766118],[122.3468486858182,0.466695971441952],[122.3499686965981,0.467741158127952]]],[[[122.365808749874,0.474955718331779],[122.3644621581021,0.471007963446832],[122.3556249286476,0.467683295747554],[122.3618938103511,0.474660068907104],[122.365808749874,0.474955718331779]]],[[[122.3460655139124,0.476824862077782],[122.3461195361878,0.477829088241874],[122.3468475256928,0.478345635442798],[122.346912474731,0.477544057112597],[122.3460655139124,0.476824862077782]]],[[[122.1333142590459,0.478233340696141],[122.1327448730775,0.47848077386867],[122.1328062149349,0.479454522008568],[122.1335452103433,0.479368440701064],[122.1333142590459,0.478233340696141]]],[[[122.1281227894352,0.48047811327436],[122.1315888926134,0.479199669429262],[122.1259365438364,0.477088962385805],[122.1251210691822,0.481726162732274],[122.1281227894352,0.48047811327436]]],[[[122.3262483959468,0.484547596794213],[122.3257876507795,0.484647462910123],[122.32579993372,0.484845487329475],[122.3262880452571,0.484902168000742],[122.3262483959468,0.484547596794213]]],[[[122.3441134193988,0.485776159742032],[122.3445266848587,0.48506407924391],[122.3438849700154,0.484783785743145],[122.3431806956327,0.485390750782619],[122.3441134193988,0.485776159742032]]],[[[122.3261730759268,0.487220530303231],[122.3258940549668,0.488318985632683],[122.3267209609037,0.488673734904951],[122.326731902955,0.487990676428682],[122.3261730759268,0.487220530303231]]],[[[122.3485532734149,0.489760097050882],[122.3479942089656,0.490378023926683],[122.3489620152849,0.491155449164735],[122.3489965033859,0.490984161589855],[122.3485532734149,0.489760097050882]]],[[[122.3495798980939,0.492453023388359],[122.3495006228556,0.492601606678919],[122.3496718483772,0.492897045662152],[122.3496656133774,0.492620350348913],[122.3495798980939,0.492453023388359]]],[[[122.5714136796976,0.494883068898597],[122.5749242111835,0.494831493678502],[122.5764738815645,0.493431376057194],[122.5725705280076,0.493373718722198],[122.5714136796976,0.494883068898597]]],[[[122.3673625778208,0.500193085342657],[122.3677369233204,0.499958384771679],[122.3668099723024,0.500246559930881],[122.3671991728037,0.500436697295845],[122.3673625778208,0.500193085342657]]],[[[122.3859382032855,0.500774608561391],[122.3870279279966,0.499663648158874],[122.3857502440785,0.498699484993301],[122.3849076413747,0.49990941308897],[122.3859382032855,0.500774608561391]]],[[[122.5308964740931,0.500359055226271],[122.5359048570237,0.496007504742588],[122.5288667995632,0.488409044641733],[122.5212810720639,0.496561434962326],[122.5308964740931,0.500359055226271]]],[[[122.4386964032165,0.500240709840869],[122.4384178067364,0.500994850731848],[122.4391776187522,0.501100203611513],[122.4392043214224,0.500857407343533],[122.4386964032165,0.500240709840869]]],[[[122.4455635966827,0.501170196047804],[122.45063793859,0.501597123108796],[122.4520546010391,0.496236842656225],[122.4436774908236,0.494559634919264],[122.4397097979688,0.499750130564111],[122.4455635966827,0.501170196047804]]],[[[122.2483076139054,0.911226256086836],[122.2554002386301,0.863090942892805],[122.2476028583852,0.853658772334517],[122.2641779941193,0.844087723070006],[122.2545725997458,0.839155140397471],[122.2450899772207,0.813805517310781],[122.2514904000619,0.790732771700073],[122.2572915551612,0.794132684775592],[122.2829265601127,0.779344915635447],[122.3174730857144,0.796177685551777],[122.3412513917385,0.79503264713898],[122.3595625265893,0.782564796128524],[122.381486326233,0.780796823414695],[122.4077883871245,0.757462643985926],[122.4106170688227,0.764332782731822],[122.4308774464371,0.755072106592467],[122.4427890442791,0.765749362443133],[122.4501381223765,0.753662343742276],[122.4661880189619,0.758260189755974],[122.4819084138422,0.734516899735224],[122.4859498816818,0.74208137265723],[122.4896839495547,0.734709292599797],[122.493321419448,0.740358783331294],[122.5020724839581,0.735285183364562],[122.4932277379698,0.727624421829651],[122.5068310514119,0.708739802799682],[122.5436884992249,0.700293868367405],[122.5434751998207,0.69294520935401],[122.566874675426,0.676885688224013],[122.5689686667706,0.659818781611518],[122.5778853450326,0.662380816121841],[122.579502852175,0.655534957272527],[122.5853517558789,0.662549010028821],[122.5882297114321,0.653237728138675],[122.600761241638,0.649384870615341],[122.5951741323804,0.639019658830284],[122.6037579976336,0.640648055863144],[122.6112506300126,0.607471746324093],[122.6312493912465,0.589185130589362],[122.6277543829584,0.583248471939532],[122.639192786318,0.566014416432223],[122.6290176579387,0.534967214965063],[122.6462335867108,0.523813479408572],[122.6554771073827,0.494842930356951],[122.6436591901196,0.47621873340786],[122.6178541809258,0.489693950115752],[122.6195045762753,0.497745709896622],[122.6090651209586,0.487828427939638],[122.592198192093,0.495536368808411],[122.605294304089,0.505284356088184],[122.6019578273918,0.510140198711293],[122.5852389736997,0.51113129387412],[122.5949384272667,0.503349563631536],[122.5782228300196,0.493089431332214],[122.5755736691896,0.49568339087582],[122.5645920278999,0.495582745047704],[122.560451452073,0.500244858413554],[122.5698855121068,0.508668033702905],[122.5664136020062,0.514048843879086],[122.5523531982416,0.514212148172108],[122.5578440278797,0.500481337843459],[122.545693038603,0.490293102744507],[122.5440932229239,0.508075752793788],[122.5198099538663,0.501773317384766],[122.5146950858096,0.511318162203464],[122.5164966985638,0.497509504759838],[122.5055871451307,0.506068986694361],[122.5123648407648,0.513331696600547],[122.4925053071743,0.501041290822998],[122.4766283007556,0.506902247240967],[122.4757203650028,0.502557629630937],[122.4623722710635,0.501718652993441],[122.4694907791762,0.505818468847272],[122.4497672140857,0.507841122369898],[122.446962784405,0.516518112420991],[122.4406115032184,0.51149522612379],[122.4473140721867,0.506437600814655],[122.4360005172101,0.499801838883782],[122.4136199986641,0.501877892350874],[122.415743074983,0.513103856957484],[122.4063214489757,0.509087229292257],[122.4073910081885,0.518573834015276],[122.3893356549166,0.521321616299561],[122.3883765927056,0.513217068113223],[122.378861778948,0.518698382924063],[122.3659825636445,0.502097177642666],[122.3546816270555,0.50977369979652],[122.3477384031049,0.502437449628632],[122.352794361071,0.496631938213385],[122.3532221838568,0.495241564746449],[122.3521229164395,0.493060935413878],[122.3380643571844,0.492556240378248],[122.3408059926026,0.503725575574896],[122.3343993365602,0.501315596637506],[122.3326998517168,0.509620198113689],[122.3239782337085,0.492569872301837],[122.3179076983816,0.508442213037805],[122.3160310830681,0.4900410551506],[122.2856360168887,0.487073707885363],[122.2934403677787,0.481076392661459],[122.2798332034397,0.480618875160951],[122.2813882014044,0.474998285942194],[122.275768881129,0.479899920245172],[122.2689767351883,0.474142208696035],[122.2558924061098,0.485838352358156],[122.2338005834302,0.479710971783939],[122.233377551333,0.487325959625393],[122.2284171760119,0.480046088855987],[122.2199612833866,0.484262773408359],[122.2016711908728,0.474064436224817],[122.1904058881213,0.479709698343919],[122.1483870143493,0.462948830124452],[122.1478132405887,0.480515332616546],[122.1209490764388,0.494698941702795],[122.1268453249519,0.666984473554619],[122.1104802519622,0.736483146879793],[122.1013472363859,0.901812310289893],[122.1813531541248,0.911738963182637],[122.2007340136638,0.898209019131022],[122.2483076139054,0.911226256086836]]]]}},{"type":"Feature","properties":{"kode":"75.03","nama":"Kabupaten Bone Bolango","lat":0.532367782660029,"lng":123.29231311944298},"geometry":{"type":"MultiPolygon","coordinates":[[[[123.101646631287,0.794995753351399],[123.1240594921519,0.788105518355062],[123.1337490243981,0.765939650894174],[123.1594932996761,0.773987370920468],[123.1670644932318,0.751925958816033],[123.2151770149073,0.762044684414695],[123.2475636252611,0.749225882868229],[123.2471450187277,0.716973866850543],[123.2736480277343,0.698161197181532],[123.3223930012361,0.698537078723247],[123.3594483070938,0.651365205639751],[123.3842332926325,0.639687638373873],[123.4289896298676,0.64143741600404],[123.4861649939194,0.626511947168693],[123.4921934139949,0.61913059420162],[123.4875088022894,0.601570579418739],[123.5091121833806,0.584424617002563],[123.5331666667084,0.577436111287552],[123.526111767644,0.541812800420447],[123.5522945550497,0.510714059706105],[123.5447405358472,0.495838381835886],[123.5227596679244,0.49005933027397],[123.5230893845675,0.463381095561141],[123.550205855316,0.433809574552344],[123.4979037906274,0.382130585358295],[123.4937011453916,0.356775985423427],[123.4803421129982,0.353735719328016],[123.4817114549197,0.321380092417398],[123.4691388068105,0.322928403023434],[123.4591293704242,0.337654945419461],[123.4349217874107,0.316719303752874],[123.4157985809399,0.311797417616797],[123.3589012243121,0.314007828898275],[123.345236285726,0.306281391672966],[123.2675528986474,0.322279730125461],[123.2279885913005,0.34872215000725],[123.194628532281,0.393657749105911],[123.1564670459175,0.403734151709775],[123.1215771420715,0.456437698940723],[123.0866951486622,0.478131258650746],[123.0999400004307,0.502330000429227],[123.0865238556914,0.509690694170237],[123.0889655231404,0.520466942895156],[123.0794933543349,0.528109757559323],[123.0909601789691,0.580327675381939],[123.0620083331181,0.590130556380172],[123.0746805982311,0.609468626176144],[123.0606275356323,0.613794516303942],[123.056178593967,0.641220989656974],[123.0658304140425,0.669760125829219],[123.0782345525826,0.674416112113915],[123.0807011960035,0.695501697745213],[123.070064156036,0.802990216425334],[123.0833358129975,0.805565426902996],[123.101646631287,0.794995753351399]]]]}},{"type":"Feature","properties":{"kode":"75.04","nama":"Kabupaten Pohuwato","lat":0.6883469300590475,"lng":121.70982881139754},"geometry":{"type":"MultiPolygon","coordinates":[[[[121.4238408253939,0.411533918755344],[121.4197567512731,0.412633470358445],[121.4192192372781,0.413780927048199],[121.4255482386603,0.414278983288538],[121.4238408253939,0.411533918755344]]],[[[121.9541170190852,0.41623625519904],[121.9530291487763,0.416163318382454],[121.9526894001957,0.417176653779647],[121.9545314716502,0.417140374228994],[121.9541170190852,0.41623625519904]]],[[[121.4429183795796,0.415275382652888],[121.4422994427652,0.418339683129984],[121.4474136561154,0.418434398828468],[121.4457371165747,0.416005010722673],[121.4429183795796,0.415275382652888]]],[[[121.7179738788915,0.430734665672292],[121.7179380130289,0.430133951820475],[121.7165856296232,0.430408745966846],[121.7178514982482,0.431270201158915],[121.7179738788915,0.430734665672292]]],[[[121.9702458356768,0.447171258147103],[121.971631227799,0.443684091048022],[121.9655734970193,0.443534454651415],[121.9658401379121,0.445185653994804],[121.9702458356768,0.447171258147103]]],[[[121.9828940718041,0.448253525679762],[121.9843809353319,0.447150706839691],[121.9830516698987,0.44386390239721],[121.9808171226121,0.447800353703462],[121.9828940718041,0.448253525679762]]],[[[121.6673156966622,0.455206756386792],[121.6656735166196,0.457824108196034],[121.6661200560958,0.458812838142039],[121.6688505381219,0.456948238670327],[121.6673156966622,0.455206756386792]]],[[[121.4374671506885,0.473661325010186],[121.4387091567023,0.473213525583757],[121.4382785801923,0.470665346928298],[121.43536003194,0.470429050060625],[121.4374671506885,0.473661325010186]]],[[[122.1044946288241,0.478028799789351],[122.1128676093528,0.475617946710935],[122.1130207351189,0.472753709416216],[122.1015533663948,0.474070706298077],[122.1044946288241,0.478028799789351]]],[[[121.701357775441,0.479053005292071],[121.700769959666,0.47904480617291],[121.7008065072146,0.479487844588375],[121.701341492316,0.479449886003477],[121.701357775441,0.479053005292071]]],[[[122.1148689471443,0.482763063964262],[122.1149566139567,0.482344687657241],[122.1143691947826,0.482039301272794],[122.1143893252073,0.482722294098645],[122.1148689471443,0.482763063964262]]],[[[122.1119278402977,0.482379959967203],[122.1113959956287,0.482720136625067],[122.1114393591391,0.483129477443464],[122.1119287441163,0.482749046231598],[122.1119278402977,0.482379959967203]]],[[[122.1113357743266,0.483315209929033],[122.1110722100145,0.483648578719029],[122.1110549691116,0.48410993272727],[122.1115046634095,0.484037904225973],[122.1113357743266,0.483315209929033]]],[[[121.4127118733543,0.484229841134296],[121.4133728049111,0.48399580696101],[121.4132970298341,0.483605620802782],[121.4125479278447,0.483662954381911],[121.4127118733543,0.484229841134296]]],[[[121.6357834350575,0.485855983566827],[121.6384751293239,0.484067482028669],[121.634563378797,0.481930209011969],[121.6332858909313,0.485035444829959],[121.6357834350575,0.485855983566827]]],[[[121.5128777126364,0.486003720595216],[121.5126834743629,0.483883499623891],[121.5102557383117,0.483598812035632],[121.5107192668808,0.48615106102263],[121.5128777126364,0.486003720595216]]],[[[121.7158449317982,0.486567859918827],[121.7155147618967,0.486453828581388],[121.7145932553746,0.487067809232064],[121.7159925060493,0.487758213370901],[121.7158449317982,0.486567859918827]]],[[[122.1224384652631,0.487475079811103],[122.1183006701399,0.485465141802896],[122.1165775187376,0.486134337229968],[122.119462606814,0.490289197888247],[122.1224384652631,0.487475079811103]]],[[[121.5186362848367,0.490498347820553],[121.5243019309894,0.487787407163173],[121.5243725457565,0.480556216696046],[121.5142987952532,0.486590916737415],[121.5186362848367,0.490498347820553]]],[[[121.6365168222936,0.48849489572291],[121.6339562743626,0.490448294253484],[121.6340557960382,0.491331042693519],[121.6380175299851,0.490287814730925],[121.6365168222936,0.48849489572291]]],[[[121.6700046381036,0.490072346161893],[121.6679358358702,0.491168474945189],[121.6675563138729,0.493663780658979],[121.6688010430338,0.492998585416446],[121.6700046381036,0.490072346161893]]],[[[121.7313084865974,0.50102820838511],[121.7309691202288,0.501543349046349],[121.7317151663219,0.501843067903371],[121.7318359686551,0.501601406579708],[121.7313084865974,0.50102820838511]]],[[[121.6589848898409,0.501101984269178],[121.6596521517255,0.499896628326743],[121.6546493337997,0.500836257087675],[121.6569330506199,0.50341847778059],[121.6589848898409,0.501101984269178]]],[[[121.6696299490629,0.50466848326389],[121.6685970678005,0.504960780016026],[121.6683987232226,0.506106848152596],[121.6699810713694,0.505631181433872],[121.6696299490629,0.50466848326389]]],[[[121.6324342581346,0.50538437508891],[121.6283921787561,0.504277893310176],[121.6275187976545,0.508114105281818],[121.6321748423951,0.50853911498818],[121.6324342581346,0.50538437508891]]],[[[121.6422826070567,0.506062278651351],[121.6404095764409,0.505731930684059],[121.6388158725546,0.510143978561858],[121.6424474446938,0.508354614573856],[121.6422826070567,0.506062278651351]]],[[[121.7141276916398,0.510069849244152],[121.7136417573613,0.510254992673806],[121.7136646846775,0.510621139953679],[121.7142210205837,0.510640066186172],[121.7141276916398,0.510069849244152]]],[[[121.6481457416328,0.508723397766639],[121.6484973153988,0.504792976414789],[121.6434346889598,0.509977091369704],[121.646205986717,0.511230920770364],[121.6481457416328,0.508723397766639]]],[[[121.6587151912531,0.512368144973971],[121.6621972969678,0.51052373438287],[121.6621346663818,0.507510708752276],[121.6587317909394,0.508569327712324],[121.6587151912531,0.512368144973971]]],[[[121.6948781888774,0.512504465109062],[121.7070872338888,0.498949606239327],[121.706919649722,0.484520321255852],[121.6900104005596,0.486758383092953],[121.6808512533827,0.496709585678909],[121.6841890044191,0.510060862318992],[121.6948781888774,0.512504465109062]]],[[[121.6763278010873,0.506274863094555],[121.6729660813197,0.509866068264506],[121.6769440471302,0.515567335664022],[121.6820915560806,0.510341183698701],[121.6763278010873,0.506274863094555]]],[[[121.6624187694107,0.513902999024227],[121.6608474001875,0.514552448037106],[121.6605280005669,0.515818654807118],[121.6628712147349,0.515725084844851],[121.6624187694107,0.513902999024227]]],[[[121.6178672545703,0.516180922411744],[121.6213156060304,0.514267451981373],[121.6215017611974,0.512273143291006],[121.6174598967569,0.512767035670178],[121.6178672545703,0.516180922411744]]],[[[121.7204357019461,0.520383170147218],[121.7208167716767,0.51982752132311],[121.7192285077895,0.518542078953852],[121.7193862776546,0.520343880565674],[121.7204357019461,0.520383170147218]]],[[[121.521468152833,0.521621092339617],[121.5230400841326,0.520467892579221],[121.5235129557584,0.518909981710378],[121.520926704304,0.51928456642962],[121.521468152833,0.521621092339617]]],[[[121.6463305338272,0.524180228334911],[121.644261995095,0.523838247637018],[121.6450837011519,0.526453448268091],[121.6466780435569,0.525919793263904],[121.6463305338272,0.524180228334911]]],[[[121.5327492377871,0.532473334676739],[121.5330272119363,0.532343670424071],[121.5326318762601,0.531911147781303],[121.5323563563608,0.532342243199954],[121.5327492377871,0.532473334676739]]],[[[121.525627659389,0.536441488883652],[121.5268143373118,0.534985509873406],[121.5235859303465,0.531480773618862],[121.5212100294194,0.53451611142947],[121.525627659389,0.536441488883652]]],[[[121.6533413769031,0.536528170039061],[121.6526023230389,0.537248695171153],[121.6528940217418,0.537803023790604],[121.6536028341036,0.537331404920424],[121.6533413769031,0.536528170039061]]],[[[121.5250534800341,0.538474234598338],[121.5250564154213,0.536800472164087],[121.5232724761439,0.536890345912797],[121.5234479032982,0.537664940984348],[121.5250534800341,0.538474234598338]]],[[[121.6412187576397,0.539928322334246],[121.6400690058799,0.538682058929949],[121.6393787672164,0.539681890107177],[121.6401405190698,0.540318811563997],[121.6412187576397,0.539928322334246]]],[[[121.5243424670313,0.54256560581811],[121.5256011230934,0.541285161880742],[121.527517813996,0.540792146340527],[121.5240613182753,0.540145204637563],[121.5243424670313,0.54256560581811]]],[[[121.526082986141,0.544373335760914],[121.5279011383269,0.543893024043848],[121.528118536841,0.543481001447097],[121.5260275807084,0.543631834841316],[121.526082986141,0.544373335760914]]],[[[121.5249636269699,0.544357801771175],[121.5254791327559,0.544195132399425],[121.5253593376634,0.543233577267818],[121.5246038091185,0.543333873259686],[121.5249636269699,0.544357801771175]]],[[[121.5251781656399,0.545329546221682],[121.5258541644382,0.544983768586091],[121.5256319239742,0.544500413563329],[121.5249736993768,0.544501527823302],[121.5251781656399,0.545329546221682]]],[[[121.8530363435525,0.993038163580382],[121.8880679176004,0.977896478839499],[121.9226252809321,0.927382166553789],[121.9393606560696,0.927286747585329],[121.9547657819154,0.907279462577224],[121.9831545874143,0.906564217364833],[121.9979631389877,0.891154513969658],[122.032730479628,0.885724400260932],[122.0839292614263,0.908688915161379],[122.1013472363859,0.901812310289893],[122.1104802519622,0.736483146879793],[122.1268453249519,0.666984473554619],[122.1274404890874,0.541362521563135],[122.1209490764388,0.494698941702795],[122.1124259756783,0.497873503559385],[122.1130685700585,0.486149840642655],[122.0489491582771,0.477219829031947],[121.9870953833454,0.460992545669489],[121.9798002501814,0.452445399735455],[121.9727958750296,0.459719495958064],[121.9368380937031,0.443635266854089],[121.9198344606918,0.448071960652483],[121.8783647894036,0.43613718638211],[121.8687099449081,0.4416117697674],[121.8529098997722,0.428063802402631],[121.8144568783823,0.42119979523447],[121.8037673737654,0.40990958575888],[121.7914877040944,0.430433213821788],[121.75811709243,0.456539228802397],[121.7331884563823,0.503032963600456],[121.718895464554,0.506108043351558],[121.7184951592243,0.523811616912637],[121.68506956301,0.51331255183282],[121.6667473700951,0.523119129044611],[121.6619540348509,0.537633550148284],[121.654812942963,0.541287515406561],[121.6492398658272,0.533486054038265],[121.6369233824082,0.544963612081093],[121.6280307124475,0.539009447228198],[121.6423385871561,0.525323989710389],[121.623657609711,0.535560564268708],[121.6213534899716,0.522259719810256],[121.6192618269717,0.54782201277572],[121.6078757119946,0.538218273154831],[121.6081928048541,0.54937671936017],[121.6022339869091,0.548596570075707],[121.6074022396217,0.533960474296544],[121.6019223943031,0.5271067922447],[121.5973031120491,0.539307541909581],[121.5917953337877,0.531042684172542],[121.5811753323758,0.537692482721949],[121.5680679662637,0.531735832143029],[121.5336987114265,0.546477088347006],[121.5338847586747,0.555465356241244],[121.5237463828892,0.549358900193139],[121.5201297952538,0.542084283263142],[121.5202412032689,0.535922196951885],[121.52164431923,0.532756038360491],[121.5123757767208,0.52881743317805],[121.5190182314064,0.496318896799705],[121.4939413879847,0.478812210015553],[121.4763166247125,0.483831437870583],[121.4424913158216,0.466124916331909],[121.4412058896401,0.47516245358443],[121.4332096414119,0.480124631146881],[121.439172363314,0.500924904161002],[121.4248768093173,0.48253514608014],[121.4105275388149,0.485401283642359],[121.409135037552,0.472078483135549],[121.4087933527311,0.487566934766301],[121.3953249313006,0.477179021394766],[121.3893699156892,0.481865399368717],[121.3607435021109,0.470901613218919],[121.3373541690597,0.473181095131478],[121.3516329264185,0.492597208994036],[121.3332576366308,0.511026550734714],[121.3311793663347,0.532035193069744],[121.3212031536027,0.532668290609204],[121.3182085505843,0.542591705043202],[121.3296279278866,0.575168331353401],[121.3161092037769,0.577731797584422],[121.3025844110419,0.569180065107952],[121.2958504710225,0.580226689610106],[121.2421500999473,0.600396115188603],[121.2268628923087,0.628747527776261],[121.228718308803,0.645565229551812],[121.2187024836328,0.638520794998707],[121.1976394709849,0.641311018089061],[121.1616910965669,0.676988035569456],[121.1745050273852,0.686918562741498],[121.1876060011161,0.721699332058565],[121.181982752602,0.745105659598552],[121.1920358456778,0.767493030079367],[121.2079148395982,0.76669931362254],[121.2183123784135,0.79115765100479],[121.2371178544055,0.801534256300959],[121.2889432370408,0.799017669929578],[121.3170117507918,0.785051831676784],[121.3647699818493,0.802910437566704],[121.3499453234179,0.821511646945014],[121.3488496281079,0.852326249556798],[121.3854924769963,0.854896240369316],[121.4023072235996,0.843469333942634],[121.4167564834251,0.849818323656779],[121.4256673547646,0.843394990586363],[121.4671284015545,0.848291263131371],[121.4810608335906,0.837565866571508],[121.5314927652789,0.852075772179203],[121.5420265244046,0.87939033569546],[121.5738379382704,0.8705118282583],[121.6034537320041,0.872660965131475],[121.6119359396919,0.88352258200157],[121.6218818596601,0.881211446651006],[121.6451526197976,0.895295081702693],[121.6577672644478,0.891926912896698],[121.6741371146362,0.903594100187563],[121.6914426572529,0.902516817597052],[121.7385543665909,0.930514686004022],[121.8137563199982,0.950850487959729],[121.848994398173,0.979600373058817],[121.8530363435525,0.993038163580382]]]]}},{"type":"Feature","properties":{"kode":"75.05","nama":"Kabupaten Gorontalo Utara","lat":0.8855698802075952,"lng":122.66453457423844},"geometry":{"type":"MultiPolygon","coordinates":[[[[122.8168859011635,0.848134559862077],[122.817217867011,0.847057906797064],[122.8160634162937,0.846717448651388],[122.8162858950781,0.848028697966116],[122.8168859011635,0.848134559862077]]],[[[122.8159332187431,0.848706963955268],[122.8157993789382,0.848851717932428],[122.8158056634007,0.84899104629976],[122.8160168440022,0.848816971725894],[122.8159332187431,0.848706963955268]]],[[[122.8936267034097,0.852840528667473],[122.8933490925866,0.853294922822487],[122.8939727652309,0.853331045891112],[122.893949947632,0.853017344375059],[122.8936267034097,0.852840528667473]]],[[[122.9072402313517,0.856493385961008],[122.9073465411101,0.855209578559288],[122.9072921680991,0.855139914375533],[122.9061396356358,0.856498112797707],[122.9072402313517,0.856493385961008]]],[[[122.8986504692439,0.85503893399965],[122.898386858167,0.856755648054827],[122.8988597163029,0.856940333729492],[122.8992266540869,0.856404518553708],[122.8986504692439,0.85503893399965]]],[[[122.881779063553,0.859056650743836],[122.880893179177,0.858502088300758],[122.8801098687754,0.859448462876264],[122.8813236972309,0.860057662731004],[122.881779063553,0.859056650743836]]],[[[122.8066937009536,0.865101289193168],[122.8082692844,0.862034236790629],[122.8094498793085,0.860845940987451],[122.8050476511282,0.864130426078377],[122.8066937009536,0.865101289193168]]],[[[122.8021263077829,0.866295739956444],[122.7996433812372,0.867655516688812],[122.7995674982415,0.868512176695655],[122.8028003442605,0.867124157653818],[122.8021263077829,0.866295739956444]]],[[[122.8772114662362,0.871024681044227],[122.8775418276932,0.871037483792955],[122.8780804181768,0.870248425824213],[122.8772359331919,0.870114588717305],[122.8772114662362,0.871024681044227]]],[[[122.8086717409082,0.873460386887379],[122.8089777541201,0.873320766240424],[122.8090252895855,0.87316035056981],[122.8082795699463,0.873427710020833],[122.8086717409082,0.873460386887379]]],[[[122.807481102371,0.873904679857171],[122.8067037958435,0.874258445271112],[122.8080800175789,0.874741982856284],[122.8079705071333,0.874128456363207],[122.807481102371,0.873904679857171]]],[[[122.7999952176052,0.874052112914756],[122.7988102456963,0.874373340857046],[122.7993741781759,0.875572588604109],[122.8000094952421,0.875101456267233],[122.7999952176052,0.874052112914756]]],[[[122.7199818570771,0.881536208928965],[122.718758020966,0.881371893797864],[122.7186436523827,0.883112667415739],[122.7205476916228,0.882928393630531],[122.7199818570771,0.881536208928965]]],[[[122.7414283892089,0.885254660973908],[122.742077981214,0.882906925913948],[122.7405311158184,0.883141782067673],[122.7387684679905,0.885245460010006],[122.7414283892089,0.885254660973908]]],[[[122.7352861095664,0.886786507691204],[122.7351770146076,0.886877766395886],[122.7351755891821,0.887024633779829],[122.735295379778,0.886979004877217],[122.7352861095664,0.886786507691204]]],[[[122.8181147141228,0.889711788268441],[122.8174777503978,0.88989869976521],[122.8171339800492,0.89091372858576],[122.8183688022785,0.890556307427667],[122.8181147141228,0.889711788268441]]],[[[122.8157134154418,0.891848347223531],[122.8151155587361,0.891799127327905],[122.8150520234321,0.891831920206984],[122.8152328303309,0.892194325407855],[122.8157134154418,0.891848347223531]]],[[[122.7098598867244,0.89266243872059],[122.709713713617,0.892663626725041],[122.7097458014277,0.892793147086143],[122.7098444381703,0.892788394169061],[122.7098598867244,0.89266243872059]]],[[[122.8596661967376,0.899062541403259],[122.8910693912395,0.890108464833814],[122.8874637717357,0.872970861616038],[122.8981239953262,0.867873099563996],[122.8953291209423,0.854254816007069],[122.8789239309947,0.864782055047828],[122.8821002060597,0.887576361559825],[122.8522802050674,0.896846853799291],[122.8596661967376,0.899062541403259]]],[[[122.928349927807,0.897192640428043],[122.9267812412614,0.899153256917293],[122.9293244151896,0.902005061984054],[122.9303464371384,0.898796781846054],[122.928349927807,0.897192640428043]]],[[[122.8483596151042,0.903793468194111],[122.8453474519234,0.904235425624409],[122.8454630148063,0.905547790098479],[122.8477141249071,0.905987365224734],[122.8483596151042,0.903793468194111]]],[[[122.7388817825682,0.911720659281043],[122.7406235481383,0.91004670798924],[122.7391423341514,0.908547647855704],[122.7381775666414,0.910333418152762],[122.7388817825682,0.911720659281043]]],[[[122.7383648891284,0.911734146413787],[122.7378386661216,0.911727016588612],[122.7376475709787,0.911956585628035],[122.7382080203839,0.911859625221576],[122.7383648891284,0.911734146413787]]],[[[122.7705579455929,0.913716246807381],[122.7768520649708,0.898055323194688],[122.7881207302876,0.903548248253136],[122.7976244805853,0.892356037900852],[122.8131718800782,0.892370314638333],[122.8067465622041,0.874779852408311],[122.7971145038314,0.877349669651581],[122.7864640360865,0.875864886255526],[122.7559284598307,0.906215918929584],[122.7705579455929,0.913716246807381]]],[[[122.7372454319313,0.923858835916588],[122.7374034284255,0.923819813433655],[122.7374338848659,0.923705598634525],[122.7372711300586,0.923729393796544],[122.7372454319313,0.923858835916588]]],[[[122.8617695329376,0.923415722857365],[122.8614339500168,0.923489507734685],[122.8608995962394,0.924101135758823],[122.8618021072815,0.923578067573791],[122.8617695329376,0.923415722857365]]],[[[122.8750958632835,0.926612157125392],[122.8796156994051,0.92652871802594],[122.8775167186217,0.920237671631272],[122.8733712585768,0.921727078441956],[122.8750958632835,0.926612157125392]]],[[[122.8635711187122,0.927375952238416],[122.8657035848527,0.926438059169163],[122.8645779870845,0.924330854085673],[122.862904863169,0.926734756304024],[122.8635711187122,0.927375952238416]]],[[[123.0843847525544,0.929905046380883],[123.0853971652471,0.923104278639572],[123.083349310922,0.922897612634729],[123.0782716001543,0.918048508631861],[123.0782680307451,0.917877187781999],[123.0788176873864,0.917238303105281],[123.0788355317345,0.917020581734482],[123.0776327145782,0.917377501070879],[123.076547680731,0.91694206012802],[123.0843847525544,0.929905046380883]]],[[[122.8613441697977,0.936028557172206],[122.8612776199662,0.937058997674642],[122.8613974096628,0.937528591271539],[122.8615381166908,0.936654046447158],[122.8613441697977,0.936028557172206]]],[[[122.8571656317886,0.936468874239191],[122.856867396813,0.939294267116805],[122.8581429160628,0.940229009860991],[122.8588043728235,0.938872906859187],[122.8571656317886,0.936468874239191]]],[[[123.0379616909792,0.945234735294795],[123.037705001085,0.945823336178117],[123.0384981158955,0.945732510946693],[123.0384920760485,0.945662972668091],[123.0379616909792,0.945234735294795]]],[[[122.607946977671,0.94908869718566],[122.6081047969988,0.948995539112937],[122.6080230351351,0.948847248102089],[122.6078557090738,0.948961318110372],[122.607946977671,0.94908869718566]]],[[[123.038286262601,0.951619257222999],[123.0388116069702,0.95130512942829],[123.0387436398072,0.949738320666979],[123.0371091022033,0.951101855666112],[123.038286262601,0.951619257222999]]],[[[122.9397724842129,0.954128702977306],[122.9393572510363,0.953427241673952],[122.9385833844157,0.953540463621591],[122.9388900037706,0.954143361027279],[122.9397724842129,0.954128702977306]]],[[[122.9376994983332,0.95638205688646],[122.9373162387535,0.956952408726794],[122.9380768142936,0.957115791260874],[122.9383184801138,0.956544496931075],[122.9376994983332,0.95638205688646]]],[[[122.617335285595,0.961594084099746],[122.6172889381341,0.961436049833894],[122.6171534606638,0.961642802173587],[122.6172699237681,0.961633296339601],[122.617335285595,0.961594084099746]]],[[[122.9476789018599,0.966001263947211],[122.9479046973439,0.965992351665721],[122.9477858582309,0.965644795171203],[122.9475422363852,0.966131968715464],[122.9476789018599,0.966001263947211]]],[[[122.889567652925,0.966371592175294],[122.8892243610155,0.966494235420631],[122.8893750118474,0.966955814259427],[122.889693021116,0.96682300058106],[122.889567652925,0.966371592175294]]],[[[122.8898968668471,0.963803961183915],[122.8901425022747,0.965959707174788],[122.8928346291149,0.967807128696149],[122.8927724832636,0.966756739432048],[122.8898968668471,0.963803961183915]]],[[[122.5519726815941,0.971591741165964],[122.5519328704057,0.971591741165964],[122.5519322759538,0.971616100202974],[122.5519584210444,0.971625011585006],[122.5519726815941,0.971591741165964]]],[[[122.9479625965966,0.972946359387025],[122.9477648482692,0.972999592057564],[122.9478390036671,0.973242939610072],[122.9479911185953,0.973094650397874],[122.9479625965966,0.972946359387025]]],[[[122.944055178104,0.975704107058936],[122.9439296831084,0.975657052730858],[122.9438926049599,0.975685571132276],[122.9440024130809,0.975806770066454],[122.944055178104,0.975704107058936]]],[[[122.9400121706252,0.98301930589628],[122.9399503737109,0.982960369725314],[122.9398847735636,0.983000295127587],[122.9399912550924,0.983051625731976],[122.9400121706252,0.98301930589628]]],[[[122.5311140821492,0.987049222843359],[122.5309964310406,0.987202504192306],[122.5310962557876,0.987276173956372],[122.5312210376208,0.987150222105113],[122.5311140821492,0.987049222843359]]],[[[122.9322992511096,0.987417058150728],[122.9352224119848,0.985173644448187],[122.9331791666853,0.982327763215737],[122.9289352713457,0.985634790713094],[122.9322992511096,0.987417058150728]]],[[[122.5181219290838,0.992296551145008],[122.5187360059619,0.99207010455171],[122.5188072052884,0.991954314140317],[122.5181938946327,0.991849278721288],[122.5181219290838,0.992296551145008]]],[[[122.5230908425685,0.99142474925282],[122.5261720179243,0.987717202387037],[122.5305815620896,0.986688826728008],[122.5223274692373,0.987011480995045],[122.5230908425685,0.99142474925282]]],[[[122.6370381788689,0.994734159953589],[122.6364910079537,0.995277721889407],[122.6367747107844,0.996834650698661],[122.6380003896063,0.996042404633288],[122.6370381788689,0.994734159953589]]],[[[122.6662887111552,1.000517407752197],[122.6646195892227,0.986570759233205],[122.6533347756795,0.994407803177674],[122.6619910714308,1.003202831045888],[122.6662887111552,1.000517407752197]]],[[[122.5075902357009,1.004184807982542],[122.5075475053131,1.003849520938635],[122.5062182425779,1.003637078588346],[122.5063404001894,1.004153858713705],[122.5075902357009,1.004184807982542]]],[[[122.4381934582616,1.006872446306348],[122.4406531508223,1.00537064234125],[122.4402172008632,1.003535901260852],[122.4367295157545,1.003621026589149],[122.4381934582616,1.006872446306348]]],[[[122.3926787856975,1.014947606446912],[122.3923183302267,1.015228277662958],[122.3927314778755,1.015779738344255],[122.3929630371145,1.015583466703715],[122.3926787856975,1.014947606446912]]],[[[122.4390032968647,1.020246563927893],[122.4388635413194,1.019979929330292],[122.4383658403113,1.020093998439295],[122.4387066716756,1.020309300633768],[122.4390032968647,1.020246563927893]]],[[[122.288109827007,1.030330174597902],[122.2876926989589,1.029595862858843],[122.2869547035968,1.030241059877055],[122.2873183543586,1.03042285513075],[122.288109827007,1.030330174597902]]],[[[122.3347871521055,1.040484892863544],[122.3697817343397,0.992905528867125],[122.3896581221248,1.003115119267337],[122.3934198306607,1.013992931128913],[122.4074175984435,1.006007526026595],[122.4118556430237,0.993190720075729],[122.4353370450686,0.994043377200191],[122.4449450699591,1.000455865345915],[122.4400021522775,1.021815791865352],[122.4523184828118,1.031609501577277],[122.4889694390883,0.989596289936864],[122.5385155691382,0.969774930768461],[122.5517734637744,0.971610322058789],[122.5616693580544,0.959650480984939],[122.6115068072934,0.943993088110615],[122.6244089508125,0.963863290358644],[122.621975528348,0.954819459650411],[122.6385915796377,0.942203331118849],[122.6496171689972,0.948753170922176],[122.6581293780684,0.933797021715252],[122.6641019790231,0.935029285373298],[122.6878725337905,0.893970490046156],[122.7223636260806,0.886707070574941],[122.7156466535703,0.88148972297237],[122.7129096280769,0.867080800438666],[122.7266050950492,0.874545653659029],[122.7322378709811,0.8696745504402],[122.7395696865918,0.880586168716777],[122.7663975073392,0.861623404896259],[122.771979582192,0.879131485629634],[122.8037724133663,0.847239184041124],[122.7883666966658,0.851480686284686],[122.785269096092,0.84922558409348],[122.7956271034082,0.833550729082885],[122.8095374013301,0.833810091762397],[122.8101081326842,0.84236458875486],[122.8176039297777,0.830515939858786],[122.8235466282743,0.839643576589852],[122.8235966341774,0.825496748875951],[122.8322458873378,0.818573551028587],[122.8380731983195,0.824478342201759],[122.8490491073305,0.80054913533438],[122.8589960408347,0.808309743200139],[122.8608657853278,0.827836916140809],[122.870778641721,0.825566751204596],[122.8976928612366,0.845039191405592],[122.8974407291064,0.853724450722934],[122.9059662283588,0.852593591021408],[122.9219100202313,0.861153637730203],[122.9308466769326,0.884879140959624],[122.9508731345876,0.894038798951444],[122.9503704747177,0.922855023440603],[122.9567120234413,0.919868444173419],[122.9765535481078,0.937883693977357],[122.9463815039033,0.937523628812473],[122.9392292208519,0.958357433049104],[122.986078891128,0.967955372042814],[123.0027184992593,0.95627419759616],[122.9973759219613,0.943887573352884],[123.0122516196165,0.944036721417627],[123.0265563161212,0.932524255290199],[123.0469478706477,0.939425361291432],[123.0588310643022,0.918715775912402],[123.0647727105921,0.92430920740407],[123.0669097353961,0.916465209901604],[123.078775332016,0.916931649576044],[123.0789609296033,0.917138662719116],[123.0783434595831,0.917977422620028],[123.0799638733341,0.918851874814239],[123.0872190199419,0.906534153028835],[123.0984184212732,0.916758127185899],[123.0946656421057,0.930318651784409],[123.1191152533664,0.926302017823863],[123.112272399152,0.915397511386049],[123.1216532660855,0.888695295351669],[123.2267072678262,0.844282698787621],[123.2710878521227,0.802597378166523],[123.2741291137677,0.786703505862116],[123.2685557398556,0.768115929306765],[123.2489838876963,0.747776697336741],[123.2151770149073,0.762044684414695],[123.1670644932318,0.751925958816033],[123.1594932996761,0.773987370920468],[123.1337490243981,0.765939650894174],[123.1240594921519,0.788105518355062],[123.0734709606164,0.806136077318184],[123.0376988901917,0.782519482887897],[123.0057952283671,0.782895909418732],[122.9749999998502,0.746666666833315],[122.9760776763437,0.726335394762698],[122.952677939935,0.712212263285414],[122.9300589922287,0.71193452655722],[122.9285287759823,0.696041235214848],[122.9206587898714,0.691715245262367],[122.9058180668503,0.702951910002733],[122.9069404873137,0.731204462815713],[122.8909213718239,0.751154229883896],[122.8801115639975,0.75061385064876],[122.8805365970863,0.760262991643776],[122.8488787793322,0.761834145929116],[122.824166665859,0.745833333441601],[122.8086399336861,0.762754072342561],[122.7850419417323,0.760192089993003],[122.7800002802888,0.770899789693599],[122.7558822643551,0.764499306597807],[122.7479171749377,0.776275575357507],[122.7151990843703,0.786839730669106],[122.6973223841208,0.806139640432077],[122.6853096701052,0.806310116818507],[122.6784502332917,0.824062995710692],[122.6435022557246,0.847591382836052],[122.607044142873,0.851967248289951],[122.5996170036219,0.843391120803647],[122.5958671040836,0.863028699914567],[122.5794601442704,0.875118196247834],[122.535418352575,0.87020569004059],[122.5069774610411,0.886702446260943],[122.4934227586535,0.871635979916549],[122.4561516370884,0.888766975815278],[122.41752624534,0.884931743205383],[122.3582763665611,0.908990026168796],[122.3516998285843,0.921002386750766],[122.332977295266,0.91741085063026],[122.3238334653422,0.926057457985349],[122.2786995090752,0.910328524941503],[122.2617492670151,0.929188251636523],[122.2481131292176,0.91382101692645],[122.2007340136638,0.898209019131022],[122.1818671265667,0.91170000005498],[122.1100460853586,0.898526068823033],[122.0839292614263,0.908688915161379],[122.032730479628,0.885724400260932],[121.9979631389877,0.891154513969658],[121.9820255326523,0.907028556222953],[122.0154926307804,0.909067416428153],[122.0176195472044,0.921915839844198],[122.0346986827981,0.93049857824685],[122.0394526664074,0.96163910326201],[122.0303673283895,0.952633926314681],[122.0177920110926,0.956054777406143],[122.0418291959607,0.988479960581776],[122.0693811328331,1.004786604618177],[122.0889219862607,0.998303284069399],[122.1086931110982,1.012380657141618],[122.142198957416,1.018361273753873],[122.1586029269835,1.031454496228099],[122.1710033207467,1.028996283052061],[122.1894070102254,1.039669688905073],[122.2102048577681,1.020009589870716],[122.2225630220658,1.025035940356409],[122.2284664930343,1.013277899955176],[122.220739570175,0.995774898592769],[122.2386984243929,0.993183664894312],[122.2423607020849,1.010325267397169],[122.2523265060634,1.001798402074636],[122.268507709963,1.013010113326127],[122.277770415872,1.004809407827986],[122.3147067935837,1.005554897240765],[122.3191020502195,1.019930325424243],[122.3307493579965,1.021829477748268],[122.3347871521055,1.040484892863544]]],[[[122.2053349425536,1.053546834219008],[122.2044911473487,1.05421131090335],[122.2046731899159,1.055647709873961],[122.2055094586947,1.05472346311741],[122.2053349425536,1.053546834219008]]]]}},{"type":"Feature","properties":{"kode":"75.71","nama":"Kota Gorontalo","lat":0.538408541072283,"lng":123.05530113282344},"geometry":{"type":"MultiPolygon","coordinates":[[[[123.0621929405519,0.589975632869175],[123.0909601789691,0.580327675381939],[123.0794933543349,0.528109757559323],[123.0889655231404,0.520466942895156],[123.0865238556914,0.509690694170237],[123.0999400004307,0.502330000429227],[123.0867961407294,0.479679777000205],[123.0585557737301,0.506924176309751],[123.0454644659125,0.490856635025791],[123.0376220817938,0.50916166887591],[123.0046420447946,0.530160030161328],[122.9950361162239,0.551626448102136],[123.006112453427,0.556115993258485],[123.0305760023807,0.546750906729018],[123.0269770684371,0.563582618143352],[123.0621929405519,0.589975632869175]]]]}}]}