{"type":"FeatureCollection","features":[{"type":"Feature","properties":{"kode":"93.01","nama":"Kabupaten Merauke","lat":-7.829209126022099,"lng":139.6924671786766},"geometry":{"type":"MultiPolygon","coordinates":[[[[138.9596518734353,-8.370202806913944],[138.9478301061745,-8.368155440021479],[138.9482249319351,-8.36150626560162],[138.9478192189819,-8.351866601662277],[138.944502932964,-8.343155240421911],[138.9668992292162,-8.364329577447975],[138.9596518734353,-8.370202806913944]]],[[[138.9471281646331,-8.36750108790481],[138.9239537722488,-8.357562986642435],[138.9191531057313,-8.338275431765734],[138.9258907401656,-8.32697855021987],[138.9442699186219,-8.343040148783825],[138.9471281646331,-8.36750108790481]]],[[[138.498958544901,-8.321839134268565],[138.4847386490694,-8.351647948593914],[138.407347260168,-8.398810103603331],[138.3115741863997,-8.422884995246331],[138.2640154105829,-8.415807585251827],[138.2645433692811,-8.390885515154327],[138.3003473143771,-8.3957999207297],[138.321730741081,-8.374887561611626],[138.3469320470764,-8.382917427397345],[138.4361624909063,-8.361611210189128],[138.4501649126806,-8.350068727389797],[138.4684229812356,-8.353748810758947],[138.498958544901,-8.321839134268565]]],[[[138.9332466962781,-8.316275152875967],[138.9478715217534,-8.329777143300436],[138.971565140419,-8.33604815639724],[138.9515110331077,-8.341236848002058],[138.9311715718106,-8.322171830365637],[138.9332466962781,-8.316275152875967]]],[[[138.583185206732,-8.291922898622843],[138.5697429879487,-8.307553276762274],[138.5659164194073,-8.32214361143853],[138.5528903061428,-8.327989500614912],[138.5620213629956,-8.30107380980845],[138.583185206732,-8.291922898622843]]],[[[138.9908960839872,-8.287809278175544],[138.9890877029352,-8.302701536846406],[138.971425544953,-8.32671920192956],[138.9518629414217,-8.327594459916359],[138.9358621792962,-8.313375072201783],[138.936108476625,-8.305474864373412],[138.9526741433971,-8.296165868559928],[138.9908960839872,-8.287809278175544]]],[[[138.8775276745625,-8.272603490658508],[138.8808327019678,-8.272273243415356],[138.8918336427085,-8.267708187582716],[138.9003631394473,-8.281631731619115],[138.8845085396374,-8.287873103960557],[138.8557889931676,-8.268969199868685],[138.8775276745625,-8.272603490658508]]],[[[138.9924635420589,-8.286510190392864],[138.9801497251298,-8.287116800200138],[138.9783836194086,-8.277634817992379],[138.992307739011,-8.264130415586184],[138.9924635420589,-8.286510190392864]]],[[[138.847377467696,-8.256010681447705],[138.8524492366431,-8.259647933705132],[138.8590897613834,-8.266295670109063],[138.8515580147906,-8.266122745767994],[138.847377467696,-8.256010681447705]]],[[[139.4435132784151,-8.241384879308704],[139.4438840608009,-8.242803836827566],[139.4399266651835,-8.242982097745593],[139.4427931031193,-8.240700355836665],[139.4435132784151,-8.241384879308704]]],[[[138.9973266386135,-8.230483024072281],[138.9904537200632,-8.240467206596218],[138.9943776609003,-8.262577930327168],[138.9857682998673,-8.267673581670447],[138.9789862578096,-8.27450960733243],[138.9780820155727,-8.277813643684677],[138.9794576689364,-8.28719115075101],[138.9749299160828,-8.291204230590736],[138.9524639880227,-8.295130374766906],[138.9344501357652,-8.302934761629892],[138.9242409869321,-8.278672005208847],[138.9351406721044,-8.277603714040165],[138.9447609043923,-8.264561423770616],[138.9614370223008,-8.259043152219618],[138.9699539663025,-8.240011807898533],[138.9973266386135,-8.230483024072281]]],[[[138.6554906632636,-8.221809916394456],[138.6518680645596,-8.232865409111305],[138.6459211221622,-8.234354246651137],[138.6452228651432,-8.227656703094315],[138.6554906632636,-8.221809916394456]]],[[[138.8539914570401,-8.20967692435051],[138.8860671987422,-8.238548187348886],[138.8907765759783,-8.266282397914253],[138.876274493573,-8.271725774824539],[138.8478024333357,-8.255410205016904],[138.8485581516375,-8.20978815070255],[138.8539914570401,-8.20967692435051]]],[[[138.6994388328359,-8.152600966861083],[138.7076165804409,-8.154274655550857],[138.7136697849326,-8.159986034028215],[138.7065010568784,-8.164435508991534],[138.6928721847037,-8.156970413853486],[138.6994388328359,-8.152600966861083]]],[[[138.7441571017689,-8.154068426616572],[138.7540326578809,-8.144174430805222],[138.757747465873,-8.145413761335956],[138.7489733427457,-8.152764350294532],[138.7441571017689,-8.154068426616572]]],[[[138.8206961689931,-8.144475186580529],[138.8466613402487,-8.20131274998344],[138.845882756684,-8.263181729753004],[138.8766779429328,-8.287430032270109],[138.8920297695582,-8.292168533151294],[138.9026328879975,-8.288883688331499],[138.9150548304162,-8.299202923176345],[138.9133247308518,-8.363235747331803],[138.9026723979128,-8.382509538983989],[138.8703355227663,-8.39258655582487],[138.875725002407,-8.389731202932609],[138.812923795297,-8.387375550241387],[138.7974789778726,-8.378172272432387],[138.7345261711459,-8.386175299750214],[138.6744044419115,-8.369839889099566],[138.5784028818875,-8.358030820266098],[138.5529730563616,-8.341216708584192],[138.5514726112721,-8.330746175395625],[138.5660494417284,-8.32307329909348],[138.5857737820345,-8.290606500689428],[138.6623746398778,-8.236861228263042],[138.6786062921467,-8.170402490082811],[138.7452754716857,-8.165128573325013],[138.8145390208592,-8.138000305269859],[138.8206961689931,-8.144475186580529]]],[[[138.8363180332507,-8.090734186833242],[138.8372500996125,-8.085897658050438],[138.8433038985561,-8.084228424602085],[138.8427583680043,-8.086013219134696],[138.8363180332507,-8.090734186833242]]],[[[138.9432035627942,-7.882178485148898],[138.9191764611248,-7.896103954633719],[138.9141134992386,-7.896043065135298],[138.9263819525652,-7.885310394858783],[138.9432035627942,-7.882178485148898]]],[[[138.6752600667988,-7.366807464392958],[138.7721219929357,-7.374905012256487],[138.8272172008133,-7.402323994256913],[138.8675598758876,-7.440412681400036],[138.9057072968543,-7.515002514854156],[138.9412219408399,-7.546330804822769],[139.0881982750304,-7.573865740911216],[139.0421868376525,-7.626029990791387],[139.0331107158869,-7.687065310715439],[138.9948010949946,-7.745642223209951],[138.9948840331716,-7.848670019106033],[138.980050032583,-7.861509728091479],[138.9168832258803,-7.884263861887656],[138.8917400142903,-7.913563185092868],[138.9026889832101,-7.97509192884938],[138.8887584388509,-8.036297196358504],[138.9127323231382,-8.061302067935987],[138.912994342415,-8.075950803686531],[138.8392495146535,-8.07298949626814],[138.8159779469248,-8.089936727398044],[138.7984013270596,-8.137625901314287],[138.7541844013891,-8.1425237485721],[138.735778144346,-8.1537134687016],[138.7081117714412,-8.145948145690323],[138.6798151932167,-8.149245111572583],[138.6617326642312,-8.169754553729618],[138.6509432053647,-8.207344289807033],[138.6149561735886,-8.249057832053257],[138.5338737709579,-8.30471554158894],[138.4894630944464,-8.319588192341136],[138.4688838622005,-8.350359095995401],[138.4490547382856,-8.34719852758992],[138.4344036553045,-8.359109616415576],[138.3441243627492,-8.379069237355434],[138.3209078838918,-8.370445533034836],[138.3011719261436,-8.391510206730661],[138.2654430348682,-8.385543252618959],[138.255398136415,-8.391438254671684],[138.2198727833024,-8.377537443698007],[138.1843593273213,-8.383926295861848],[137.9518502953549,-8.384295113228895],[137.8807433176501,-8.381360422145772],[137.8701336557436,-8.372344269872105],[137.8567967772495,-8.38445572675031],[137.7228021891698,-8.410149146266104],[137.6893374499635,-8.426738749393774],[137.6761457175509,-8.456862724834817],[137.651289868133,-8.444127849820386],[137.6408107221372,-8.418558161729699],[137.6609474780438,-8.313696593323066],[137.6984514871465,-8.18068329869524],[137.7537697448779,-8.09083294228639],[137.7676415068502,-8.081483345679867],[137.7636578932972,-8.075203056076123],[137.7721722076813,-8.062560391249],[137.8138386947,-8.040184988046732],[137.7982080377708,-8.020386380826743],[137.7970013058656,-8.004962602142278],[137.8137398070466,-7.962268925670361],[137.8215013430126,-7.960403568070155],[137.8192966514193,-7.948129875293456],[137.8331923380561,-7.922226806721681],[137.8409690851551,-7.922597310317573],[137.8357170174265,-7.915100015853031],[137.8604296156343,-7.878574280278786],[137.8664387011852,-7.853913835555008],[137.8777385468964,-7.846346044134548],[137.9268564368751,-7.763234375266207],[137.9580940014371,-7.736355983841551],[137.9711818162879,-7.735292023807786],[137.9856100877354,-7.68416964481318],[138.0481676361276,-7.601688647113373],[138.0858434759957,-7.574436650331132],[138.1174774841986,-7.53734262506203],[138.205038730553,-7.476623536447028],[138.3155534031671,-7.429152968834422],[138.3856286111716,-7.409967642592522],[138.6752600667988,-7.366807464392958]]],[[[140.8545968307792,-6.618156618033381],[140.8718832016485,-6.617887688366046],[140.8768450752401,-6.625079644110236],[140.8558818180915,-6.643403400046814],[140.8735822835957,-6.651758758359953],[140.8604102238528,-6.662771374998914],[140.8707080620274,-6.676648834176361],[140.8630257743201,-6.683640713248255],[140.8459601249599,-6.681773705392117],[140.8538080453051,-6.703902293256173],[140.8462321321073,-6.719980005872531],[140.8822502093798,-6.734936396097772],[140.9004928896352,-6.753206276348481],[140.8929112711384,-6.766183712907984],[140.8794674056962,-6.769455415934615],[140.8704148767453,-6.793110891654289],[140.8849805223333,-6.801504379423554],[140.8875372292598,-6.812199558762603],[140.9068649829327,-6.805653179550556],[140.9171642447342,-6.815622162632699],[140.918224424018,-6.826402019437587],[140.8980015463344,-6.846095815169732],[140.9161250133587,-6.872063159187362],[140.9404584600898,-6.872155053712773],[140.9530264092415,-6.85680088525256],[140.940043315047,-6.891330530579491],[140.9539547416181,-6.91027758414318],[140.9685215158553,-6.889761933066722],[140.9900618086057,-6.903612007887786],[141.0009435810815,-6.890275246305481],[141.0200417890974,-6.892342214821293],[141.0196250000937,-9.125541666714536],[140.9360520140892,-9.092856416690225],[140.8894292517587,-9.083239031655914],[140.8679427186816,-9.054214366799567],[140.8176247328952,-9.014119338036934],[140.7551223696018,-8.932174667227049],[140.6199042952472,-8.818442794099628],[140.5301732249145,-8.688601804029954],[140.5006000356632,-8.61430818657352],[140.3787545482839,-8.511790751442021],[140.355316629359,-8.472531488737172],[140.3237136099951,-8.461461224655746],[140.2631139729316,-8.411002878080325],[140.2306469254154,-8.375237438357068],[140.2270588130139,-8.355817159734062],[140.1637072307042,-8.332183232669959],[140.0554702926199,-8.254695613611656],[139.9984133018325,-8.204009271810335],[139.9649175396129,-8.158868051719175],[139.950423310987,-8.101557521362484],[139.8771679680274,-8.108386692391871],[139.833826086305,-8.100474984033195],[139.7127138998267,-8.097407858785637],[139.7037253522433,-8.10524847213923],[139.5844102252518,-8.12915679135278],[139.5799399759492,-8.143714549886543],[139.4565458658992,-8.193319542362936],[139.339671203963,-8.20592896824726],[139.3159432186047,-8.196934604748112],[139.303620704332,-8.181450138912698],[139.2768411187227,-8.175852547157252],[139.2509466161935,-8.15048020090055],[139.2233757306055,-8.094778578368693],[139.2078682124482,-8.097006538121203],[139.0819029253797,-8.136908561580807],[139.0673204067115,-8.15323313630019],[138.9884293101646,-8.20218473533723],[138.9736203772786,-8.203091905766762],[138.9940272463604,-8.227208713011596],[138.9681983520724,-8.240538581290462],[138.960271617841,-8.258867656716955],[138.9439934580317,-8.263767565220874],[138.9337401093187,-8.276837071673508],[138.9108474106795,-8.267119849301512],[138.9001573107114,-8.23649853617841],[138.8566025342795,-8.186124477662453],[138.8355480319163,-8.138711654619062],[138.8359681996728,-8.114032180240898],[138.8610489236689,-8.090044623560448],[138.9072379132991,-8.087658161894566],[138.9249360396666,-8.075193594308843],[138.9259268929119,-8.057587446103724],[138.9032575103259,-8.030256320672606],[138.9224285634275,-7.968252633252319],[138.9093253809616,-7.930484676726372],[138.9249649591655,-7.905563172302513],[139.0184183693124,-7.853408833850554],[139.0248686190915,-7.829254021256008],[139.0166353878129,-7.755984246875495],[139.0535629746517,-7.698395871871958],[139.0662323268604,-7.634414499729373],[139.1079652414028,-7.599482533691918],[139.1085275389148,-7.560078693276998],[139.1004555353948,-7.539633631786628],[139.0533005102104,-7.516697447329327],[138.9637511254142,-7.51863864565692],[138.9117378654102,-7.37686220142935],[138.8673019701099,-7.317540314833585],[138.812898084579,-7.297889096604474],[138.7725723374435,-7.262601529636806],[138.6838797673374,-7.229432401184325],[138.666911814029,-7.209973954434438],[138.6822342957762,-7.173243178829551],[139.524625231869,-7.323539068073507],[139.5315954588635,-7.338343650039362],[139.5474364690178,-7.334382321686731],[139.5503579850331,-7.348224730686751],[139.5656204784024,-7.348234231124787],[139.5681723523722,-7.356598749932245],[139.5812873438359,-7.358208879935794],[139.5837240128529,-7.368637383308555],[139.6303917241988,-7.385844511315102],[139.6470814299641,-7.386304617963705],[139.659185203934,-7.372454993702941],[139.7841863080517,-7.373289900908179],[139.7923160813222,-7.349642085613687],[140.0897888050094,-7.206984526114883],[140.1015751650618,-7.150032650786179],[140.1129629033154,-7.148963447704907],[140.1213178317525,-7.12926646657415],[140.138155622584,-7.129813843434078],[140.1676231127165,-7.090946659960355],[140.1798291962604,-7.085767252956358],[140.1823762057974,-7.055301121449523],[140.1950656830349,-7.055955421405517],[140.2128390547787,-7.030843987360028],[140.2347687566728,-7.022010701432694],[140.2551798750513,-6.981137242889427],[140.3266096104452,-6.950869045869793],[140.3203934128258,-6.937581266762009],[140.3540151970437,-6.927944450076299],[140.3655912749175,-6.908047695344769],[140.361129785911,-6.894425280302378],[140.3980114308829,-6.900790339102762],[140.409968223255,-6.8866920316119],[140.4240070432904,-6.883896165275764],[140.4422374316123,-6.850086254576907],[140.4907380701059,-6.80395412098587],[140.49130455666,-6.739023214050092],[140.5340209796845,-6.712493560829084],[140.5422123861928,-6.799697860867563],[140.5525612330145,-6.79868989262438],[140.5474660457216,-6.800726848065589],[140.5571007130276,-6.808853081604375],[140.5526003346377,-6.834046577887224],[140.5677494801545,-6.835658818599536],[140.5587350024185,-6.846814233190272],[140.5713532290684,-6.884475745958855],[140.5595574018527,-6.898062932758079],[140.567532452161,-6.901159652895642],[140.5658552902896,-6.910806935891304],[140.5739104594003,-6.910400948644816],[140.573256681051,-6.921619718675024],[140.5879285275795,-6.929323576621708],[140.5810284800804,-6.937565679712313],[140.586618409612,-6.941725642224553],[140.5775143171321,-6.941708108142634],[140.5825133336235,-6.950368410373801],[140.5666207869199,-6.955038662604166],[140.5590294377585,-6.945823486764517],[140.5622661157888,-6.956374442726324],[140.5512550576748,-6.967355361860398],[140.5574426163837,-6.981723688097733],[140.5705688358831,-6.985801314079313],[140.5684689485832,-7.00090407436356],[140.5852265891358,-6.99948747756494],[140.5882790743199,-7.007340968311019],[140.5901756392944,-7.000132072037405],[140.5958725647671,-7.01025828269353],[140.6001004323891,-7.005186738577133],[140.6013910782358,-7.015480594553728],[140.589150848333,-7.024586685327242],[140.5940891938613,-7.042377344738585],[140.5887316059789,-7.052554061320818],[140.6053347645877,-7.062620252122879],[140.6200442036771,-7.060839623249996],[140.62970340269,-7.039464349799899],[140.6632632559945,-7.03259190609156],[140.6753773316985,-7.039616170649746],[140.684461123782,-7.025657554852208],[140.7053339585953,-7.038939866081932],[140.7130754558676,-7.032116681839343],[140.7441134941425,-7.035989885624686],[140.7584581942903,-7.028494861048954],[140.7958394935978,-7.050545935446521],[140.8125637045514,-7.044744552818808],[140.8207036113826,-7.049495279983179],[140.8289051271699,-7.036569192014567],[140.8176039549586,-7.020576506700386],[140.8202539998223,-6.99986250565006],[140.8070399858068,-6.99859287156375],[140.7988572586556,-6.979501707038053],[140.7922382897654,-6.980327753223196],[140.7917450044285,-6.960981710937179],[140.782979238701,-6.951266056083564],[140.7880248328799,-6.933985546995362],[140.7545354135785,-6.885666434858066],[140.7623980459331,-6.876307177734001],[140.7403983156298,-6.873128942146937],[140.7399675322758,-6.862455243114932],[140.7519698420347,-6.851611947233564],[140.7451725124016,-6.813241210213653],[140.7264237215776,-6.786874230861065],[140.727449722127,-6.758565009967191],[140.7069565648936,-6.736004285269529],[140.7181247129852,-6.725799553006943],[140.7194470005788,-6.695910644160889],[140.7360886240909,-6.688983724918866],[140.7615818437272,-6.69301769600981],[140.7737769456496,-6.682673388965624],[140.7830114398262,-6.68716145383799],[140.8043494327803,-6.667298569373407],[140.8011824477119,-6.643208061003206],[140.803862527234,-6.649736534713283],[140.8225378740237,-6.646313533342844],[140.8281911886725,-6.637322821990636],[140.8495052443716,-6.631209885427828],[140.8525694207423,-6.623001755126871],[140.8452828527215,-6.615435408017659],[140.8545968307792,-6.618156618033381]]]]}},{"type":"Feature","properties":{"kode":"93.02","nama":"Kabupaten Boven Digoel","lat":-6.01522969567516,"lng":140.39116227393046},"geometry":{"type":"MultiPolygon","coordinates":[[[[140.1094375626934,-5.041826075113212],[140.1118007130325,-5.055102165732331],[140.1401696489102,-5.054878461172033],[140.1855867351397,-5.038292996724339],[140.215868779021,-5.056017194437937],[140.237970916025,-5.047494015436429],[140.2572352917754,-5.060892941755826],[140.2559712820491,-5.073766368123314],[140.2842749370387,-5.121449373589629],[140.275076979619,-5.11910311161923],[140.2693142822284,-5.135400793911485],[140.2946834313954,-5.130840365090686],[140.3035512863628,-5.142308758142613],[140.295098249085,-5.148299109915991],[140.2975599660197,-5.155701309168029],[140.3101063548245,-5.157572123854395],[140.3159956425849,-5.169714338445955],[140.3520810700854,-5.174658144657565],[140.3587790660012,-5.189345178936813],[140.3874783570407,-5.196219556187545],[140.3878977279978,-5.212738106578277],[140.4128462246736,-5.211949348983216],[140.4347601263788,-5.227942462374704],[140.4690520458154,-5.219637859999152],[140.5158464644428,-5.225959735153632],[140.5219965807777,-5.242040316607336],[140.5449169281738,-5.238210574358408],[140.5541574702911,-5.256063768128331],[140.5933577581541,-5.250434257634832],[140.6337697844481,-5.264823429257851],[140.7253303411225,-5.232293815007497],[140.7417808739883,-5.260476679355256],[140.736575803031,-5.279244677000142],[140.7202775469713,-5.281409507043104],[140.8131980692356,-5.296622159085266],[141.0006316638203,-5.344435573442911],[140.9999753799599,-6.322312449659754],[140.9597333228346,-6.325854524866407],[140.9694954879264,-6.344577092358853],[140.9599323338103,-6.353869174622665],[140.9775450668515,-6.364883692428406],[140.9438794289926,-6.372522722745425],[140.9422924916053,-6.384291617963792],[140.9495781252303,-6.389649241819021],[140.9768573103166,-6.382782740830776],[140.9823031091013,-6.389470683225421],[140.9421112458374,-6.412654173151537],[140.9560946559438,-6.419145881677028],[140.953460550664,-6.433403800844743],[140.9457337006499,-6.437097281414398],[140.9258310904326,-6.41818069058642],[140.9173364936843,-6.42297301499262],[140.9185685486997,-6.436461098301009],[140.9388852247733,-6.444933946744217],[140.9244476111684,-6.458187233254157],[140.9251882694232,-6.466982827695293],[140.9467208828626,-6.467471842151688],[140.9481973277445,-6.479135849439802],[140.9610687549192,-6.486232543596929],[140.9283260049412,-6.493487510340294],[140.9209098715934,-6.503398890946047],[140.929929179588,-6.536927777894589],[140.9220856569276,-6.551241938864364],[140.9367400206355,-6.561927961306306],[140.9133045002026,-6.557005451940049],[140.8905426592164,-6.562538942717992],[140.8891207267402,-6.573814161394401],[140.9105381433208,-6.57053462077604],[140.9037096377896,-6.592500488007128],[140.8893040031772,-6.605553993721784],[140.8824154049471,-6.593332983230552],[140.8683452768131,-6.605667569102972],[140.8424709262923,-6.610341494164532],[140.8525694207423,-6.623001755126871],[140.8495052443716,-6.631209885427828],[140.8281911886725,-6.637322821990636],[140.8224758711646,-6.64633894638527],[140.803862527234,-6.649736534713283],[140.8011824477119,-6.643208061003206],[140.8043494327803,-6.667298569373407],[140.7830114398262,-6.68716145383799],[140.7737769456496,-6.682673388965624],[140.7615818437272,-6.69301769600981],[140.7360886240909,-6.688983724918866],[140.7194470005788,-6.695910644160889],[140.7181247129852,-6.725799553006943],[140.7069565648936,-6.736004285269529],[140.727449722127,-6.758565009967191],[140.7264237215776,-6.786874230861065],[140.7451725124016,-6.813241210213653],[140.7519698420347,-6.851611947233564],[140.7399675322758,-6.862455243114932],[140.7403983156298,-6.873128942146937],[140.7623980459331,-6.876307177734001],[140.7545354135785,-6.885666434858066],[140.7880248328799,-6.933985546995362],[140.782979238701,-6.951266056083564],[140.7917450044285,-6.960981710937179],[140.7922382897654,-6.980327753223196],[140.7988572586556,-6.979501707038053],[140.8070399858068,-6.99859287156375],[140.8202539998223,-6.99986250565006],[140.8171068259194,-7.017200396880766],[140.8287323781967,-7.035452564084536],[140.8256276253147,-7.045511010824405],[140.8028275928192,-7.052622643620036],[140.7802934493834,-7.035628284417753],[140.7643113266065,-7.036869783213876],[140.7509146342032,-7.027516163040452],[140.7478346108786,-7.035223852998377],[140.7130754558676,-7.032116681839343],[140.7053339585953,-7.038939866081932],[140.684461123782,-7.025657554852208],[140.6753773316985,-7.039616170649746],[140.6632632559945,-7.03259190609156],[140.62970340269,-7.039464349799899],[140.6200442036771,-7.060839623249996],[140.6053347645877,-7.062620252122879],[140.5887316059789,-7.052554061320818],[140.5940891938613,-7.042377344738585],[140.589150848333,-7.024586685327242],[140.6013910782358,-7.015480594553728],[140.6001004323891,-7.005186738577133],[140.5958725647671,-7.01025828269353],[140.5901756392944,-7.000132072037405],[140.5882790743199,-7.007340968311019],[140.5852265891358,-6.99948747756494],[140.5684689485832,-7.00090407436356],[140.5705688358831,-6.985801314079313],[140.5574426163837,-6.981723688097733],[140.5512550576748,-6.967355361860398],[140.5622661157888,-6.956374442726324],[140.5590294377585,-6.945823486764517],[140.5666207869199,-6.955038662604166],[140.5825133336235,-6.950368410373801],[140.5775143171321,-6.941708108142634],[140.586618409612,-6.941725642224553],[140.5810284800804,-6.937565679712313],[140.5879285275795,-6.929323576621708],[140.573256681051,-6.921619718675024],[140.5739104594003,-6.910400948644816],[140.5658552902896,-6.910806935891304],[140.567532452161,-6.901159652895642],[140.5595574018527,-6.898062932758079],[140.5713532290684,-6.884475745958855],[140.5587350024185,-6.846814233190272],[140.5677494801545,-6.835658818599536],[140.5526003346377,-6.834046577887224],[140.5571007130276,-6.808853081604375],[140.5474660457216,-6.800726848065589],[140.5525612330145,-6.79868989262438],[140.5422123861928,-6.799697860867563],[140.5340209796845,-6.712493560829084],[140.49130455666,-6.739023214050092],[140.4907380701059,-6.80395412098587],[140.4422374316123,-6.850086254576907],[140.4240070432904,-6.883896165275764],[140.409968223255,-6.8866920316119],[140.3980114308829,-6.900790339102762],[140.361129785911,-6.894425280302378],[140.3655912749175,-6.908047695344769],[140.3540151970437,-6.927944450076299],[140.3203934128258,-6.937581266762009],[140.3266096104452,-6.950869045869793],[140.2551798750513,-6.981137242889427],[140.2347687566728,-7.022010701432694],[140.2128390547787,-7.030843987360028],[140.1950656830349,-7.055955421405517],[140.1823762057974,-7.055301121449523],[140.1798291962604,-7.085767252956358],[140.1676231127165,-7.090946659960355],[140.138155622584,-7.129813843434078],[140.1213178317525,-7.12926646657415],[140.1129629033154,-7.148963447704907],[140.1015751650618,-7.150032650786179],[140.0968968558053,-7.189653387893528],[140.084810185142,-7.210137887353588],[140.081683647982,-7.184700290785776],[140.0606650753331,-7.140275753922846],[140.0793842272004,-7.080649528652731],[140.066875468728,-7.01842355580247],[140.0409869332004,-6.974831830724407],[140.0567865538565,-6.951227577690559],[140.0522179888692,-6.929526892651942],[140.0758331767597,-6.920137215060399],[140.0680052762226,-6.882871341039535],[140.0659916671817,-6.465577778191881],[139.9396968136571,-6.468476779679547],[139.8865701605845,-6.499725471553201],[139.7975638889623,-6.49790277779088],[139.7176744568107,-6.433649035174741],[139.7075111113488,-6.393347221696891],[139.8212555560992,-6.265588888816146],[139.8111777784318,-6.215411110933981],[139.8274028683478,-6.189528950700466],[139.8628138888499,-6.170233333401568],[139.8580416669894,-5.907888888761174],[139.8425540886005,-5.814581123819788],[139.7176883099676,-5.737670784079433],[139.7132568799011,-5.68781725406298],[139.8168861109053,-5.581866666913164],[139.7725754354081,-5.30379643325876],[139.757075000311,-5.293852777783385],[139.7753396492056,-5.286296224291291],[139.7937277651244,-5.295130914959748],[139.8615989650204,-5.294372549053853],[139.8878102393511,-5.270515135065405],[139.8877146414177,-5.245957797614213],[139.9137217849325,-5.213336226785328],[139.9432983394469,-5.221496582401278],[139.9793308103686,-5.218824618361387],[139.9675429277639,-5.145509509156446],[139.9832996966238,-5.091808221672059],[140.0231396785535,-5.116939171905146],[140.0437344618759,-5.139604806116862],[140.0392686929958,-5.182702397797348],[140.0670776363239,-5.158996581626843],[140.1203002929243,-5.151306150558346],[140.060023419845,-5.049453753288072],[140.1099011227387,-5.029330025859993],[140.1094375626934,-5.041826075113212]]]]}},{"type":"Feature","properties":{"kode":"93.03","nama":"Kabupaten Mappi","lat":-6.502428402008184,"lng":139.37838627852855},"geometry":{"type":"MultiPolygon","coordinates":[[[[138.8033490857918,-6.831734673616267],[138.796429801794,-6.827231349946742],[138.7881022765988,-6.806600232214936],[138.8117496539235,-6.830039822979454],[138.8033490857918,-6.831734673616267]]],[[[138.6388240134175,-6.732373580975962],[138.6721830768875,-6.75303806535437],[138.7362431801787,-6.759644771988586],[138.7772326872388,-6.800556136056794],[138.7987555367386,-6.83492298520754],[138.7725687185717,-6.846008240088145],[138.729122284366,-6.883204093793863],[138.6763835808376,-6.867737368884423],[138.6647608128612,-6.821051882438382],[138.6414563155567,-6.807175033001371],[138.6167732762658,-6.77040416561974],[138.6163454516814,-6.743178230291028],[138.6388240134175,-6.732373580975962]]],[[[138.7074405111708,-6.632386692391882],[138.8198131957224,-6.703273184210071],[138.8276086055528,-6.740500483610371],[138.8199938740182,-6.772354936331197],[138.8310224113553,-6.789681434950249],[138.8722383146466,-6.803853461667834],[138.9092461839643,-6.786686034233095],[138.9276951695965,-6.788138231594036],[138.9444294664468,-6.79944211526136],[138.9440775005762,-6.826329975647808],[138.8879144098222,-6.818962516306985],[138.8506487363502,-6.828611813784117],[138.8326106518601,-6.824949042364351],[138.757449053731,-6.753574688121303],[138.7157832349084,-6.732075489891879],[138.6739672329016,-6.724703703912808],[138.6685993405872,-6.655170314058693],[138.6957067128945,-6.626639440857466],[138.7074405111708,-6.632386692391882]]],[[[139.7570903607316,-5.642863876266783],[139.7132568799011,-5.68781725406298],[139.7176883099676,-5.737670784079433],[139.8425540886005,-5.814581123819788],[139.8580416669894,-5.907888888761174],[139.8628138888499,-6.170233333401568],[139.8274028683478,-6.189528950700466],[139.8111777784318,-6.215411110933981],[139.8212555560992,-6.265588888816146],[139.7075111113488,-6.393347221696891],[139.7176744568107,-6.433649035174741],[139.7975638889623,-6.49790277779088],[139.8865701605845,-6.499725471553201],[139.9396968136571,-6.468476779679547],[140.0659916671817,-6.465577778191881],[140.0680052762226,-6.882871341039535],[140.0758331767597,-6.920137215060399],[140.0522179888692,-6.929526892651942],[140.0567865538565,-6.951227577690559],[140.0409869332004,-6.974831830724407],[140.066875468728,-7.01842355580247],[140.0793842272004,-7.080649528652731],[140.0606650753331,-7.140275753922846],[140.081683647982,-7.184700290785776],[140.084810185142,-7.210137887353588],[139.7923160813222,-7.349642085613687],[139.7841863080517,-7.373289900908179],[139.659185203934,-7.372454993702941],[139.6470814299641,-7.386304617963705],[139.5892810703651,-7.37167450087746],[139.5775891768991,-7.355063151243328],[139.5491012751038,-7.347333323574005],[139.5495921952237,-7.335598786055079],[139.5315954588635,-7.338343650039362],[139.524625231869,-7.323539068073507],[138.6822342957762,-7.173243178829551],[138.7059887382896,-7.074690538037824],[138.6753993582938,-7.052765889434268],[138.6778519084389,-7.047388568627503],[138.6056272847715,-7.002262129793361],[138.5641046371194,-6.934195664598145],[138.5753421337325,-6.910237585895799],[138.628188763101,-6.875986120662939],[138.6840744570706,-6.900817007598795],[138.7253924981653,-6.900750341754839],[138.7587994352458,-6.886976773159485],[138.7982883919958,-6.850912016576308],[138.8566033067972,-6.852181453711096],[138.9042060990324,-6.838322881195928],[138.9406492543596,-6.845167680643875],[138.9518575346975,-6.826973319163335],[138.948148083967,-6.795643993175719],[138.9312244807253,-6.783661420837887],[138.9078173491914,-6.781165383075897],[138.8748364947086,-6.797870269397403],[138.8313458417373,-6.781823987187233],[138.8343105117208,-6.736590118938838],[138.8232604760901,-6.695318920831443],[138.7961862842697,-6.667806895871457],[138.6824881546047,-6.607094190644317],[138.6669239881516,-6.588846045208711],[138.6663611060802,-6.573895553636858],[138.6487614033162,-6.573338599896398],[138.6044073274363,-6.523813821550543],[138.7831944441683,-6.403058333175497],[138.8723388894283,-6.17852083336972],[138.9187344443392,-6.152730555970346],[138.9229405555623,-5.65664055561708],[139.0925266670721,-5.56250583257805],[139.137728889077,-5.646094444303155],[139.5038427780219,-5.598458333085502],[139.4933833325748,-5.50980000016981],[139.5636858334345,-5.415347221996639],[139.6946875730731,-5.363718998632797],[139.7246163461675,-5.304320555449208],[139.757075000311,-5.293852777783385],[139.7725754354081,-5.30379643325876],[139.8168861109053,-5.581866666913164],[139.7570903607316,-5.642863876266783]]]]}},{"type":"Feature","properties":{"kode":"93.04","nama":"Kabupaten Asmat","lat":-5.372607349382938,"lng":138.65747503256526},"geometry":{"type":"MultiPolygon","coordinates":[[[[137.7329868917317,-5.284033137019576],[137.7366590439798,-5.288914429557216],[137.7202888529482,-5.292890436644341],[137.7199442165524,-5.285938324693865],[137.7329868917317,-5.284033137019576]]],[[[138.078327577256,-4.56458095005077],[138.1329076552641,-4.588929172643111],[138.1245727340445,-4.605537335079893],[138.1422342831856,-4.629622475396891],[138.1538179090693,-4.67600642815407],[138.1700251978046,-4.684390529699181],[138.1926636446116,-4.713479837824222],[138.2021901225762,-4.702885566015949],[138.2111982016358,-4.709455297024315],[138.243490252773,-4.670033731871184],[138.2812337936048,-4.680646353446408],[138.301473494906,-4.665094971755471],[138.3257394358264,-4.667533952929562],[138.3391911784302,-4.706267409912959],[138.3564413497885,-4.727232543946672],[138.3466568752147,-4.744708877712503],[138.3575549613925,-4.745365084231226],[138.3559822350921,-4.756416045264247],[138.3734281978531,-4.768114950744343],[138.3605265219815,-4.795777031184992],[138.3901508116107,-4.800369391334305],[138.4005486930678,-4.811869654560821],[138.5711515349154,-4.793451828638931],[138.5764336453965,-4.787738568779856],[138.5682274270541,-4.784253016863163],[138.5752587351026,-4.775579881306482],[138.5675492806748,-4.764765230630788],[138.5696551043996,-4.749453398655382],[138.5519519139498,-4.743278697553846],[138.5357066441464,-4.720439951042879],[138.5564093362219,-4.70361799997068],[138.5723053570067,-4.707180655262968],[138.589646469609,-4.698690893270088],[138.6029532289084,-4.723862014420346],[138.6119978851943,-4.718273043566048],[138.6248597912464,-4.723066045161842],[138.6287927918539,-4.716194498976892],[138.7364787090253,-4.718854215149884],[138.7527794076437,-4.708829824836494],[138.7666428391957,-4.722919926013772],[138.8075974165876,-4.727222245809928],[138.8078612300118,-4.74489194910406],[138.7995929854281,-4.749265336026356],[138.8075925350676,-4.767000897573295],[138.8542813741861,-4.701582398009199],[138.8667134276826,-4.716542874753829],[138.8991417018282,-4.727970342357393],[138.9426941732974,-4.763774163346904],[138.9789231802606,-4.757270203357125],[138.978835373154,-4.766411659070771],[138.9897264464185,-4.771030406228219],[138.9552583947593,-4.786314149678253],[138.9451272459258,-4.802859891071057],[138.9489871847108,-4.813694825955375],[138.9325457152127,-4.831607063814916],[138.9940356316392,-4.833643669419788],[139.0121242427397,-4.842989711905668],[139.0218160268882,-4.837689400045766],[139.049302728738,-4.865220761328962],[139.0490804756835,-4.84845868262205],[139.0651793538442,-4.841797698305042],[139.0758145915702,-4.819964706805704],[139.0973307887849,-4.828100468661647],[139.0972651922349,-4.817482559072841],[139.1076938323046,-4.811677318353505],[139.0936781086578,-4.800936260100277],[139.1141710122824,-4.767042091918919],[139.1932161042399,-4.7185441289084],[139.2069538726232,-4.727352235617202],[139.1907345023955,-4.72902322993807],[139.2016627149623,-4.738879043233249],[139.1834561442857,-4.739581468609869],[139.162456539238,-4.769476270713271],[139.1682711832685,-4.835034045584655],[139.1576530686343,-4.830716413032013],[139.1616693338727,-4.842927368203467],[139.1511520206493,-4.85297885598939],[139.1378611074042,-4.899641214570385],[139.1206514163299,-4.919217781875121],[139.1241776967433,-4.924789556792566],[139.1049238646447,-4.934175810665023],[139.097847110256,-4.952599039713837],[139.0824269162692,-4.951354470632266],[139.0705895592608,-4.962755537737864],[139.0776326574214,-4.986306391726528],[139.2278623493681,-4.998566330271872],[139.4982060936363,-5.002265940620612],[139.5792210920798,-5.052696704988849],[139.666537941373,-5.062932457566818],[139.9874286010491,-5.057493846164077],[139.9826897961972,-5.090408002427329],[139.9630592416908,-5.082103683338326],[139.9288490499438,-5.090652368911622],[139.9476760413163,-5.16487743014922],[139.9188838907791,-5.205321445328329],[139.8876529973879,-5.183757305255357],[139.8729679892814,-5.14945633594113],[139.845164510234,-5.153834593591602],[139.8432162953958,-5.148438746750708],[139.8209239751613,-5.162310858559207],[139.9137217849325,-5.213336226785328],[139.8877146414177,-5.245957797614213],[139.887921370375,-5.270249405185793],[139.8793440863605,-5.281786699796313],[139.8513652224271,-5.297693159012055],[139.7641322457066,-5.287249077582849],[139.7246163461675,-5.304320555449208],[139.6946875730731,-5.363718998632797],[139.5636858334345,-5.415347221996639],[139.4933833325748,-5.50980000016981],[139.5038427780219,-5.598458333085502],[139.137728889077,-5.646094444303155],[139.0925266670721,-5.56250583257805],[138.9229405555623,-5.65664055561708],[138.9187344443392,-6.152730555970346],[138.8723388894283,-6.17852083336972],[138.7831944441683,-6.403058333175497],[138.6044073274363,-6.523813821550543],[138.422131091177,-6.348664022726406],[138.4209265068529,-6.337986890082873],[138.4329327601388,-6.32322384780231],[138.4117697572685,-6.29301811679264],[138.3838400116072,-6.20257944818288],[138.3835666806579,-6.183876892404586],[138.395530289891,-6.169813504689418],[138.3546053478587,-6.104855406751567],[138.3500490640133,-6.07378287497962],[138.2792337670248,-5.949443128697388],[138.284615163559,-5.943017609375171],[138.2523163702045,-5.91745115974314],[138.2525178453224,-5.874540336567228],[138.2673172552872,-5.863702057104162],[138.2767212168108,-5.841042824266899],[138.2314791341549,-5.824375863255486],[138.1844338667296,-5.824067458746177],[138.165927152716,-5.813721848584378],[138.1541643459079,-5.76767139322019],[138.1576198406832,-5.755175215363887],[138.1769679199337,-5.743930820950619],[138.1660768448705,-5.724099707735223],[138.1323743267138,-5.720959726610068],[138.0967835101509,-5.73515437127721],[138.0932910127702,-5.745718254993441],[138.0661004387843,-5.723997238082016],[138.0663391143587,-5.700535916099606],[138.055588158167,-5.691392221973483],[138.0461163113188,-5.648871327749542],[138.0493607729813,-5.580936713958166],[138.0656872416729,-5.556041514704083],[138.1340806131299,-5.53667396962794],[138.1280193093437,-5.531236178406899],[138.081599756024,-5.533705750919608],[138.0837211569059,-5.525271068804719],[138.0604862644296,-5.517648664254419],[138.0540258783916,-5.504569431633914],[138.0091376843567,-5.506327245605894],[137.8995625739538,-5.3867488133071],[137.8931743477181,-5.369435682210869],[137.8631156081987,-5.350093837060913],[137.8470074193569,-5.371927149618187],[137.8124523627864,-5.380561049552738],[137.7738702086433,-5.362593837935207],[137.7688221287383,-5.3482125155951],[137.7469826432344,-5.358152714076406],[137.7491327091074,-5.372666282622766],[137.7350860218025,-5.371696812557828],[137.7231832723902,-5.351513800921096],[137.7261598592902,-5.332855917166838],[137.7327425917972,-5.315383485559336],[137.7531341849947,-5.311506926403434],[137.7401696923774,-5.286748040089932],[137.7148593651676,-5.272744912347775],[137.6811826854326,-5.236973285288896],[137.6817591508642,-5.201450408009903],[137.7014991043003,-5.182339470989719],[137.7045432797485,-5.152044820412074],[137.7449161513594,-5.138335448122413],[137.7207467814388,-5.124485495609024],[137.7166494279288,-5.111057150666889],[137.7353038133203,-5.111282176331303],[137.7342711955592,-5.089411991570072],[137.7594682900296,-5.087441154285768],[137.7604776836983,-5.074856297879807],[137.7744590307598,-5.061663119357432],[137.7473472382846,-5.004905512879068],[137.7529441060857,-5.011427791159553],[137.7635158462793,-5.007813152355014],[137.7857850530378,-5.027719046896431],[137.8199598177914,-5.025905649426113],[137.8175264735679,-5.012808895314238],[137.8087944602963,-5.012305926077579],[137.8187575986843,-5.006232618140752],[137.8053480792506,-5.001639221073154],[137.8192031776846,-4.995035746602364],[137.8142307253678,-4.9923929232947],[137.8248010671155,-4.98165920261007],[137.8205027403093,-4.978718583195965],[137.8319858246862,-4.975918507133395],[137.8236185827315,-4.964354679824526],[137.8334439198011,-4.950214765199215],[137.8299643007119,-4.944316179348165],[137.8420706350518,-4.944832429772797],[137.8396564436899,-4.934717780800904],[137.8504518686589,-4.932224998584791],[137.8368838293253,-4.902150240341266],[137.8248476510983,-4.895673144899673],[137.8420927026162,-4.890397764944845],[137.8651111957252,-4.863414240075128],[137.8996326050608,-4.764608316020949],[137.8921160480172,-4.7514524503703],[137.8509489869062,-4.725187109697318],[137.8372162529278,-4.723994827199432],[137.833959383319,-4.714890626800885],[137.827963344233,-4.718224669932505],[137.8309925001039,-4.704850385936579],[137.8239431435613,-4.713379023822808],[137.8266159601585,-4.705532411091864],[137.8180406771356,-4.708863831800317],[137.819609812443,-4.703075299585338],[137.8160573824423,-4.696140543651131],[137.8171838732372,-4.702716806435417],[137.806695440842,-4.702497221669402],[137.808651368266,-4.688258962581029],[137.8015788667714,-4.69357780587101],[137.7902442928399,-4.681810654438115],[137.7836097368998,-4.684065044366273],[137.7861592681357,-4.673373072908918],[137.7678377497125,-4.646733946114681],[137.8274595772978,-4.645747539117531],[137.8076452229487,-4.618492845268543],[137.8277497714349,-4.596756158569784],[137.908532855407,-4.603416239967453],[137.9251361588067,-4.601393477626894],[137.9242371398323,-4.592853286150225],[137.9405268811108,-4.603116138898658],[137.9746636009445,-4.600074186574401],[137.9743070907997,-4.590936231022161],[137.9944871238818,-4.586033500445621],[138.0296117130102,-4.61221112394419],[138.0388743415777,-4.593675842965775],[138.0529218796411,-4.594411958744862],[138.0697376847465,-4.56565403640459],[138.078327577256,-4.56458095005077]]]]}}]}