{"type":"FeatureCollection","features":[{"type":"Feature","properties":{"kode":"94.01","nama":"Kabupaten Nabire","lat":-3.3765980498556565,"lng":135.6276187893784},"geometry":{"type":"MultiPolygon","coordinates":[[[[135.0937419433361,-3.290815808102979],[135.0931192959189,-3.290257750894446],[135.0933898983253,-3.289417374012585],[135.0938918261469,-3.290072654229517],[135.0937419433361,-3.290815808102979]]],[[[136.3785546396849,-3.253838120932498],[136.378567731116,-3.253899211879022],[136.3785186506153,-3.253806131147988],[136.3785546396849,-3.253838120932498]]],[[[134.8664050005904,-3.244059716782457],[134.8665569509426,-3.244863010119817],[134.8643707763902,-3.244239642345617],[134.8661045568798,-3.243842504428043],[134.8664050005904,-3.244059716782457]]],[[[135.0799390883184,-3.217280848832063],[135.0799744172856,-3.215879072860941],[135.0821250092618,-3.214301143982537],[135.0820371778735,-3.215531576620892],[135.0799390883184,-3.217280848832063]]],[[[134.8610508544135,-3.179916999070167],[134.8608316779397,-3.179821750073655],[134.8604745166857,-3.178987503870159],[134.8613267511287,-3.17913390990199],[134.8610508544135,-3.179916999070167]]],[[[134.891468350584,-3.162886875628759],[134.8906759912042,-3.162858322153797],[134.8906402989107,-3.162722692698042],[134.8911399856218,-3.162594202060712],[134.891468350584,-3.162886875628759]]],[[[134.8947044179746,-3.162744108253948],[134.8965247060504,-3.163969530769142],[134.8930506933349,-3.166598834568537],[134.8921750513376,-3.163236656146731],[134.8947044179746,-3.162744108253948]]],[[[135.6602504525964,-3.151882396954944],[135.6597824813765,-3.153542494190711],[135.6545779293281,-3.154649714312788],[135.6560839448183,-3.152878408711571],[135.6602504525964,-3.151882396954944]]],[[[134.83111181286,-3.123626212679545],[134.8305764347547,-3.122983757694245],[134.8313854513775,-3.122531660407704],[134.8315282187524,-3.122948066300138],[134.83111181286,-3.123626212679545]]],[[[135.76412873915,-3.104686972425766],[135.7635933610449,-3.104484717595637],[135.7643428911116,-3.10381846924688],[135.7646046315985,-3.104401437676144],[135.76412873915,-3.104686972425766]]],[[[135.5882749330418,-3.103981329274832],[135.5881083714043,-3.103945636981534],[135.588120269435,-3.103814766738003],[135.5882987282037,-3.10383856190011],[135.5882749330418,-3.103981329274832]]],[[[135.5476575339681,-3.105693351566854],[135.5466224682524,-3.105288842805789],[135.5462655489161,-3.10383737209701],[135.547562356018,-3.103968242340452],[135.5476575339681,-3.105693351566854]]],[[[135.7692802725665,-3.106138444033915],[135.7644023776677,-3.109124667169619],[135.7622013759927,-3.105912394941049],[135.7680548500514,-3.1036638047407],[135.7692802725665,-3.106138444033915]]],[[[135.5888103120463,-3.10367199936328],[135.5884652898414,-3.103612512807155],[135.5889173880271,-3.103279388632776],[135.5890363611392,-3.103434053138956],[135.5888103120463,-3.10367199936328]]],[[[135.1572774513934,-3.102161767851255],[135.158179592814,-3.102402008246033],[135.1564119501514,-3.103096184141554],[135.1566613330541,-3.10217035098084],[135.1572774513934,-3.102161767851255]]],[[[135.6263196604241,-3.099798237098897],[135.6254868477399,-3.098929733920011],[135.6254630525779,-3.098549019421684],[135.625950843057,-3.098751274251901],[135.6263196604241,-3.099798237098897]]],[[[135.6050472784092,-3.095503309729944],[135.6064273654306,-3.095681769398054],[135.6072839705788,-3.096907191913337],[135.6057016296265,-3.097049959288148],[135.6050472784092,-3.095503309729944]]],[[[135.5891315390894,-3.096640692214139],[135.5892624093329,-3.102862982740431],[135.5832661678994,-3.104397735167266],[135.5806368632008,-3.100947516714461],[135.5891315390894,-3.096640692214139]]],[[[135.5976709490552,-3.100904687401298],[135.5956840993418,-3.096300429221424],[135.6029176604218,-3.096336120615442],[135.6026559199348,-3.097728105667466],[135.5976709490552,-3.100904687401298]]],[[[135.6037268281307,-3.094672477352914],[135.603445015675,-3.094272717911542],[135.6037922699974,-3.094051793155719],[135.6038967703198,-3.094322775076],[135.6037268281307,-3.094672477352914]]],[[[135.5613251579298,-3.090952590889254],[135.560382890558,-3.088825353407268],[135.5622103165529,-3.087840255823052],[135.5625957902636,-3.089053780307685],[135.5613251579298,-3.090952590889254]]],[[[135.5884510131038,-3.086583900226783],[135.5890506378767,-3.086698114126632],[135.5891934052516,-3.087540443436668],[135.5888650393901,-3.086826604763962],[135.5878656659678,-3.086526793276859],[135.5873802559941,-3.085670187229342],[135.5884510131038,-3.086583900226783]]],[[[135.5839110015916,-3.090766992402719],[135.5719756256746,-3.090153091791661],[135.5914919635833,-3.072378517654409],[135.5934336052767,-3.078603187786813],[135.5834255916178,-3.086683837389151],[135.5839110015916,-3.090766992402719]]],[[[135.6132564186489,-3.070399995663189],[135.6258556642077,-3.077823914442027],[135.6197404496622,-3.09734739206842],[135.6127329367758,-3.09574125595409],[135.6132564186489,-3.070399995663189]]],[[[135.781150263274,-3.057797314694247],[135.7800544717365,-3.057007333121911],[135.7814155237076,-3.056074584174675],[135.7819865941061,-3.057264315295852],[135.781150263274,-3.057797314694247]]],[[[134.841409096153,-3.056246559730871],[134.8406181900775,-3.055889093606792],[134.8403428023784,-3.055135897004016],[134.8415563133732,-3.055730059294762],[134.841409096153,-3.056246559730871]]],[[[134.8434820883278,-3.055578054083854],[134.8429738022992,-3.059778474397026],[134.8357913946572,-3.063774382581633],[134.8432833597393,-3.053799804817084],[134.8434820883278,-3.055578054083854]]],[[[134.863125306188,-3.052803221091763],[134.8636318502298,-3.052847951571705],[134.8636097421959,-3.053318845588196],[134.8626148725783,-3.053128170428712],[134.863125306188,-3.052803221091763]]],[[[134.8616056102108,-3.049175562801912],[134.8623075832285,-3.049638671387525],[134.8625787827847,-3.050397951004571],[134.8610632578632,-3.049149084062977],[134.8616056102108,-3.049175562801912]]],[[[134.844835997883,-3.048134489614965],[134.8444207566126,-3.047890766145914],[134.8445159633411,-3.047129880339641],[134.8449625630719,-3.047514904389262],[134.844835997883,-3.048134489614965]]],[[[135.7973721893751,-3.043932195114676],[135.7946001173017,-3.046692370056794],[135.7921730674332,-3.046775650875569],[135.7925656781636,-3.044622238625363],[135.7973721893751,-3.043932195114676]]],[[[135.7977529029741,-3.043503892090873],[135.7968843997954,-3.043194562179321],[135.7980027463298,-3.042302263838328],[135.7981455137046,-3.042730566862131],[135.7977529029741,-3.043503892090873]]],[[[134.8579993521885,-3.042271616741646],[134.8569832270944,-3.042196055703331],[134.8574437492296,-3.041169714310834],[134.8580648785914,-3.041459037904273],[134.8579993521885,-3.042271616741646]]],[[[135.7988712504079,-3.032582166333844],[135.7918756346529,-3.039482603239454],[135.7920421962904,-3.048024867653412],[135.7734705035609,-3.057744966057266],[135.7701392582204,-3.045324179267419],[135.7988712504079,-3.032582166333844]]],[[[134.8281219744496,-3.02718378610283],[134.8277820037365,-3.026901428657938],[134.8278826900341,-3.02653905763133],[134.8282243559692,-3.026632630291617],[134.8281219744496,-3.02718378610283]]],[[[134.8354264659587,-3.021604195177455],[134.8455111009566,-3.044528843131536],[134.8416255953451,-3.04963817855908],[134.8349631631196,-3.048829796857591],[134.8407032245742,-3.04235526178587],[134.8317786556605,-3.041560274586955],[134.8374576918191,-3.031940384041468],[134.8288206136804,-3.026092742086364],[134.8354264659587,-3.021604195177455]]],[[[135.056463893394,-3.010031550915285],[135.0556705933233,-3.007472379846446],[135.0560275126597,-3.006116087087721],[135.0570461792379,-3.009133171358672],[135.056463893394,-3.010031550915285]]],[[[134.8448404522252,-3.004237121845657],[134.8446857868197,-3.004284711270413],[134.8446263002636,-3.004058663076828],[134.8448999387812,-3.003975381358684],[134.8448404522252,-3.004237121845657]]],[[[135.8736815031989,-2.997437526820404],[135.8661099310286,-2.991661236177004],[135.8661955500846,-2.989601487418694],[135.8728917932217,-2.991294131119185],[135.8736815031989,-2.997437526820404]]],[[[134.8571531476997,-2.99297683011657],[134.8562142752686,-2.991423724325395],[134.8578204113829,-2.988056787590645],[134.8587840934113,-2.98894908503218],[134.8571531476997,-2.99297683011657]]],[[[134.8501942395726,-2.988128171278051],[134.8499681895803,-2.988235247258755],[134.8501466501479,-2.987866430791078],[134.8501942395726,-2.987997301034609],[134.8501942395726,-2.988128171278051]]],[[[135.8879136702798,-2.990407627110228],[135.8832203315532,-2.988428415339042],[135.880675180915,-2.984332712984264],[135.8888600970159,-2.987778620986584],[135.8879841816249,-2.989161051641156],[135.8879136702798,-2.990407627110228]]],[[[135.888782347927,-2.98278697623793],[135.8916569813847,-2.985218098236578],[135.892716531143,-2.989459195785196],[135.8823024007353,-2.983225494660838],[135.888782347927,-2.98278697623793]]],[[[135.9056217440483,-2.977600821620532],[135.9058130676191,-2.977141471301861],[135.9063838664224,-2.977014412385229],[135.906107240357,-2.977417528995721],[135.9056217440483,-2.977600821620532]]],[[[135.8922744136333,-2.98415302933879],[135.887612846156,-2.979947331803848],[135.8884539478914,-2.976199088816836],[135.8903854434335,-2.977761704938667],[135.8917226381893,-2.981172176954397],[135.8932100871758,-2.982685877151495],[135.8922744136333,-2.98415302933879]]],[[[134.841033314436,-2.970579646233665],[134.8418304339275,-2.970888976145217],[134.8415092068844,-2.972043014973094],[134.8407358816557,-2.971507635968587],[134.841033314436,-2.970579646233665]]],[[[135.9081293929573,-2.971209240014419],[135.9045513412715,-2.977847321296759],[135.8989207569874,-2.97477754574709],[135.9059873103662,-2.969007106992352],[135.9081293929573,-2.971209240014419]]],[[[134.8473584091634,-2.956505134804102],[134.8470652481627,-2.956100626043037],[134.8471128375875,-2.955898372112101],[134.8475411406113,-2.956302879973885],[134.8473584091634,-2.956505134804102]]],[[[135.7741591387334,-2.936955843937008],[135.8066835971704,-2.942426436131099],[135.796047406163,-2.949850354909936],[135.7816707027409,-2.945838583583773],[135.773696147959,-2.958800541012144],[135.7446605662322,-2.960429438068049],[135.7565725148098,-2.965250467035377],[135.7413989257199,-2.968758232206595],[135.7309664212634,-2.982706900602919],[135.7097429776563,-2.973522146130117],[135.709921561431,-2.959570407448345],[135.7188332007917,-2.953926354917316],[135.7254447790534,-2.959334312028863],[135.7302315150725,-2.94102731315993],[135.7741591387334,-2.936955843937008]]],[[[135.7304647020844,-2.934367202084667],[135.7319875573799,-2.9375199877572],[135.726947858257,-2.939675779613518],[135.7276141084045,-2.933336895581176],[135.7304647020844,-2.934367202084667]]],[[[134.7990800318182,-2.920998594609417],[134.7989358749907,-2.920869423185282],[134.799290590988,-2.920604463125434],[134.7992994816859,-2.920752898927129],[134.7990800318182,-2.920998594609417]]],[[[134.8043855948195,-2.920558093181372],[134.8041010538207,-2.92058898399439],[134.8040483517501,-2.920528395768843],[134.8043040344037,-2.920394978645271],[134.8043855948195,-2.920558093181372]]],[[[134.8001054208286,-2.920352493772496],[134.7999307014408,-2.920556608400718],[134.79970841691,-2.920548218625354],[134.7997981863373,-2.920331621407149],[134.8001054208286,-2.920352493772496]]],[[[134.8279454033577,-2.913861069432746],[134.8278859168017,-2.913932453120152],[134.8277907388517,-2.913908658857414],[134.8277907388517,-2.913813480008079],[134.8279454033577,-2.913861069432746]]],[[[134.8040437184429,-2.911576786939099],[134.8036273116512,-2.911624376363855],[134.8034012625583,-2.911434018665007],[134.8035916202572,-2.911326943583584],[134.8040437184429,-2.911576786939099]]],[[[135.7299174259485,-2.911631452229704],[135.7371747821905,-2.914189372341605],[135.7175680237453,-2.929382231204938],[135.6727151829593,-2.942957055923292],[135.6897640212926,-2.92549181259705],[135.7299174259485,-2.911631452229704]]],[[[134.8029729604339,-2.911326943583584],[134.8025684516727,-2.911207969572141],[134.8035202365698,-2.911231764734071],[134.8033774682956,-2.911326943583584],[134.8029729604339,-2.911326943583584]]],[[[134.8020449706989,-2.911029510803223],[134.8015333859571,-2.911207969572141],[134.8011169809639,-2.911100893591348],[134.8012478512075,-2.911029510803223],[134.8020449706989,-2.911029510803223]]],[[[134.8540727610491,-2.885573401691113],[134.8536325599947,-2.885026125555237],[134.854310706374,-2.88450264458138],[134.8546914208724,-2.885049920717256],[134.8540727610491,-2.885573401691113]]],[[[134.8557145885575,-2.882456308311967],[134.8554885403639,-2.882218362087732],[134.8559287414184,-2.882111286106939],[134.8559644319131,-2.882242156350381],[134.8557145885575,-2.882456308311967]]],[[[134.8562856598554,-2.882313540037787],[134.8561547887126,-2.881920929307372],[134.8566306811611,-2.881647291689118],[134.8566663725551,-2.88193282643874],[134.8562856598554,-2.882313540037787]]],[[[134.8567734494352,-2.880814479904339],[134.8567258600105,-2.880909658753675],[134.8568686273854,-2.880386176880537],[134.8568329350919,-2.880707403923546],[134.8567734494352,-2.880814479904339]]],[[[134.8224973131006,-2.879803209350554],[134.8221641889262,-2.879767517057255],[134.8223902371199,-2.879113164940586],[134.8227828487495,-2.879244036083398],[134.8224973131006,-2.879803209350554]]],[[[134.8575348766333,-2.878970397565775],[134.8574396977839,-2.878815733059595],[134.8576300545834,-2.878803835028945],[134.8576419526141,-2.878946603303037],[134.8575348766333,-2.878970397565775]]],[[[134.8236989413531,-2.879838900744661],[134.8228661295683,-2.879136960102604],[134.8244484714199,-2.878006716436746],[134.8243294983078,-2.879267830346047],[134.8236989413531,-2.879838900744661]]],[[[135.9070961951334,-2.878344044042327],[135.9092828418298,-2.881055162765536],[135.9054063546197,-2.890347582275046],[135.9006801501689,-2.878354501359118],[135.9070961951334,-2.878344044042327]]],[[[134.8303461516536,-2.874366280579357],[134.8304608700731,-2.874959997705664],[134.829983454173,-2.873703526996144],[134.8303224428265,-2.874064690233238],[134.8303461516536,-2.874366280579357]]],[[[136.0197273367472,-2.711850444742206],[136.0480009579779,-2.720454882886505],[136.0532940419865,-2.741460327232284],[136.0440865814307,-2.743858587104045],[136.0576645303938,-2.757222274388463],[136.0497688245717,-2.771026053909223],[136.0889109586739,-2.779354168160333],[136.1432349673199,-2.772896788555881],[136.1472890049837,-2.778662023833325],[136.1385400673703,-2.786896184111567],[136.1437265547368,-2.797315742827225],[136.1465017969205,-2.783454473245309],[136.1537165756595,-2.794113214753027],[136.1628272448816,-2.788677354376359],[136.1630602493311,-2.799571774917434],[136.1807045710592,-2.792581029890576],[136.183518761082,-2.810336962880536],[136.1888989723097,-2.798247060953043],[136.204756982349,-2.800728954177847],[136.2024014807438,-2.809880261065148],[136.2174072887154,-2.806780672090239],[136.218821522995,-2.817478615046001],[136.2292255072514,-2.822462328673472],[136.2222453859159,-2.833831242317933],[136.2310447404224,-2.829216505237467],[136.229342348071,-2.841425120372934],[136.238976403838,-2.835591570794252],[136.246796906552,-2.842076308674704],[136.2393843983714,-2.855160344574228],[136.2428143568972,-2.861218900032172],[136.2513890409715,-2.862165075857506],[136.2441457923944,-2.850553794921654],[136.2535259299777,-2.856149311041792],[136.2650591110892,-2.850499424608691],[136.2606016771258,-2.86725177984575],[136.27322524395,-2.877447983837358],[136.265466855611,-2.887121420916808],[136.2800367289121,-2.871088276902414],[136.279187086315,-2.885547538987668],[136.2944566150807,-2.880694808018871],[136.2878525776344,-2.899644212410449],[136.2970088892489,-2.904249586649035],[136.2886800456477,-2.910929142865617],[136.2998002113108,-2.911919748797301],[136.3014842341101,-2.923629072024061],[136.3101774488303,-2.920592892447951],[136.3012667510598,-2.93010612789544],[136.3041610113216,-2.936259619385842],[136.3119599698767,-2.931668334825746],[136.3089372864268,-2.93695931082352],[136.3198169059256,-2.939779976864346],[136.3050314507409,-2.953846371013194],[136.2975647979771,-2.987133611926554],[136.3111144830471,-3.001142810092608],[136.3101164181383,-3.017761848930148],[136.319634837278,-3.013732646944048],[136.3188661003903,-3.024282216151322],[136.3292471042705,-3.031420315095426],[136.3228213196483,-3.036607428390051],[136.3312952319894,-3.049130356580656],[136.3254193261411,-3.054791578968155],[136.3354191460768,-3.054165935009825],[136.3240290093314,-3.066200743569405],[136.3328660912971,-3.074680292861201],[136.334844140245,-3.099209611034651],[136.3142656490406,-3.132689996645935],[136.3243633314027,-3.148919610151848],[136.3244722078262,-3.176054986448465],[136.3062693333631,-3.196875270277458],[136.3181666400784,-3.229295425343517],[136.3172743381402,-3.253387468856575],[136.2818798552713,-3.271828292241777],[136.2477852327024,-3.302510901356984],[136.2397091525555,-3.297250502308804],[136.2228498310549,-3.311257204856036],[136.2120008541562,-3.296310450866516],[136.1871327173011,-3.301883655706098],[136.1798212542476,-3.320806029174841],[136.1824415873094,-3.34579242687896],[136.1544425290994,-3.363733747014733],[136.1595126792668,-3.443797118841887],[136.1532679119846,-3.46208602694851],[136.1290950113258,-3.478492697180149],[136.1026667377798,-3.470140276052883],[136.0907614972453,-3.503925039908642],[136.0553554508935,-3.529326916304123],[136.0516144132746,-3.545336581717853],[136.0191791379069,-3.555702233271399],[135.9904085863872,-3.620631207564154],[136.0005519651012,-3.627145811929624],[136.0140774925822,-3.686940309347689],[136.0262735297996,-3.705752199304493],[136.06858398896,-3.723702241964835],[136.0778037792211,-3.736060463819316],[136.093748736615,-3.738505521712357],[136.1022675952734,-3.73131515417098],[136.1167068681275,-3.743406150573295],[136.1156582945948,-3.779724766884465],[136.1015626481977,-3.806810732629165],[136.1169175307195,-3.85693297917358],[136.1262723982527,-3.856798357857885],[136.1271047639738,-3.887456965866212],[136.1192444167965,-3.90394077994303],[136.1029080339787,-3.910981205318345],[136.0814054462045,-3.892262843955033],[136.0600142709419,-3.886097403172586],[136.0433766898824,-3.854320951350745],[136.0111962482083,-3.902740536646368],[135.969691686822,-3.89274034888796],[135.9544271546895,-3.915417158075376],[135.9211105500119,-3.911010846073617],[135.9073121070682,-3.897050229284618],[135.8501195659653,-3.891558269198717],[135.835288350577,-3.902750811400749],[135.7681438280753,-3.910220326706673],[135.7052596063458,-3.890354495163775],[135.696481089131,-3.87939964467783],[135.6839734674016,-3.883287342836608],[135.6763399400363,-3.903279199075696],[135.665089541749,-3.910174901950183],[135.6564820378159,-3.887798270273882],[135.6493767704217,-3.89108523209776],[135.6671981740566,-3.866593307734936],[135.658269238035,-3.782372734314235],[135.6259011878896,-3.768071516387364],[135.6220666837306,-3.753641294310198],[135.6072265281818,-3.742162789281236],[135.5997938203286,-3.743927174599351],[135.6023752109473,-3.752657477360602],[135.5914092349483,-3.768134404179404],[135.5692630122782,-3.779547771312577],[135.5062284733654,-3.775759814263926],[135.4840994862024,-3.762196885777572],[135.4493268998165,-3.703983833586991],[135.4233780863296,-3.723852353203474],[135.3959014487928,-3.734433752115931],[135.3785830000055,-3.732610712114662],[135.3847368008627,-3.76277072518876],[135.4014431395893,-3.786954943815582],[135.4385301699315,-3.810952313898122],[135.4665094943177,-3.842341636357352],[135.5164262529693,-3.852541301839521],[135.5301786452283,-3.874176611561333],[135.5979911814479,-3.912696298795096],[135.5691217009059,-3.946783867981088],[135.5527428808794,-3.930737476952986],[135.5300514163399,-3.932324069000506],[135.5048213841995,-3.908947176271107],[135.4953848834057,-3.889180385266469],[135.4568300542636,-3.87832899998333],[135.4447056930134,-3.864736235588742],[135.4224349178373,-3.876091282586527],[135.4118222683831,-3.893533023030551],[135.3862149598527,-3.885078161028302],[135.3623990100064,-3.862746991880142],[135.3046970461319,-3.859907509324037],[135.313731186645,-3.81943051870344],[135.2917627491517,-3.803299603993507],[135.2875582468157,-3.808741027576337],[135.3000639862641,-3.823919447824212],[135.2853838983483,-3.823565793926223],[135.2747398778431,-3.839348953391466],[135.0361577501801,-3.781416554430431],[135.0342351956978,-3.775692286869495],[135.0983686117221,-3.77433454620231],[135.1498693301057,-3.753292096552999],[135.1500416572967,-3.740375650216057],[135.1672778370026,-3.737790433881363],[135.2567175503747,-3.648883933946381],[135.2651201311892,-3.629039068298281],[135.1799952004183,-3.571945064113338],[135.1390612067094,-3.612519921657034],[135.1326064414341,-3.581067834612808],[135.0721407179199,-3.584180097733272],[135.0498558665551,-3.610671866113682],[135.0352121975849,-3.600215706789436],[135.0142539055934,-3.598845138192511],[135.0101993040547,-3.582455410288857],[134.9895836537627,-3.584225729333903],[134.9920346894494,-3.563301700612945],[135.0066636158333,-3.551445132286959],[134.9863365462947,-3.54222995644731],[134.9886969716881,-3.531227327678968],[134.976533167072,-3.513904851727448],[134.9641904270466,-3.510718277626415],[134.9574089632531,-3.490388162983285],[134.9387777830683,-3.488151469914394],[134.924908285589,-3.476458036808852],[134.9268886071236,-3.459877648134915],[134.9173788205761,-3.438847780900359],[134.8687182997098,-3.424155070100346],[134.8638681947615,-3.402837856881538],[134.8470137673715,-3.383976289274296],[134.8328663532997,-3.386207135850652],[134.8098379667488,-3.369370391830076],[134.7675348172781,-3.377905299789655],[134.7604916120982,-3.387765785962207],[134.7518573407438,-3.370430124150817],[134.7275868393613,-3.361316788439053],[134.7270025426333,-3.316689090229266],[134.7049992600078,-3.292622163881711],[134.6937015259048,-3.291159357218534],[134.6824563877522,-3.257696839337568],[134.6822228751857,-3.20296016687818],[134.6713625542385,-3.191100521971427],[134.67036032367,-3.170236026571319],[134.6470170350083,-3.166774462271585],[134.642967896851,-3.143391591748548],[134.6146056276477,-3.137482847155651],[134.608837814014,-3.127660431983317],[134.6145675557482,-3.11410147040643],[134.633197434614,-3.114661129307608],[134.6169803513621,-3.083555131963747],[134.6276022647328,-3.076416748833813],[134.6313524115846,-3.051430093024335],[134.6216922044317,-2.997723200964922],[134.6139794189152,-2.992371475762903],[134.6113499757209,-2.964388735751536],[134.6205848026466,-2.963361087644037],[134.6037382191436,-2.924433106402693],[134.6088533605941,-2.906267850580749],[134.5852578849436,-2.802683416606369],[134.5867016529589,-2.795303295710452],[134.6210654030461,-2.790393482972833],[134.6374816906277,-2.757637254855341],[134.6614293282011,-2.756301106011152],[134.6563746652587,-2.771599788099691],[134.6645600112357,-2.785138921424027],[134.6616332737566,-2.836832711660334],[134.6674867478152,-2.866825817757215],[134.6906151092999,-2.896914101804329],[134.6906115201057,-2.904257764184395],[134.6898060917778,-2.907550292811736],[134.6870160359614,-2.907942825301093],[134.6901094537883,-2.896698216849172],[134.6809723238138,-2.88976922556923],[134.6736435838843,-2.922263145727547],[134.6906195708366,-2.934564759755778],[134.6938437401965,-2.94849650381053],[134.6864079242863,-2.966306769341889],[134.691533283834,-2.971160869978087],[134.7291263878726,-2.980783409926405],[134.7401908819037,-2.990670070867088],[134.7695177387527,-2.990551097754926],[134.7779410300545,-2.982722671114304],[134.7771677057251,-2.941272460255798],[134.7973455345688,-2.951420861683365],[134.817642337424,-2.940975026576156],[134.8195934957433,-2.935859186352355],[134.8031633172334,-2.932123432250558],[134.8042102800804,-2.911517300383062],[134.8230556113275,-2.917918050577464],[134.8320499739273,-2.912754620029625],[134.8234601191892,-2.900702649707457],[134.8295881068058,-2.877828256768547],[134.8412474645989,-2.89381823422408],[134.8528354414026,-2.886156370120288],[134.8461848478526,-2.898517668555447],[134.8523476518228,-2.916482600391637],[134.8416638713907,-2.940265313093684],[134.8498373202362,-2.953852035842688],[134.8332167849268,-2.959824483013465],[134.831479778569,-2.968045520384413],[134.8527640568159,-3.00259529433731],[134.8186663810487,-3.011803807999305],[134.811004516945,-3.037620959839396],[134.8176939845898,-3.052600150576426],[134.8111837788084,-3.064578357605077],[134.8192644284107,-3.067433709597969],[134.8296406838705,-3.094132642207617],[134.838320936662,-3.095805808391264],[134.8299928233102,-3.100041249204269],[134.825331320584,-3.086591465323776],[134.8130468970967,-3.081872280081635],[134.8185497084024,-3.106018852188244],[134.8098551572897,-3.104191426193362],[134.8078160569655,-3.118685601759077],[134.8152407401681,-3.120410940312615],[134.8001861026066,-3.131276367610239],[134.8238746706795,-3.134625354776224],[134.8317479483093,-3.124819878334664],[134.8625366207685,-3.159144744434331],[134.8651950742933,-3.18406272891181],[134.8486845863247,-3.192516688894001],[134.854870275343,-3.19478517569525],[134.8510583001006,-3.206506188309868],[134.8593309540604,-3.22636015509701],[134.8668075317422,-3.204348855914921],[134.8736841725865,-3.208512912141151],[134.8696390903718,-3.222361375377128],[134.8753926263687,-3.225323804250094],[134.8636622437176,-3.230826467167683],[134.862106539785,-3.250789178177962],[134.8776639361419,-3.246846601589384],[134.8880264904302,-3.258720112243354],[134.9145903979286,-3.260521663843699],[134.934893819794,-3.272014876385379],[134.9171986809744,-3.244252989184096],[134.926407196435,-3.237757060140181],[134.9438010551746,-3.247239212319711],[134.9568642960506,-3.244824059582621],[134.9499043725888,-3.223492191911051],[134.9604572818781,-3.225645604161256],[134.9636100675507,-3.248631197371823],[134.952819212037,-3.248321866560813],[134.9532832073541,-3.270950541334352],[134.9452406287521,-3.283716349429946],[134.964684118877,-3.307843729104734],[135.0097771955613,-3.338623419135425],[135.0500915779641,-3.328938006683549],[135.0700433586142,-3.334327485425062],[135.0880063982767,-3.345650272841796],[135.0978830515616,-3.372446450942926],[135.112589486016,-3.381788483351825],[135.1635204847825,-3.370412011804794],[135.198843583065,-3.38152409436139],[135.2396521132545,-3.375870331850342],[135.3415517564086,-3.397442689028798],[135.3493372008512,-3.387835138980469],[135.4129712791013,-3.367865987924981],[135.4654883833823,-3.374771851339789],[135.5033138704389,-3.35615194595549],[135.5580461919783,-3.300514595272277],[135.5662783728487,-3.267371371791297],[135.5544554751401,-3.26315963261086],[135.5562138242088,-3.257478835579766],[135.5727427230983,-3.234142022036648],[135.5840235922151,-3.235922496226154],[135.584249641308,-3.212925005884218],[135.611662194055,-3.180206515118547],[135.6418400325915,-3.162122295407579],[135.6483047308787,-3.16844098156597],[135.6955354259192,-3.15306667638591],[135.7181932450223,-3.127696360798351],[135.7494058219212,-3.117645453075182],[135.7614756401886,-3.098857294428539],[135.7624750729663,-3.110255861418823],[135.7667580438487,-3.110730804183229],[135.7692802725665,-3.106923666394026],[135.7704242641684,-3.101937401389934],[135.7644792157432,-3.090393934732274],[135.7679017395736,-3.087620877901179],[135.7299790897632,-3.075231193264896],[135.7302333361996,-3.067650242964318],[135.7576200379345,-3.049500118235818],[135.7776126478056,-3.061336270152706],[135.8032256634336,-3.048334197565142],[135.8254771949166,-3.027619679404639],[135.8268756586848,-3.013671166590973],[135.8621311342444,-3.000947676094315],[135.8641216046284,-2.991503800859688],[135.8725631962347,-2.998056145274822],[135.8738599628671,-2.99752080763909],[135.8743779840568,-2.986977704557406],[135.880051791557,-2.992394139577817],[135.8795403138344,-2.985836193285676],[135.8835968579088,-2.989004440102841],[135.8864647257666,-2.990581906729586],[135.8940942007868,-2.990377836168159],[135.8935650963522,-2.982800391424847],[135.8908199886516,-2.977231980871212],[135.8919172703658,-2.975228746409433],[135.8977927166607,-2.973780575313237],[135.8988246959031,-2.9753761983528],[135.9048104872142,-2.978422945862194],[135.9075696666069,-2.976764563633674],[135.9130871107816,-2.963177684402554],[135.9149467522908,-2.968895529904694],[135.9237287067145,-2.960908041972557],[135.9292391964319,-2.939402921707382],[135.937796080225,-2.944404100169054],[135.9294691252001,-2.884064806045908],[135.9133315573056,-2.897711297738129],[135.9123842447372,-2.87940199480621],[135.9054467926354,-2.870034204914587],[135.9267553813558,-2.859543002607426],[135.9469066496223,-2.832849116093763],[135.9619392735786,-2.794154899229165],[135.9458069640202,-2.782762793867802],[135.9667347977728,-2.764827509981574],[135.9804720220662,-2.764859328894856],[135.9802253263378,-2.754542539306629],[136.0136907238478,-2.718185093866923],[136.0109483446904,-2.706300327298175],[136.0197273367472,-2.711850444742206]],[[135.7028956313284,-3.275667542123342],[135.6395845859599,-3.346012351588692],[135.6748059709189,-3.386699281746422],[135.7157742386902,-3.408690267941397],[135.7044785451489,-3.434725220292625],[135.71927309158,-3.432911225672422],[135.7608846309211,-3.455950787199027],[135.7563218962385,-3.470060552952139],[135.7841166860363,-3.506432938828999],[135.7774409186636,-3.51695466862301],[135.7818795639907,-3.52269523819462],[135.8013763929063,-3.532910505115685],[135.8579023592067,-3.51221359208356],[135.846480549238,-3.464787435691521],[135.8193974694178,-3.416033165897828],[135.8175106351077,-3.368880225342055],[135.8337370110543,-3.333593978579222],[135.8355627912898,-3.308344492304441],[135.8192984729462,-3.297218804803917],[135.7779203589375,-3.295024026437579],[135.7028956313284,-3.275667542123342]],[[135.2841715735593,-3.527741819829069],[135.3021401746295,-3.520334360442304],[135.2813813153955,-3.517362574123498],[135.2803479826733,-3.497645238636762],[135.2440905130668,-3.489563053891834],[135.2356107083675,-3.544181717312325],[135.2275015052903,-3.546465999805973],[135.2285675040871,-3.537328869831383],[135.2222857270048,-3.537957047179921],[135.2168299142691,-3.549037472701214],[135.2423551380792,-3.56062678859537],[135.2533066529797,-3.531276728338264],[135.2756477434487,-3.542666303007438],[135.284254097149,-3.542666303007438],[135.2841715735593,-3.527741819829069]]],[[[134.8180447219865,-2.681574176307125],[134.8473523935982,-2.687389305971591],[134.8633147447797,-2.707585859599673],[134.8378050702479,-2.7246556026739],[134.8058687108723,-2.712997178377011],[134.8066078258905,-2.685964924641462],[134.8180447219865,-2.681574176307125]]],[[[134.88301038682,-2.54793661188504],[134.8821183016183,-2.547565873566151],[134.8835201504347,-2.545596335802161],[134.884342723438,-2.546581105133841],[134.88301038682,-2.54793661188504]]],[[[134.9617988158627,-2.396135149617409],[134.960823236703,-2.394766959727315],[134.9618583024188,-2.392684931164604],[134.9624293728174,-2.395397517581335],[134.9617988158627,-2.396135149617409]]],[[[134.8654211269835,-2.276381636403338],[134.8635651484129,-2.276084203623066],[134.8643265747118,-2.274823089713765],[134.8656114837831,-2.274597040620899],[134.8654211269835,-2.276381636403338]]]]}},{"type":"Feature","properties":{"kode":"94.02","nama":"Kabupaten Puncak Jaya","lat":-3.43974741596136,"lng":137.906138274894},"geometry":{"type":"MultiPolygon","coordinates":[[[[138.1714721368297,-2.983269247577683],[138.1767847226369,-3.110052414087574],[138.1169651107514,-3.117140781421915],[138.0746586904463,-3.131349083193571],[138.071906437632,-3.198042384348534],[138.061878308837,-3.209686301681439],[138.0752275044458,-3.225730444404443],[138.0866136374095,-3.225059635593633],[138.0786651206988,-3.243097428703281],[138.1058604808766,-3.272097906293306],[138.1101101246826,-3.286930439188376],[138.1034346378984,-3.306485055840616],[138.1258426792963,-3.294573511957902],[138.1353580839085,-3.297707044044776],[138.1256136957155,-3.318886230215304],[138.1326491271555,-3.328936696371423],[138.1137056465984,-3.334529045079274],[138.1150861149323,-3.401847787845094],[138.1499470102464,-3.426092041614373],[138.1507855354242,-3.436923185856314],[138.1661781067342,-3.434523996984831],[138.1792592171392,-3.445635653262771],[138.205511818016,-3.433007733719842],[138.212615275075,-3.441189093002242],[138.230438608655,-3.441051994953595],[138.2307975811435,-3.471033214711008],[138.2555653095915,-3.473466597605393],[138.2710070873074,-3.490304555710624],[138.26650093527,-3.517999761779558],[138.27195698093,-3.526914130582595],[138.2553721972692,-3.557710200865019],[138.2614530352295,-3.595776163039391],[138.2548007716384,-3.619644472314556],[138.2806168766676,-3.650617159554217],[138.2803285414291,-3.673134959610616],[138.2886126851274,-3.685959620240256],[138.277651729144,-3.696014601892353],[138.2826577801324,-3.704193159786387],[138.3210672932211,-3.707397903790158],[138.3252126345556,-3.718703995293085],[138.3433962374465,-3.72612544363429],[138.3366385679157,-3.746969521726021],[138.3486288393495,-3.765169720706021],[138.3539400743751,-3.825646322419798],[138.3180211734386,-3.837758620164136],[138.3096414722762,-3.828481255305663],[138.2811221382762,-3.821780831220314],[138.2449665240859,-3.840880282998585],[138.2361922498725,-3.869071768247492],[138.2142469978007,-3.885222879931918],[138.1532108442052,-3.911117458004279],[138.1041537492962,-3.911686560686148],[138.0857337946789,-3.907983917823524],[138.0918199881021,-3.903726609095751],[138.0803467531002,-3.889837409268962],[138.0795268906536,-3.87326641761099],[138.0459318351861,-3.851118484430474],[138.0099784407526,-3.846020982282441],[137.9751386714127,-3.85941756766657],[137.9543044813668,-3.848496945377702],[137.9299996987273,-3.849120891416005],[137.9143148522487,-3.814078551583824],[137.889920786715,-3.809290499856635],[137.8730576152169,-3.789729084329776],[137.8795379059497,-3.766733468174957],[137.8698736806259,-3.727146125593153],[137.8627721256332,-3.718881558337175],[137.8401049517821,-3.719451166438128],[137.8295249072487,-3.694801327419286],[137.8161607819946,-3.684856501925962],[137.7894718750271,-3.708395857182969],[137.748966287764,-3.724893774428109],[137.6901308939257,-3.711536422867637],[137.6675469082633,-3.692745516792131],[137.6585449445936,-3.681719876171277],[137.6568775070914,-3.652083491559813],[137.638076972874,-3.642806025977288],[137.6336608573628,-3.611042299562397],[137.5991935998049,-3.605886290220075],[137.5943530402606,-3.593632410407357],[137.5938728652406,-3.57524423783129],[137.6236936999044,-3.565545560379205],[137.6467064490435,-3.537873833810393],[137.6452095913496,-3.526006363003178],[137.6224498053143,-3.503265484314591],[137.6062773832947,-3.461035876004795],[137.563897238367,-3.438139791418207],[137.5466111912535,-3.441025926305466],[137.5084852685804,-3.428155561230176],[137.5022745658187,-3.404363491981568],[137.4908418407784,-3.407107009680724],[137.4797202856626,-3.385802776377014],[137.464376523258,-3.380085017209725],[137.4594726028783,-3.357425014552787],[137.4671473848441,-3.352465562835397],[137.4694062111278,-3.324309033335185],[137.4598029130741,-3.299612167867208],[137.4657357559005,-3.286025429829722],[137.4579350418687,-3.279892027395073],[137.4369398623849,-3.288861586692773],[137.4350650313262,-3.26599016781193],[137.4380527617257,-3.24898347170979],[137.4489663189405,-3.22927001230118],[137.4630518065957,-3.222232810995321],[137.4642408353463,-3.209587928440063],[137.5357960189712,-3.14451721559699],[137.5491711267462,-3.121887017371952],[137.5649339804189,-3.115807941183471],[137.5675541030395,-3.100497471680866],[137.6012947794306,-3.105506020986029],[137.6233519125608,-3.09144935930046],[137.6410162352112,-3.097984734407946],[137.6571417566868,-3.084499003726007],[137.6579491617245,-3.067660616644099],[137.698709858773,-3.03953263702155],[137.710874853192,-3.040573650853309],[137.7129210401739,-3.057797649242014],[137.7249439417096,-3.065765130856038],[137.769123148015,-3.04909159130389],[137.7707270780923,-3.064245713668681],[137.7896288615828,-3.08391291464927],[137.8066060949954,-3.065714979262848],[137.8332850941318,-3.071049781022486],[137.8467106259947,-3.048873755719208],[137.8621680258337,-3.05651115736392],[137.8815371312338,-3.083251018119951],[137.8849072263874,-3.039727172071307],[137.8958585731148,-3.038024298582423],[137.8994461441244,-3.051524797031727],[137.9078956101944,-3.051074757394082],[137.8995460812866,-3.014210956770194],[137.9302637333847,-3.02564617113388],[137.9466605992074,-3.003771785639378],[137.9611208640368,-3.001248065845521],[137.9683255910533,-3.011409856379712],[137.9582724647026,-3.027971283747702],[137.9784056233209,-3.031224415774128],[138.0098620459967,-3.021981453581171],[137.9982237692116,-2.992230272309174],[138.0258223476232,-3.015566284556284],[138.0409858166422,-2.989034636639134],[138.0548404519254,-2.98304749094889],[138.0636976301416,-2.996601004432778],[138.0595542799061,-3.022670747956616],[138.0871458831761,-3.029671122923963],[138.1069773462276,-3.023097540119382],[138.1250440444472,-3.027288935735742],[138.1437069787941,-3.046795384699211],[138.1516946933555,-3.038965012825015],[138.1391971988917,-3.023353669736009],[138.1497787048235,-3.002693943670545],[138.1445378759223,-2.993760726875985],[138.1326358243839,-2.9922985794159],[138.1099677458149,-3.007232777970239],[138.1017436021856,-3.000000011890938],[138.1249777023591,-2.976981148261329],[138.1508673089792,-2.984017835154942],[138.1603952681272,-2.97077814909226],[138.1714721368297,-2.983269247577683]]]]}},{"type":"Feature","properties":{"kode":"94.03","nama":"Kabupaten Paniai","lat":-3.807472181923729,"lng":136.47224842940946},"geometry":{"type":"MultiPolygon","coordinates":[[[[137.2379046869517,-3.950848335082549],[137.2699506413092,-3.955628508748601],[137.2501549631811,-4.002877974438926],[137.1146956339964,-4.027412076106332],[137.1104156272795,-4.022862164856969],[137.1497077638024,-3.988477824791728],[137.1438071616713,-3.958596763429847],[137.1561299943039,-3.953638104914583],[137.209667867778,-3.960181621584516],[137.2379046869517,-3.950848335082549]]],[[[136.6632160405879,-3.965761889699396],[136.6371870363527,-3.96064392707556],[136.6334304512544,-3.929763673055023],[136.6596892466615,-3.929641585590707],[136.6734392404287,-3.942851944761363],[136.6632160405879,-3.965761889699396]]],[[[136.2130735196273,-3.297266402322554],[136.2228498310549,-3.311257204856036],[136.2389551960256,-3.298010397062148],[136.2536754611536,-3.380580901587285],[136.3025816219443,-3.447098774688653],[136.3136143896923,-3.47546789942397],[136.3562050110524,-3.496174616865025],[136.3837229652427,-3.49881581869507],[136.3910135163608,-3.567935989854012],[136.4083597865749,-3.553516456219421],[136.4228339189503,-3.523610524106305],[136.4358944879403,-3.557248931392978],[136.4701115136355,-3.554949873937455],[136.4794724758742,-3.579534400592069],[136.4988230714276,-3.597106915951345],[136.5135921031931,-3.587727611140304],[136.5405563816718,-3.610662433124714],[136.5774066906663,-3.611245587713688],[136.5900222814032,-3.67622260468943],[136.5670224411328,-3.713895633276801],[136.583757095014,-3.729122660082654],[136.6164912924393,-3.72885964435701],[136.6642292293955,-3.753546551631961],[136.68118288798,-3.748192765183925],[136.7143466258962,-3.774366836360324],[136.76807610263,-3.788682779786415],[136.7545614902207,-3.816674618238983],[136.7347167846519,-3.814747254182363],[136.7151562378701,-3.822900331584991],[136.7348950383754,-3.846962812583657],[136.7345143238769,-3.864094931735698],[136.723949516557,-3.875230810353594],[136.7283951433213,-3.884055870182193],[136.7854403997547,-3.880138108586786],[136.9044544040475,-3.954785004923947],[136.9457975389254,-3.955379869585299],[136.9489896834271,-3.945803734654588],[136.9361976996641,-3.935148507697386],[136.9299446361362,-3.91566253180036],[137.0104247699873,-3.915799946410361],[136.9692116357084,-3.865647319867874],[136.9682227276968,-3.833258316418123],[136.9964489078908,-3.83966275383292],[136.9934997071458,-3.852745438950825],[137.0093471501509,-3.882460007023683],[137.0217329659038,-3.942793404292091],[137.0958012438324,-4.034225333632227],[137.0821616418464,-4.038765223736076],[137.0727047120529,-4.055303429709481],[137.0396373328966,-4.044162693853151],[137.0318651300717,-4.049028095370291],[137.0281622371975,-4.077226591733821],[137.0111256674156,-4.077786197574953],[137.0158164700541,-4.124393113851069],[136.9984569708126,-4.133450850776102],[136.9891578333674,-4.118948771968148],[136.9780041059048,-4.117369055237655],[136.961784243748,-4.125102756287083],[136.9352418003689,-4.120632200315713],[136.9222781693021,-4.128494925300499],[136.8807374389817,-4.11611245232775],[136.8638332116335,-4.100821856943051],[136.8479552744164,-4.108433180047191],[136.8172021053929,-4.088526992326782],[136.7750365450006,-4.078515708732924],[136.7231268626146,-4.090734344114624],[136.7239048382378,-4.107142295880164],[136.7369754265748,-4.119985084144309],[136.7606620799911,-4.125289612925245],[136.7706248109863,-4.165361959886463],[136.7554557472849,-4.177110548413035],[136.7230022147805,-4.179172048151417],[136.6981999667552,-4.192428329403766],[136.6802052934396,-4.188710421448752],[136.6607234562226,-4.171459329184637],[136.6369288463892,-4.171161896404366],[136.5738806395799,-4.14807027762121],[136.5767359933715,-4.133222441862097],[136.6022448189433,-4.128008670863428],[136.601835629211,-4.097346978180452],[136.5755232216194,-4.081925846200798],[136.5664050628434,-4.084077300626879],[136.5715040317857,-4.063860927739585],[136.5611081414276,-4.065404750728588],[136.5569988377263,-4.050869069651844],[136.5084942655979,-4.020846281430648],[136.4318969519828,-4.016698388719567],[136.3975288365866,-4.002796126240218],[136.3932648063258,-4.010147227812213],[136.362515666265,-4.005145937834678],[136.3486131402842,-3.995427020240763],[136.3570658879804,-3.989627359814721],[136.348709174389,-3.972591478014278],[136.3149377330901,-3.995654113446514],[136.2734365036918,-3.98023698255068],[136.2142939518045,-3.998250764661007],[136.1889762348655,-3.976648842270228],[136.2069742275786,-3.953350052063234],[136.1944974723805,-3.950546251907985],[136.1677655256585,-3.962094160317145],[136.1448245810897,-3.947503673655531],[136.1433606763542,-3.929294654124929],[136.1276726246919,-3.904554978229571],[136.1262723982527,-3.856798357857885],[136.1169175307195,-3.85693297917358],[136.1015626481977,-3.806810732629165],[136.1156582945948,-3.779724766884465],[136.1166411528669,-3.743247943637654],[136.1022675952734,-3.73131515417098],[136.093748736615,-3.738505521712357],[136.0778037792211,-3.736060463819316],[136.06858398896,-3.723702241964835],[136.0262735297996,-3.705752199304493],[136.0140774925822,-3.686940309347689],[136.0005519651012,-3.627145811929624],[135.9904085863872,-3.620631207564154],[136.0191791379069,-3.555702233271399],[136.0516144132746,-3.545336581717853],[136.0553554508935,-3.529326916304123],[136.0907614972453,-3.503925039908642],[136.1026667377798,-3.470140276052883],[136.1290950113258,-3.478492697180149],[136.1512415577517,-3.465356062632077],[136.1595126792668,-3.443797118841887],[136.1546382440598,-3.363100352699069],[136.1824415873094,-3.34579242687896],[136.1798212542476,-3.320806029174841],[136.1871327173011,-3.301883655706098],[136.2130735196273,-3.297266402322554]],[[136.1788635464156,-3.728163165297785],[136.1386049660464,-3.730377608239957],[136.1816040819629,-3.758114008654514],[136.1978795950673,-3.759446507150502],[136.1993072724128,-3.746502239386798],[136.221237851146,-3.742429015586504],[136.1788635464156,-3.728163165297785]],[[136.4902954102051,-3.780029297114298],[136.4731264710099,-3.80129038724151],[136.4728207114068,-3.80890043510689],[136.503591117736,-3.788885774758624],[136.4902954102051,-3.780029297114298]],[[136.6186894963232,-3.906249540184062],[136.6024316701855,-3.927976498916211],[136.6127436645885,-3.935481350383954],[136.5813586193049,-3.955694822957659],[136.5951403150736,-3.984835678423762],[136.6451026900372,-4.004825065124676],[136.6675441727255,-3.998554000766477],[136.6773111626801,-4.008830712966985],[136.7202300141039,-3.950050327960211],[136.7266721214213,-3.90500260138891],[136.6186894963232,-3.906249540184062]]],[[[136.3785718464136,-3.253918417800675],[136.3785718841852,-3.253918593168484],[136.378560185804,-3.253893878899364],[136.378567731116,-3.253899211879022],[136.3785718464136,-3.253918417800675]]]]}},{"type":"Feature","properties":{"kode":"94.04","nama":"Kabupaten Mimika","lat":-4.524117392373519,"lng":136.84485488118645},"geometry":{"type":"MultiPolygon","coordinates":[[[[137.516279779988,-5.203745173900545],[137.5176146580902,-5.204680301554612],[137.5192065165676,-5.211654501753829],[137.5163440257562,-5.210412422894953],[137.516279779988,-5.203745173900545]]],[[[137.5147158346682,-5.178595501581087],[137.5087169213489,-5.181039471294538],[137.5096390906716,-5.196254845584638],[137.4960371136219,-5.18556738242866],[137.5095586337241,-5.172256473657269],[137.5147158346682,-5.178595501581087]]],[[[137.1844281481405,-5.028277213822355],[137.1902425709379,-5.031405832912819],[137.1953027611136,-5.042808820070979],[137.1807047678109,-5.025748084606432],[137.1844281481405,-5.028277213822355]]],[[[136.8342010061716,-4.916990867134777],[136.8373561723496,-4.919325117759923],[136.8390194154138,-4.921416664747261],[136.8322166808553,-4.920406062389818],[136.8342010061716,-4.916990867134777]]],[[[136.8818390293478,-4.913252483415301],[136.881130666647,-4.912607138008942],[136.8825338320707,-4.910953923284891],[136.882719429658,-4.91239111815556],[136.8818390293478,-4.913252483415301]]],[[[136.8207675998449,-4.908920400556019],[136.8318598118809,-4.917199970302358],[136.8041379130343,-4.899313370315708],[136.8193607211204,-4.908530887989995],[136.8207675998449,-4.908920400556019]]],[[[136.8003136746364,-4.90026444564762],[136.7914906328865,-4.894858310562514],[136.7932836562159,-4.891380338132103],[136.7975258185618,-4.895031831154009],[136.8032642063781,-4.897152110581329],[136.8003136746364,-4.90026444564762]]],[[[136.7041942620556,-4.854455117409698],[136.7009198089021,-4.85176373520815],[136.7158961361978,-4.857303120142811],[136.7036038409446,-4.856846262744765],[136.698449927922,-4.850493101975031],[136.7041942620556,-4.854455117409698]]],[[[136.7794449623152,-4.828252838997285],[136.78714578505,-4.837269137860359],[136.7935203550805,-4.833467955381801],[136.794929744712,-4.844787526822872],[136.7783249403437,-4.868267682407604],[136.7674091627028,-4.860005002828574],[136.7794449623152,-4.828252838997285]]],[[[136.462711603158,-4.733984528862914],[136.4621286347287,-4.733687096981923],[136.4622119164469,-4.732913771753092],[136.4629733427456,-4.733353971908263],[136.462711603158,-4.733984528862914]]],[[[136.4488426632584,-4.732835592788279],[136.4516630208318,-4.736019476117884],[136.4520423836492,-4.737856773970941],[136.4489193412546,-4.736268484003306],[136.4488426632584,-4.732835592788279]]],[[[136.4615786983983,-4.735116126907693],[136.4592260062752,-4.735452879846472],[136.4600974844115,-4.731250157268876],[136.4614745973749,-4.732422041344078],[136.4615786983983,-4.735116126907693]]],[[[136.4500726804099,-4.73203630772934],[136.4499865100695,-4.730878495346216],[136.4505433028312,-4.729925520646175],[136.4508431152178,-4.730910618230391],[136.4500726804099,-4.73203630772934]]],[[[136.4590939857988,-4.733707802972711],[136.4589690636713,-4.732226588086499],[136.4572654095711,-4.72788062239278],[136.4599541612556,-4.731095154617629],[136.4590939857988,-4.733707802972711]]],[[[136.457975009739,-4.727682219358867],[136.4566044411421,-4.726397310287636],[136.4562237266438,-4.725017223266173],[136.4570517792163,-4.72583575831356],[136.457975009739,-4.727682219358867]]],[[[136.4582853945554,-4.734977036860657],[136.450273035872,-4.732656944262528],[136.4541099169392,-4.723555504782675],[136.4585923457602,-4.732253744015027],[136.4582853945554,-4.734977036860657]]],[[[136.4330851578539,-4.721030295711584],[136.4349589843697,-4.720753684035264],[136.4293345325627,-4.723998673599874],[136.4294326863694,-4.720640659938427],[136.4330851578539,-4.721030295711584]]],[[[136.4444540840888,-4.720730721645408],[136.4340606470813,-4.727683666368046],[136.4298418140486,-4.724621141152666],[136.4347146133888,-4.721580843581011],[136.4356300476887,-4.722513597924108],[136.4368704052451,-4.722899066238886],[136.4453106901363,-4.719060340662187],[136.4444540840888,-4.720730721645408]]],[[[136.4283483647853,-4.723769174707629],[136.4270527492851,-4.720046508439582],[136.4297653339031,-4.718679508352588],[136.4306469249157,-4.719329101256944],[136.428476856322,-4.720938805881117],[136.4283483647853,-4.723769174707629]]],[[[136.3140714548339,-4.663330876918417],[136.3128817237126,-4.666414659409027],[136.3089984439231,-4.664396875715207],[136.3094529208157,-4.662826431894265],[136.3140714548339,-4.663330876918417]]],[[[136.2088549114251,-4.653712017895264],[136.2075462080911,-4.653726294632746],[136.2057037912969,-4.649535349576686],[136.2079602343774,-4.651427736300986],[136.2088549114251,-4.653712017895264]]],[[[136.2054967781538,-4.649635287638334],[136.2050506289834,-4.649624580310066],[136.2047972171179,-4.64878225100003],[136.205264780945,-4.648982126224135],[136.2054967781538,-4.649635287638334]]],[[[136.0905676366872,-4.600719467229533],[136.0908817249117,-4.600709948805084],[136.0902107173508,-4.601514207114901],[136.0903392079881,-4.60072898385542],[136.0905676366872,-4.600719467229533]]],[[[135.9479143201897,-4.506536126840713],[135.9480618467769,-4.507040572764234],[135.9465651662495,-4.505001374413878],[135.9466472572652,-4.504979958857971],[135.9479143201897,-4.506536126840713]]],[[[135.2054969276413,-4.461432900407994],[135.2039740732449,-4.460766651159956],[135.2038947881141,-4.458775393869344],[135.2057348738654,-4.460557135203638],[135.2054969276413,-4.461432900407994]]],[[[135.4091152181929,-4.432769701860176],[135.4084132766514,-4.43484578230702],[135.4056412036787,-4.433441900123539],[135.4058375103928,-4.432805394153563],[135.4091152181929,-4.432769701860176]]],[[[135.4024008842935,-4.428184817775074],[135.4107392292322,-4.431198761613489],[135.3491237053948,-4.437297583316793],[135.3766802431987,-4.428454554134278],[135.388766573019,-4.431308924067492],[135.4024008842935,-4.428184817775074]]],[[[134.9551653310152,-4.317092389202307],[135.0070042718297,-4.342766314114035],[135.0092028938985,-4.34243794915197],[135.0141854851721,-4.337441081140961],[135.0182400867106,-4.347606138012752],[134.9586254276214,-4.325090508919763],[134.9351437638736,-4.308537375999036],[134.9300687483741,-4.300481533296077],[134.9551653310152,-4.317092389202307]]],[[[135.0700498580146,-3.988824373146274],[135.0867070362007,-4.000604413662659],[135.1192809186795,-4.003163977735349],[135.1158110068725,-4.01180050728758],[135.1210044334079,-4.006211575104038],[135.1373701521108,-4.017982135866818],[135.1487447746517,-4.014865055078223],[135.1523253003724,-4.031887245599888],[135.1452144517856,-4.045333203764281],[135.1517245433531,-4.057240480363847],[135.139909817784,-4.051680839998697],[135.1127192572879,-4.060941946913291],[135.0914231529562,-4.050605062873361],[135.0843222688577,-4.060158006986361],[135.0903404573463,-4.081650884780499],[135.097844962575,-4.084095300557669],[135.1482232047372,-4.07662656766197],[135.1510497829211,-4.088848549420979],[135.1197250030066,-4.120450830441394],[135.1196147677074,-4.130815783221722],[135.1381263443553,-4.139233059857775],[135.1274565178041,-4.164429635419323],[135.1294996857619,-4.171263103409453],[135.1758804774022,-4.186163274315627],[135.1790743369112,-4.19507769887664],[135.190166046226,-4.190416386806797],[135.1952736162845,-4.177130031325829],[135.2208531186766,-4.172177538562474],[135.2471019172197,-4.179333803811927],[135.2776162892604,-4.166904043586664],[135.3013111912584,-4.18813409990875],[135.3032051059309,-4.207983301188348],[135.3292332189379,-4.188527364446218],[135.3448630332025,-4.200850746564624],[135.3578546358829,-4.193393260590453],[135.3942367218473,-4.21587151655716],[135.3955677742334,-4.231387902929365],[135.4160995861271,-4.237536880722439],[135.4168705209578,-4.244215973788171],[135.4594375306176,-4.251385587674664],[135.4766170143638,-4.243567793718642],[135.4836950565816,-4.21720858720647],[135.5028160732033,-4.202664860794661],[135.5843753647314,-4.218431676880366],[135.5990141683693,-4.206130695974755],[135.6193066032172,-4.232642137024969],[135.6369290876074,-4.215512046743511],[135.6829045152313,-4.195034093448571],[135.6967161836051,-4.231014883929676],[135.7086969671914,-4.242546064948874],[135.7113457907757,-4.268650023179957],[135.7218077480292,-4.261210505660243],[135.7566175924281,-4.2820066615781],[135.8047578123233,-4.282791785912179],[135.8213239773197,-4.298074440283164],[135.9028895110422,-4.281251540426181],[135.980887599683,-4.278610435722976],[136.0211187228508,-4.285563693409669],[136.0375856395657,-4.300453443871247],[136.0384785467476,-4.343276305257218],[136.0308953031757,-4.364696766942158],[136.005147203081,-4.370209648856152],[136.024306279911,-4.391747783233571],[136.0502225379398,-4.400221754930003],[136.0670107824218,-4.395656379837989],[136.075840096943,-4.402830491234136],[136.0909988463198,-4.388579558899488],[136.129930077711,-4.377458732234699],[136.152889561804,-4.342994246387358],[136.2023606200466,-4.361489587574299],[136.2371150149461,-4.340351939290501],[136.2494953547269,-4.342697363992068],[136.2524691258495,-4.32880027890972],[136.3057313013585,-4.328837105248143],[136.3168693383493,-4.346443675235337],[136.3561969135568,-4.334725519766883],[136.3624806610537,-4.34126371874555],[136.4036359626297,-4.334618826897232],[136.4284507229225,-4.31572873189541],[136.4210849444147,-4.301899917047505],[136.4331005803276,-4.286291267428036],[136.4198158373311,-4.23725999385354],[136.4428014296424,-4.217629440246442],[136.4687375545945,-4.23035955694793],[136.4913424351054,-4.253559302119994],[136.5087482026674,-4.25308964736926],[136.5235062528113,-4.27136608457708],[136.5273309660513,-4.290471663436415],[136.5366950093673,-4.293491049971879],[136.5348534981905,-4.278100537209964],[136.5604089086442,-4.238553895245969],[136.5401359009511,-4.213855089940369],[136.5366178178581,-4.204834245004355],[136.5435161593433,-4.204513548561353],[136.6435415856758,-4.209766235023674],[136.6577023196064,-4.248751200007808],[136.6556016436011,-4.269452104231133],[136.6023375012748,-4.362246218687973],[136.5919367707654,-4.359023579074853],[136.5813983747353,-4.37226566992466],[136.5958656857529,-4.380233059807795],[136.5999410724226,-4.394691772407347],[136.6434642988384,-4.377154171427813],[136.6591594146753,-4.381327746977862],[136.6738103852412,-4.401572910761134],[136.6867652020524,-4.402092778259073],[136.7153820972061,-4.38642030914991],[136.7307449657077,-4.346537048246171],[136.7273509458895,-4.331762536911546],[136.7391238134134,-4.311383956903983],[136.7851296821891,-4.314413977922696],[136.7988411813755,-4.303121812421631],[136.8027055349326,-4.284909407842877],[136.7876167995757,-4.244402589407928],[136.8268471310903,-4.235522352574497],[136.8329477982024,-4.219466076198389],[136.8457458748723,-4.208635679293129],[136.8600282007409,-4.209773241641715],[136.8748895820886,-4.184542138408956],[136.8896024970577,-4.178127103383103],[136.9066323641923,-4.182346511981885],[136.9274379782802,-4.169692936579741],[136.9293583456112,-4.136710682751746],[136.9222924703213,-4.129200124186363],[136.933642562954,-4.121382492108319],[136.961784243748,-4.125102756287083],[136.9814355114397,-4.117647570778685],[136.9977701073046,-4.133165521971163],[137.0085706440201,-4.130669450034999],[137.0196183953728,-4.112901035354424],[137.0111256674156,-4.077786197574953],[137.0281622371975,-4.077226591733821],[137.0360859236265,-4.045056069581923],[137.0727047120529,-4.055303429709481],[137.0821616418464,-4.038765223736076],[137.0949794343535,-4.032339725997572],[137.1051400575676,-4.036944591219862],[137.1122988813884,-4.028613162967057],[137.1241153309579,-4.039483665138979],[137.1518483481228,-4.03828527624446],[137.1627401489388,-4.063974548086849],[137.1844300825823,-4.075364888978397],[137.1930593321226,-4.057386507781116],[137.2131300993747,-4.066363359681249],[137.2369937249805,-4.057468426126912],[137.2667278937773,-4.069751302780292],[137.2839476113932,-4.05382096656435],[137.3254167817592,-4.07193964290016],[137.408642135726,-4.074809293214246],[137.4209116862254,-4.092092189103161],[137.4880417970914,-4.12046325007889],[137.511457364266,-4.144542210254778],[137.5616029167413,-4.148446158263555],[137.5647654672526,-4.169000696025263],[137.5801697396419,-4.18210193595552],[137.5783650161328,-4.192119310657619],[137.6197281420403,-4.1872154919014],[137.6300968207117,-4.198970979127362],[137.6642755011137,-4.203039789954291],[137.71323378661,-4.19152993635741],[137.7300370443742,-4.203370885258087],[137.7252658000767,-4.216392072935784],[137.7491526353858,-4.212031107449635],[137.8052151153853,-4.222348450120775],[137.8246285061008,-4.237765036027577],[137.8326871798695,-4.21167221410135],[137.850533313062,-4.205498938425192],[137.8658120355971,-4.231014398295743],[137.8649699068358,-4.277764626036598],[137.8971979226461,-4.262553385929982],[137.9018796079577,-4.215199412722617],[137.9687721503145,-4.219892630940139],[137.9325384830646,-4.425140861761248],[137.8648853669662,-4.423921852311599],[137.8345732947218,-4.485688386709599],[137.8415923809837,-4.493232740898259],[137.8337538918287,-4.499999983712291],[137.8269915737022,-4.535855591262441],[137.8760188650787,-4.571881523213664],[137.9242371398322,-4.592853286150225],[137.9251361588067,-4.601393477626894],[137.8277497714349,-4.596756158569784],[137.8076452229487,-4.618492845268543],[137.8274595772978,-4.645747539117531],[137.7678377497125,-4.646733946114681],[137.7861592681357,-4.673373072908918],[137.7836097368998,-4.684065044366273],[137.7902442928399,-4.681810654438115],[137.8015788667714,-4.69357780587101],[137.808651368266,-4.688258962581029],[137.806695440842,-4.702497221669402],[137.8171838732372,-4.702716806435417],[137.8160573824423,-4.696140543651131],[137.819609812443,-4.703075299585338],[137.8180406771356,-4.708863831800317],[137.8266159601585,-4.705532411091864],[137.8239431435613,-4.713379023822808],[137.8304382731079,-4.704483332139977],[137.827963344233,-4.718224669932505],[137.833959383319,-4.714890626800885],[137.8372162529278,-4.723994827199432],[137.8509489869062,-4.725187109697318],[137.8921160480172,-4.7514524503703],[137.8996527741563,-4.764046594974294],[137.8651111957252,-4.863414240075128],[137.8420927026162,-4.890397764944845],[137.8248476510983,-4.895673144899673],[137.8368838293253,-4.902150240341266],[137.8504518686589,-4.932224998584791],[137.8396564436899,-4.934717780800904],[137.8420706350518,-4.944832429772797],[137.8299643007119,-4.944316179348165],[137.8334439198011,-4.950214765199215],[137.8236185827315,-4.964354679824526],[137.8319858246862,-4.975918507133395],[137.8205027403093,-4.978718583195965],[137.8248010671155,-4.98165920261007],[137.8142307253678,-4.9923929232947],[137.8192031776846,-4.995035746602364],[137.8053480792506,-5.001639221073154],[137.8187575986843,-5.006232618140752],[137.8087944602963,-5.012305926077579],[137.8175264735679,-5.012808895314238],[137.8199598177914,-5.025905649426113],[137.7857850530378,-5.027719046896431],[137.7635158462793,-5.007813152355014],[137.7529441060857,-5.011427791159553],[137.7473472382846,-5.004905512879068],[137.7744590307598,-5.061663119357432],[137.7604776836983,-5.074856297879807],[137.7594682900296,-5.087441154285768],[137.7342711955592,-5.089411991570072],[137.7353038133203,-5.111282176331303],[137.72021419393,-5.107698954443121],[137.7157169451809,-5.114006559155351],[137.7446844608193,-5.138950915352394],[137.7050362143499,-5.151387569780466],[137.7020078291981,-5.181153500833416],[137.6837076166134,-5.197542754794229],[137.6778387389667,-5.217687214293479],[137.653903789928,-5.207776306731107],[137.6410575365761,-5.215828838130301],[137.5581853122025,-5.175538476619382],[137.5523437352752,-5.168423887752185],[137.5591980000877,-5.147930000269232],[137.5476133013128,-5.137404646207402],[137.5201919855717,-5.134699174327364],[137.4970110011568,-5.145649216138429],[137.4752382741271,-5.115639677628961],[137.4493907566781,-5.099001017383012],[137.4384928251838,-5.099857623430529],[137.4345480245718,-5.115754384357343],[137.4202855359488,-5.124134846345976],[137.4164075297838,-5.113076369678618],[137.3951621157392,-5.108052852057446],[137.3689971861712,-5.086452184220905],[137.3399980782488,-5.056446375199977],[137.3283937859445,-5.026782019874235],[137.307484569957,-5.012082107303309],[137.2956569831833,-5.010694761853765],[137.2815461841091,-5.024425144105107],[137.2469193157739,-5.002525061382437],[137.2383523137084,-4.986526546662764],[137.2118490843679,-4.977472698406229],[137.2013019586187,-4.99620003590289],[137.1864636556733,-4.998532197402897],[137.1817045747064,-5.00763855257709],[137.1656158498917,-4.985612377708984],[137.1490666982696,-4.977319955751261],[137.1583584936496,-4.980484638555163],[137.1555864215761,-4.975761409061688],[137.1262358298198,-4.960544013095694],[137.1150631446485,-4.959672907278792],[137.1078975759125,-4.974336939598059],[137.093758423013,-4.974564971696063],[137.0596034325524,-4.935308913275696],[137.0320278911743,-4.917746714938945],[137.0073955673517,-4.9359623049164],[136.9842349786615,-4.93142286537285],[136.9744926229363,-4.937561874181087],[136.9579240495554,-4.916930337365136],[136.9272307349105,-4.898850640344746],[136.927713136652,-4.885753379914506],[136.9001177526322,-4.880559723152691],[136.8307998079648,-4.913851786230941],[136.8278675558431,-4.90943900540575],[136.7967064606347,-4.89363588728631],[136.7888966481619,-4.878435357205982],[136.8080980003225,-4.83355499986329],[136.8436088761488,-4.835889628203718],[136.8450316351019,-4.827733548864169],[136.8170041619126,-4.821831989854422],[136.7872020349461,-4.832041496617714],[136.7681322742851,-4.813714022883778],[136.7535778459409,-4.870497369757734],[136.7386729023327,-4.871496744079431],[136.6970519947538,-4.842152694890858],[136.6775162971395,-4.8465229638637],[136.6430035977379,-4.821838859775498],[136.6314860666288,-4.826397926123319],[136.572792665849,-4.800535281178211],[136.5662543904278,-4.782021195421818],[136.5412648073251,-4.788304852087213],[136.532175265876,-4.780048122422878],[136.5404077471199,-4.773322290691143],[136.5182494708366,-4.76943572567812],[136.4881586659897,-4.739694755308646],[136.4645532231527,-4.74206316128585],[136.4641021555902,-4.733650220281385],[136.4550325727951,-4.72281294895838],[136.4530481017886,-4.722998547444915],[136.4492014468894,-4.728938473331803],[136.4463886256347,-4.742040262747851],[136.4363294540411,-4.735883407793009],[136.4433667102056,-4.739297933952427],[136.4447083296258,-4.733277105054315],[136.4364125765792,-4.732765441172118],[136.447510839254,-4.719224047851503],[136.4461307522325,-4.71829605811658],[136.4366751876099,-4.722645906183567],[136.4348927322139,-4.720087744153981],[136.430231129663,-4.71808741090525],[136.4271347368787,-4.718270390566007],[136.4236845193252,-4.721250665585755],[136.4151270941402,-4.699557536650969],[136.3968675066302,-4.703312047912592],[136.3683137969442,-4.678192494787739],[136.324536155919,-4.665954490707128],[136.3229378546983,-4.655493833873228],[136.3051936362774,-4.661327041709542],[136.2972360454072,-4.67511980633393],[136.2883858774064,-4.664888005377124],[136.2324526605618,-4.662489428943919],[136.2325027878734,-4.652335678348843],[136.2241389831276,-4.649242379232346],[136.2056028810682,-4.646686069806163],[136.2020997860764,-4.648594719870383],[136.204461343716,-4.654472876721874],[136.1427162545516,-4.630804460657226],[136.1319181576969,-4.622298419136753],[136.1372888666879,-4.614372580630091],[136.1298855073104,-4.608251464733273],[136.1101117753382,-4.620873162766229],[136.0944669783685,-4.600019607618735],[136.0760596178571,-4.592480525255985],[136.0765365499219,-4.583542594215276],[136.0552869243522,-4.586531873247315],[136.0679932449923,-4.586389104973223],[136.0596489708235,-4.589888630555874],[136.0372790130161,-4.577703395994861],[135.9835369529681,-4.541652381052488],[135.9856832272992,-4.535251630858086],[135.9550792737895,-4.525188375443159],[135.9561771949217,-4.521405640757672],[135.9468652160569,-4.504040468592654],[135.9260637604342,-4.491959121915892],[135.7925659263765,-4.483745406824971],[135.7188169293579,-4.49715743896453],[135.6628748586878,-4.479660270604915],[135.5996497732185,-4.473545518310987],[135.5276012727805,-4.449097612165057],[135.4139061711329,-4.435895908069634],[135.4160428721809,-4.432653485170126],[135.401921434127,-4.426619006362012],[135.3773179389717,-4.426393941127474],[135.3467071254336,-4.431846236614481],[135.3383860339883,-4.445128464207196],[135.29765777009,-4.443548538833999],[135.2110855270755,-4.465411597367266],[135.2042491443825,-4.457441446565438],[135.2003270840278,-4.464150408814207],[135.1155599746132,-4.408066513258893],[135.0975355580197,-4.407590620810511],[135.0616056970453,-4.386443161822376],[135.0702288186052,-4.380635513617984],[135.0729128506477,-4.38754546894822],[135.0697016773905,-4.378020383134087],[135.0657273880086,-4.375534358423819],[135.0400418312655,-4.375586870737427],[135.0148133495564,-4.336909701421535],[135.0078891183882,-4.342346769587715],[134.9908656706144,-4.333282451423928],[134.9333817671549,-4.28630457019972],[134.947991657589,-4.305197489972182],[134.9386160013274,-4.301373983622428],[134.91567387415,-4.270319666719205],[134.8854899382102,-4.252455060552565],[134.914370699848,-4.226933232582544],[134.9358970647978,-4.226559348435169],[134.9343189641489,-4.20645587373947],[134.9501545873644,-4.201318676415758],[134.9624893602958,-4.167916767444771],[134.9574634486793,-4.154671498390863],[134.9747603326233,-4.136137017809085],[134.9936974441817,-4.13322747356897],[135.0125938209482,-4.079578662425279],[135.0408067631217,-4.066856454361803],[135.0420416815784,-4.049404035367912],[135.0533864214463,-4.051533938440491],[135.0432099377885,-4.044201363801816],[135.0542338067448,-4.026948473792993],[135.0359659023046,-4.017918021399483],[135.0307769840707,-4.004746435599474],[135.0386051373173,-3.997412251174451],[135.0476715203244,-4.003149831399513],[135.0520359715829,-3.991326074838389],[135.0593571167376,-3.996813890848363],[135.0572156672693,-3.983864525727279],[135.0624361247274,-3.988802130214067],[135.0662068948324,-3.980411614704218],[135.0700498580146,-3.988824373146274]]],[[[135.122912376605,-3.956616835798313],[135.1228745843946,-3.956704445953354],[135.1228942930372,-3.956639040958956],[135.122912376605,-3.956616835798313]]]]}},{"type":"Feature","properties":{"kode":"94.05","nama":"Kabupaten Puncak","lat":-3.705201736487963,"lng":137.49745998911942},"geometry":{"type":"MultiPolygon","coordinates":[[[[136.8627861822366,-3.249666793687547],[136.8519390822229,-3.253258703926035],[136.8480102697582,-3.244738463908961],[136.8698440535603,-3.239733106297729],[136.8778726288188,-3.245170195148342],[136.8627861822366,-3.249666793687547]]],[[[136.9147564105799,-3.234831317311373],[136.9097974067251,-3.257164784227376],[136.9407303996883,-3.30266007820004],[136.9433953957809,-3.320743982248933],[136.9609082294313,-3.330642540320897],[136.9556183919752,-3.336121647296133],[136.9183146681875,-3.329793768267722],[136.9231654359362,-3.305760857877241],[136.9091005796282,-3.297849432805025],[136.902150515434,-3.273218811399017],[136.8878142617189,-3.261833090324798],[136.8954880238533,-3.237056952316467],[136.9097647901131,-3.230097028854731],[136.9147564105799,-3.234831317311373]]],[[[137.6224277332534,-3.040114873402613],[137.6308907853816,-3.045770532583949],[137.6301958963236,-3.064832673289144],[137.6704259987609,-3.04750044059279],[137.6832050916418,-3.050388312970201],[137.6579491617245,-3.067660616644099],[137.6571417566868,-3.084499003726007],[137.6408522384401,-3.098057410421154],[137.6233519125608,-3.09144935930046],[137.6012947794306,-3.105506020986029],[137.5651837230505,-3.102601368158522],[137.5649339804189,-3.115807941183471],[137.5432732063935,-3.127454242619157],[137.5357960189712,-3.14451721559699],[137.4482600831363,-3.230174016217793],[137.4378178462168,-3.249478874050718],[137.4363040327051,-3.288020663922422],[137.4647316250644,-3.283594386072044],[137.459854784171,-3.300455609638655],[137.4694027541339,-3.325778131655424],[137.4671473848441,-3.352465562835397],[137.4594411850627,-3.357937831365801],[137.464376523258,-3.380085017209725],[137.4797202856626,-3.385802776377014],[137.4908418407784,-3.407107009680724],[137.5022745658187,-3.404363491981568],[137.5080094642655,-3.427747892251334],[137.5466111912535,-3.441025926305466],[137.5645761419754,-3.438410560199115],[137.615848018871,-3.472321920720026],[137.6224498053143,-3.503265484314591],[137.6452095913496,-3.526006363003178],[137.6467064490435,-3.537873833810393],[137.6233518271251,-3.565794374011125],[137.5938728652406,-3.57524423783129],[137.5960358723577,-3.602836732329331],[137.6328343822011,-3.609957730664684],[137.638076972874,-3.642806025977288],[137.6568775070914,-3.652083491559813],[137.6585449445936,-3.681719876171277],[137.6675469082633,-3.692745516792131],[137.6901308939257,-3.711536422867637],[137.748966287764,-3.724893774428109],[137.7894718750271,-3.708395857182969],[137.8154372369391,-3.684516053672906],[137.8295249072487,-3.694801327419286],[137.8401049517821,-3.719451166438128],[137.8627721256332,-3.718881558337175],[137.8698736806259,-3.727146125593153],[137.8795379059497,-3.766733468174957],[137.8730576152169,-3.789729084329776],[137.889920786715,-3.809290499856635],[137.9143148522487,-3.814078551583824],[137.9299996987273,-3.849120891416005],[137.9543044813668,-3.848496945377702],[137.9854829298933,-3.859394402029961],[138.0226862938374,-3.844792558729607],[138.0538479115519,-3.854529889942418],[138.0795268906536,-3.87326641761099],[138.0611289406482,-3.876613374107832],[138.0564732412472,-3.887764832580912],[138.0240788580529,-3.884635622635793],[137.9628607131515,-3.932255902188134],[137.9696105208089,-3.972064368275932],[137.962045852734,-3.991458548573126],[137.9491147312599,-4.000162752109285],[137.9601219717516,-4.000758227410264],[137.9638391791349,-4.011004902254436],[137.9460982657225,-4.025084696301631],[137.9601529767786,-4.0293507959025],[137.9770183444211,-4.058069904402542],[137.9683512631004,-4.072780249109156],[137.9877916235846,-4.090190125673734],[137.983856958332,-4.109091688830338],[138.0055269108383,-4.120491073304303],[137.9798908923509,-4.12143111305541],[137.9587259010796,-4.13844825298442],[137.9478898870087,-4.150345602867203],[137.9540095253194,-4.165675924903914],[137.9249699434082,-4.162457052550897],[137.9255749173486,-4.190353240009939],[137.8796856978367,-4.177077479442096],[137.8426086904388,-4.193759703747249],[137.8408324520562,-4.150078613037492],[137.7358643652483,-4.120675338096261],[137.7381132890971,-4.155596400753295],[137.7293057138877,-4.157831904918455],[137.7066526836746,-4.195728389853295],[137.6615317891608,-4.202991794036029],[137.6300968207117,-4.198970979127362],[137.6197281420403,-4.1872154919014],[137.5786331409068,-4.192177848428871],[137.5801697396419,-4.18210193595552],[137.5647654672526,-4.169000696025263],[137.5616029167413,-4.148446158263555],[137.511457364266,-4.144542210254778],[137.4880417970914,-4.12046325007889],[137.4209116862254,-4.092092189103161],[137.408642135726,-4.074809293214246],[137.3254167817592,-4.07193964290016],[137.2839476113932,-4.05382096656435],[137.2667278937773,-4.069751302780292],[137.2369937249805,-4.057468426126912],[137.2131300993747,-4.066363359681249],[137.1930593321226,-4.057386507781116],[137.1844300825823,-4.075364888978397],[137.1627401489388,-4.063974548086849],[137.1518483481228,-4.03828527624446],[137.1241153309579,-4.039483665138979],[137.1146956339964,-4.027412076106332],[137.2517908416741,-4.001390809638108],[137.2699506413092,-3.955628508748601],[137.2360507849158,-3.950706065932133],[137.209667867778,-3.960181621584516],[137.1561299943039,-3.953638104914583],[137.1438071616713,-3.958596763429847],[137.1529220891832,-3.950354788042956],[137.1770141317969,-3.954667560659322],[137.1969049051373,-3.943967477317203],[137.2144739778919,-3.956960880440244],[137.241014449957,-3.931272417088374],[137.2354618323977,-3.891021896443261],[137.2550685908428,-3.879219770376066],[137.2461218167684,-3.840672501834399],[137.2070679583197,-3.812325380811624],[137.2075037428035,-3.776266462627101],[137.2352247917908,-3.735991919291662],[137.2391122992933,-3.714765213843554],[137.2619872147383,-3.705706228659514],[137.2838742770763,-3.674434173298449],[137.3509047988175,-3.616034863418152],[137.3574552636495,-3.592585980858301],[137.3485802878501,-3.579217632387779],[137.314094953919,-3.560901385790219],[137.2897352218031,-3.611881338253101],[137.2607652842905,-3.618543828934476],[137.230754332047,-3.654087028193745],[137.2249475480909,-3.64067939643691],[137.1895096513493,-3.655645008310485],[137.2080752826482,-3.558361944048441],[137.2048163194177,-3.536139679202746],[137.2312946699131,-3.533442921753396],[137.2560410637442,-3.514526206818916],[137.2862902535924,-3.469996558993918],[137.2526105710212,-3.49687191520667],[137.2280799560252,-3.505639227768123],[137.2044803084195,-3.534203122276194],[137.1709844256908,-3.550879952447852],[137.1288074394119,-3.54807465941798],[137.1141557583816,-3.563115984315138],[137.042550862932,-3.533680003729136],[137.0277602888063,-3.545679959962092],[137.0049916543414,-3.501952660286969],[136.9831266370848,-3.492332265221856],[136.9784402051514,-3.481776332411782],[136.9944110396378,-3.470745204127804],[136.9940718351471,-3.459444747776866],[137.0118343610669,-3.459489784026262],[137.0162714011043,-3.43036183832808],[137.023249305611,-3.459679638104765],[137.0489243420848,-3.456849262983022],[137.0576093747729,-3.470085015411042],[137.0982684151553,-3.449621650918358],[137.1095075008706,-3.424737247126222],[137.116917142912,-3.428806126301678],[137.1300803209501,-3.419183584554711],[137.1334781907659,-3.424094793040203],[137.1420014210289,-3.414643573941747],[137.148711501135,-3.416585213836568],[137.1450174270127,-3.430752067653733],[137.1537619462568,-3.437593018902676],[137.1486461051337,-3.451750812050294],[137.1729701449563,-3.452922696125496],[137.203238261037,-3.469034700790788],[137.2111604491954,-3.439968700395182],[137.2596346602114,-3.379711932559617],[137.2551240637247,-3.342400327113351],[137.2736184561269,-3.296927337226821],[137.2521157892123,-3.2677131690275],[137.2361436570043,-3.258998393061388],[137.2349981572393,-3.24530875639393],[137.1933728456803,-3.23868374405947],[137.175824320636,-3.253585119157856],[137.1558368476924,-3.254626132989616],[137.1291067337888,-3.236502051728321],[137.1057905048279,-3.262657533918015],[137.077742608035,-3.278867612350369],[137.0693252648491,-3.300104302071796],[137.0656528149256,-3.287113038435921],[137.0227700568927,-3.307470991592945],[137.0243463121327,-3.277370668321636],[137.0417211358218,-3.268747500896366],[137.0445193817641,-3.251287016782348],[137.0624510000137,-3.233241183733584],[137.051600657944,-3.216594474555359],[137.0579109894008,-3.216737242829451],[137.063992891259,-3.177975823225568],[137.0858717598738,-3.172670968890026],[137.0935245821938,-3.15506065862248],[137.1062140297537,-3.156458275229193],[137.1069888892259,-3.137859065943063],[137.1252155687435,-3.122938286172941],[137.1342599633268,-3.134819543587033],[137.1612218100385,-3.132004036956706],[137.1807521773711,-3.122636105871537],[137.1867790578074,-3.107133512401619],[137.1967625820277,-3.121287692073318],[137.2113500964299,-3.109791364280026],[137.2193929394326,-3.12376856276895],[137.23360574411,-3.1154300109862],[137.2509862083469,-3.123107161766006],[137.2591327323897,-3.109618850029852],[137.2898965152121,-3.113134336780179],[137.2942176371343,-3.101790323564549],[137.3164145833664,-3.102255937661338],[137.3301581397864,-3.090409726827373],[137.3484555177081,-3.090223091422464],[137.3612133937832,-3.068010823440728],[137.3802609798604,-3.096724967683054],[137.4102510111753,-3.087997685744506],[137.4265491988865,-3.104987260553552],[137.4440988256004,-3.107445873927864],[137.5203727600949,-3.082157501867202],[137.5312817658408,-3.068165195667197],[137.5504722137218,-3.070776248624954],[137.5522806037669,-3.051169490179786],[137.577514975136,-3.067667450592262],[137.6224277332534,-3.040114873402613]]]]}},{"type":"Feature","properties":{"kode":"94.06","nama":"Kabupaten Dogiyai","lat":-4.047015185782538,"lng":135.6071190841978},"geometry":{"type":"MultiPolygon","coordinates":[[[[135.0431278962355,-3.783729223125112],[135.2747398778431,-3.839348953391466],[135.2853838983483,-3.823565793926223],[135.3000639862641,-3.823919447824212],[135.2875582468157,-3.808741027576337],[135.2917627491517,-3.803299603993507],[135.313731186645,-3.81943051870344],[135.3046970461319,-3.859907509324037],[135.3623990100064,-3.862746991880142],[135.3862149598527,-3.885078161028302],[135.4118222683831,-3.893533023030551],[135.4224349178373,-3.876091282586527],[135.4447056930134,-3.864736235588742],[135.4568300542636,-3.87832899998333],[135.4953848834057,-3.889180385266469],[135.5048213841995,-3.908947176271107],[135.5300514163399,-3.932324069000506],[135.5527428808794,-3.930737476952986],[135.5691217009059,-3.946783867981088],[135.582961940741,-3.927302469633245],[135.6239156376966,-3.933341147375982],[135.6501498240552,-3.921428484736714],[135.6763399400363,-3.903279199075696],[135.6839734674016,-3.883287342836608],[135.696481089131,-3.87939964467783],[135.7052596063458,-3.890354495163775],[135.7681438280753,-3.910220326706673],[135.835288350577,-3.902750811400749],[135.8501195659653,-3.891558269198717],[135.9073121070682,-3.897050229284618],[135.9211105500119,-3.911010846073617],[135.9544271546895,-3.915417158075376],[135.969691686822,-3.89274034888796],[136.0111962482083,-3.902740536646368],[136.0407622132056,-3.854320951350745],[136.0600142709419,-3.886097403172586],[136.0814054462045,-3.892262843955033],[136.1029080339787,-3.910981205318345],[136.1192444167965,-3.90394077994303],[136.1267358180037,-3.889346374935235],[136.1220024738352,-3.869908319413343],[136.122745938874,-3.861264222066188],[136.1262723982527,-3.856798357857885],[136.1276726246919,-3.904554978229571],[136.1433606763542,-3.929294654124929],[136.1440833850403,-3.94670872692611],[136.1677655256585,-3.962094160317145],[136.1944974723805,-3.950546251907985],[136.2082880273706,-3.955519048665115],[136.1889040984455,-3.972036030638273],[136.1922959068307,-3.984943684303557],[136.1800788902286,-4.000000024281627],[136.1825561375558,-4.025247664248235],[136.1660277449845,-4.028564789333513],[136.1599428942492,-4.046221793301077],[136.1361953450393,-4.05201654342873],[136.1075625921399,-4.045583314218495],[136.0902956843984,-4.058776867758221],[136.0864492624236,-4.077260336994895],[136.1052835796735,-4.09257170312152],[136.0727481018434,-4.140218143952159],[136.0904482211085,-4.154576431057391],[136.0704537181646,-4.161493986558165],[136.0471966852789,-4.184079491175543],[136.0406808335536,-4.21408891906834],[136.0238535926692,-4.21082366957666],[136.0100244540654,-4.225513847885745],[136.0176972970927,-4.240881043025693],[136.0030065054459,-4.280726588161501],[135.9028895110422,-4.281251540426181],[135.8213239773197,-4.298074440283164],[135.8047578123233,-4.282791785912179],[135.7566175924281,-4.2820066615781],[135.7218077480292,-4.261210505660243],[135.7113457907757,-4.268650023179957],[135.7086969671914,-4.242546064948874],[135.6967161836051,-4.231014883929676],[135.6850693992335,-4.196196188403325],[135.6754420533082,-4.193945921866751],[135.6712400178126,-4.203002505860878],[135.6369290876074,-4.215512046743511],[135.6193066032172,-4.232642137024969],[135.5990141683693,-4.206130695974755],[135.5843753647314,-4.218431676880366],[135.5028160732033,-4.202664860794661],[135.4838222027325,-4.217014325550641],[135.4841727908417,-4.233116359432445],[135.473934567826,-4.24557093285223],[135.4268150991376,-4.248247760425786],[135.3955677742334,-4.231387902929365],[135.3942367218473,-4.21587151655716],[135.3578546358829,-4.193393260590453],[135.3448630332025,-4.200850746564624],[135.3292332189379,-4.188527364446218],[135.3032051059309,-4.207983301188348],[135.3013111912584,-4.18813409990875],[135.2776162892604,-4.166904043586664],[135.2471019172197,-4.179333803811927],[135.2208531186766,-4.172177538562474],[135.1952736162845,-4.177130031325829],[135.1804229278759,-4.19528589282965],[135.1592917511135,-4.17643842659208],[135.1294276617573,-4.171223693318707],[135.1381263443553,-4.139233059857775],[135.1196147677074,-4.130815783221722],[135.1197250030066,-4.120450830441394],[135.1510497829211,-4.088848549420979],[135.1482232047372,-4.07662656766197],[135.097844962575,-4.084095300557669],[135.0903404573463,-4.081650884780499],[135.0839566827548,-4.05743424739258],[135.0914231529562,-4.050605062873361],[135.1127192572879,-4.060941946913291],[135.139909817784,-4.051680839998697],[135.1517245433531,-4.057240480363847],[135.1452144517856,-4.045333203764281],[135.1523253003724,-4.031887245599888],[135.1487447746517,-4.014865055078223],[135.1373701521108,-4.017982135866818],[135.1210044334079,-4.006211575104038],[135.1158110068725,-4.01180050728758],[135.1196155141447,-4.003451104284997],[135.1059607082202,-3.997520515159605],[135.1022233578218,-4.00328419910643],[135.1016792113267,-3.997354181949911],[135.0867070362007,-4.000604413662659],[135.0661030276327,-3.980398282254852],[135.062531583266,-3.988765276895981],[135.0555639840907,-3.985383999571892],[135.0635896860153,-3.992181616088677],[135.0592775851925,-3.996874155317956],[135.0520359715829,-3.991326074838389],[135.0476715203244,-4.003149831399513],[135.0388160607128,-3.997398005913125],[135.0329115429334,-4.00258967877061],[135.0367889456533,-3.988805530550701],[135.0458526639693,-3.989553696345974],[135.0414886533787,-3.982890130075381],[135.0590703139439,-3.976485350018846],[135.0577104194005,-3.969368692710942],[135.0905112404015,-3.968629165803319],[135.0989676708214,-3.952779416936528],[135.0872483057648,-3.940624422978692],[135.0967913807177,-3.92191824473114],[135.0869771340876,-3.922999349440362],[135.0928487393779,-3.915540334618653],[135.060133663338,-3.884229888998084],[135.0596993501449,-3.869773463374562],[135.0332213782641,-3.880915235249896],[135.0334473338274,-3.867888584190807],[135.0198038917363,-3.860040865293593],[135.0222710999314,-3.848294942357613],[135.0291697606759,-3.848788767287717],[135.0270925677679,-3.831988481782991],[135.044619625995,-3.809478243226286],[135.0431278962355,-3.783729223125112]],[[135.1228942930372,-3.956639040958956],[135.1228745843946,-3.956704445953354],[135.122912376605,-3.956616835798313],[135.1228942930372,-3.956639040958956]]]]}},{"type":"Feature","properties":{"kode":"94.07","nama":"Kabupaten Intan Jaya","lat":-3.5117091423573847,"lng":136.81191419647266},"geometry":{"type":"MultiPolygon","coordinates":[[[[136.3885676059103,-3.011282640981053],[136.4055032708594,-3.014705672928455],[136.4069952389392,-3.029112861569308],[136.4207956567942,-3.033936468892831],[136.4372839234144,-3.054845391701447],[136.4535308839432,-3.048613786896651],[136.4632361516271,-3.062339359573743],[136.5332687929204,-3.056704607831387],[136.5567789399961,-3.042769981449458],[136.5752904024301,-3.050322209202497],[136.5789728411238,-3.063833229719728],[136.5576933940351,-3.084715770016702],[136.5586549077979,-3.112827699438794],[136.5425764820191,-3.153299921853916],[136.5206938956069,-3.159320914428656],[136.5172747918982,-3.184443891272506],[136.5326538445993,-3.225759026657718],[136.5612519196404,-3.241291356211098],[136.5672857500375,-3.253975326000427],[136.6181058273221,-3.236278367852277],[136.6341817727707,-3.244881460610907],[136.6656016829713,-3.22514739143889],[136.7105855342951,-3.225916647235374],[136.7203948787208,-3.235762387224364],[136.7220805256958,-3.236887750269426],[136.7252183223677,-3.238389946338918],[136.7274539353509,-3.238382300302847],[136.7148858773815,-3.224512891856415],[136.675032285112,-3.211669036996392],[136.6540310630832,-3.195404134093474],[136.6458085130525,-3.160402637871387],[136.667853189673,-3.137316701004947],[136.7317891442536,-3.183243815249861],[136.7652466034481,-3.192712906575304],[136.7374408104451,-3.238172848198387],[136.74537528694,-3.266713677793989],[136.7701610935596,-3.251378774610705],[136.8088437055726,-3.254170167719009],[136.8480102697582,-3.244738463908961],[136.8518763527116,-3.269826778183285],[136.8608869327857,-3.272222404840067],[136.8863948617335,-3.333951997786391],[136.8989214123933,-3.406745618915144],[136.9442934317965,-3.388004951667137],[136.9602461161654,-3.390538718686889],[136.9624310838275,-3.344157877583934],[136.9609082294313,-3.330642540320897],[136.9433953957809,-3.320743982248933],[136.9407303996883,-3.30266007820004],[136.9097974067251,-3.257164784227376],[136.9176003510755,-3.234188867722024],[136.9076856348842,-3.195774689849953],[136.9114927726733,-3.182449707587834],[136.900190332418,-3.170005127434619],[136.9031779800798,-3.158128771325666],[136.8835976500116,-3.146156562775085],[136.9923886855894,-3.174544793607284],[136.995630701096,-3.184627760362771],[137.0068141682393,-3.175764268006523],[137.0076898552026,-3.193315453245551],[137.0406691844354,-3.204165795315175],[137.0231801459472,-3.227365539587959],[136.950695584034,-3.283591967794999],[137.0033951580601,-3.317645424796448],[137.0656528149256,-3.287113038435921],[137.0693252648491,-3.300104302071796],[137.077742608035,-3.278867612350369],[137.1057905048279,-3.262657533918015],[137.1291067337888,-3.236502051728321],[137.1558368476924,-3.254626132989616],[137.175824320636,-3.253585119157856],[137.1933728456803,-3.23868374405947],[137.2360850571797,-3.246516421795389],[137.2361436570043,-3.258998393061388],[137.2521157892123,-3.2677131690275],[137.2736184561269,-3.296927337226821],[137.2551240637247,-3.342400327113351],[137.2596346602114,-3.379711932559617],[137.2111604491954,-3.439968700395182],[137.203238261037,-3.469034700790788],[137.1729701449563,-3.452922696125496],[137.1486461051337,-3.451750812050294],[137.1537619462568,-3.437593018902676],[137.1450174270127,-3.430752067653733],[137.148711501135,-3.416585213836568],[137.1420014210289,-3.414643573941747],[137.1334781907659,-3.424094793040203],[137.1300803209501,-3.419183584554711],[137.116917142912,-3.428806126301678],[137.1095075008706,-3.424737247126222],[137.0982684151553,-3.449621650918358],[137.0576093747729,-3.470085015411042],[137.0489243420848,-3.456849262983022],[137.023249305611,-3.459679638104765],[137.0162714011043,-3.43036183832808],[137.0118343610669,-3.459489784026262],[136.9940718351471,-3.459444747776866],[136.9944110396378,-3.470745204127804],[136.9784402051514,-3.481776332411782],[136.9905788152602,-3.49859891480804],[137.0049916543414,-3.501952660286969],[137.0277602888063,-3.545679959962092],[137.042550862932,-3.533680003729136],[137.1141557583816,-3.563115984315138],[137.1288074394119,-3.54807465941798],[137.1709844256908,-3.550879952447852],[137.2044803084195,-3.534203122276194],[137.2280799560252,-3.505639227768123],[137.2526105710212,-3.49687191520667],[137.2862902535924,-3.469996558993918],[137.2560410637442,-3.514526206818916],[137.2312946699131,-3.533442921753396],[137.2048163194177,-3.536139679202746],[137.2080752826482,-3.558361944048441],[137.1895096513493,-3.655645008310485],[137.2249475480909,-3.64067939643691],[137.230754332047,-3.654087028193745],[137.2607652842905,-3.618543828934476],[137.2897352218031,-3.611881338253101],[137.314094953919,-3.560901385790219],[137.3529246581466,-3.583281516728556],[137.3521025168178,-3.614700244320781],[137.2838742770763,-3.674434173298449],[137.2619872147383,-3.705706228659514],[137.2391122992933,-3.714765213843554],[137.2352247917908,-3.735991919291662],[137.2075037428035,-3.776266462627101],[137.2070679583197,-3.812325380811624],[137.2461218167684,-3.840672501834399],[137.2550685908428,-3.879219770376066],[137.2354618323977,-3.891021896443261],[137.2421074760792,-3.929396067074789],[137.223670026051,-3.949382485113587],[137.2142895332354,-3.956992254189087],[137.1969049051373,-3.943967477317203],[137.1770141317969,-3.954667560659322],[137.1529220891832,-3.950354788042956],[137.1410738962434,-3.963139547552055],[137.1497077638024,-3.988477824791728],[137.1099873242557,-4.019150205917279],[137.1183280164249,-4.031377770667513],[137.1008399492043,-4.036542408105584],[137.0217329659038,-3.942793404292091],[136.9947356957959,-3.838520612136501],[136.9682227276968,-3.833258316418123],[136.9692116357084,-3.865647319867874],[137.0104247699873,-3.915799946410361],[136.9299446361362,-3.91566253180036],[136.9361976996641,-3.935148507697386],[136.9489896834271,-3.945803734654588],[136.9457975389254,-3.955379869585299],[136.9044544040475,-3.954785004923947],[136.7854403997547,-3.880138108586786],[136.7283951433213,-3.884055870182193],[136.723949516557,-3.875230810353594],[136.7345143238769,-3.864094931735698],[136.7348950383754,-3.846962812583657],[136.7151562378701,-3.822900331584991],[136.7347167846519,-3.814747254182363],[136.7545614902207,-3.816674618238983],[136.76807610263,-3.788682779786415],[136.7143466258962,-3.774366836360324],[136.68118288798,-3.748192765183925],[136.6642292293955,-3.753546551631961],[136.6164912924393,-3.72885964435701],[136.583757095014,-3.729122660082654],[136.564911763767,-3.710880380025452],[136.5900222814032,-3.67622260468943],[136.5774066906663,-3.611245587713688],[136.5405563816718,-3.610662433124714],[136.5135921031931,-3.587727611140304],[136.4988230714276,-3.597106915951345],[136.4794724758742,-3.579534400592069],[136.4701115136355,-3.554949873937455],[136.4358944879403,-3.557248931392978],[136.41759631232,-3.518358104742683],[136.4222796757665,-3.498928551411476],[136.3785269477605,-3.457616186837489],[136.3688026324356,-3.435053221928611],[136.3696866543157,-3.411977408730385],[136.3444369297206,-3.377363966373872],[136.2854746532328,-3.408639383400816],[136.296662714113,-3.367573580556263],[136.3051777443575,-3.360577356859531],[136.2819147525638,-3.350594713974855],[136.2821157861146,-3.328887072680223],[136.2691069587192,-3.311956302741129],[136.2477852327024,-3.302510901356984],[136.3193563658037,-3.247736249628177],[136.3062693333631,-3.196875270277458],[136.3226876120438,-3.184264126688044],[136.3243633314027,-3.148919610151848],[136.3142656490406,-3.132689996645935],[136.3357512603125,-3.088858922401341],[136.3240290093314,-3.066200743569405],[136.3352817368628,-3.053360852921008],[136.3254193261411,-3.054791578968155],[136.3312952319894,-3.049130356580656],[136.3228213196483,-3.036607428390051],[136.3295296946398,-3.03242855313515],[136.3184663508416,-3.023068690767408],[136.325799277115,-3.018365070991161],[136.3383797403328,-3.0286080046557],[136.3476204910928,-3.022514592374462],[136.3606277761509,-3.026359023250238],[136.3885676059103,-3.011282640981053]],[[136.378560185804,-3.253893878899364],[136.3785718841852,-3.253918593168484],[136.3785186506153,-3.253806131147988],[136.378560185804,-3.253893878899364]]]]}},{"type":"Feature","properties":{"kode":"94.08","nama":"Kabupaten Deiyai","lat":-4.190358343203619,"lng":136.3950235315806},"geometry":{"type":"MultiPolygon","coordinates":[[[[136.3182608170831,-3.999122625908383],[136.3932648063258,-4.010147227812213],[136.3975288365866,-4.002796126240218],[136.4318969519828,-4.016698388719567],[136.5084942655979,-4.020846281430648],[136.5259978443252,-4.029897789651196],[136.5569988377263,-4.050869069651844],[136.5611081414276,-4.065404750728588],[136.5715040317857,-4.063860927739585],[136.5664050628434,-4.084077300626879],[136.5755232216194,-4.081925846200798],[136.6029385208961,-4.099596252764817],[136.6022448189433,-4.128008670863428],[136.5767359933715,-4.133222441862097],[136.5738806395799,-4.14807027762121],[136.6369288463892,-4.171161896404366],[136.6607234562226,-4.171459329184637],[136.6802052934396,-4.188710421448752],[136.6981999667552,-4.192428329403766],[136.7230022147805,-4.179172048151417],[136.7554557472849,-4.177110548413035],[136.7706248109863,-4.165361959886463],[136.7606620799911,-4.125289612925245],[136.7369754265748,-4.119985084144309],[136.7239048382378,-4.107142295880164],[136.7231268626146,-4.090734344114624],[136.7772660201108,-4.078223670985606],[136.8172021053929,-4.088526992326782],[136.8339345028751,-4.104049166735615],[136.8507186302606,-4.108235368767213],[136.8638332116335,-4.100821856943051],[136.8817106043609,-4.116569482395674],[136.9158895356737,-4.123113335412024],[136.9293583456112,-4.136710682751746],[136.9279523230414,-4.168903464922982],[136.9066323641923,-4.182346511981885],[136.8896024970577,-4.178127103383103],[136.8748895820886,-4.184542138408956],[136.8600282007409,-4.209773241641715],[136.8457458748723,-4.208635679293129],[136.8329477982024,-4.219466076198389],[136.8268471310903,-4.235522352574497],[136.7876167995757,-4.244402589407928],[136.8027055349326,-4.284909407842877],[136.7988411813755,-4.303121812421631],[136.7851296821891,-4.314413977922696],[136.7391238134134,-4.311383956903983],[136.7273509458895,-4.331762536911546],[136.7307449657077,-4.346537048246171],[136.7153820972061,-4.38642030914991],[136.6861517636931,-4.40228675932646],[136.680601378251,-4.396852373837914],[136.6738103852412,-4.401572910761134],[136.6591594146753,-4.381327746977862],[136.6434642988384,-4.377154171427813],[136.5999410724226,-4.394691772407347],[136.5958656857529,-4.380233059807795],[136.5813983747353,-4.37226566992466],[136.5919367707654,-4.359023579074853],[136.6023375012748,-4.362246218687973],[136.6556016436011,-4.269452104231133],[136.6577023196064,-4.248751200007808],[136.6435415856758,-4.209766235023674],[136.5435161593433,-4.204513548561353],[136.5366178178581,-4.204834245004355],[136.5401359009511,-4.213855089940369],[136.5604089086442,-4.238553895245969],[136.5348534981905,-4.278100537209964],[136.5366950093673,-4.293491049971879],[136.5273309660513,-4.290471663436415],[136.5235062528113,-4.27136608457708],[136.5087482026674,-4.25308964736926],[136.4913424351054,-4.253559302119994],[136.445014329348,-4.21720113722264],[136.4198158373311,-4.23725999385354],[136.4331005803276,-4.286291267428036],[136.4210849444147,-4.301899917047505],[136.4283226999327,-4.316102265307256],[136.4033071192282,-4.33476311322705],[136.3624806610537,-4.34126371874555],[136.3561969135568,-4.334725519766883],[136.3168693383493,-4.346443675235337],[136.3057313013585,-4.328837105248143],[136.2524691258495,-4.32880027890972],[136.2494953547269,-4.342697363992068],[136.2371150149461,-4.340351939290501],[136.2023606200466,-4.361489587574299],[136.152889561804,-4.342994246387358],[136.129930077711,-4.377458732234699],[136.0909988463198,-4.388579558899488],[136.0776439310227,-4.402777550843309],[136.0231137959649,-4.390990645801621],[136.0051085259377,-4.367739121263428],[136.0308953031757,-4.364696766942158],[136.0403984617197,-4.330325594750375],[136.0342000886632,-4.294229766590421],[136.0030065054459,-4.280726588161501],[136.0176972970927,-4.240881043025693],[136.0096115231534,-4.226412658217596],[136.0238535926692,-4.21082366957666],[136.0406808335536,-4.21408891906834],[136.0471966852789,-4.184079491175543],[136.0704537181646,-4.161493986558165],[136.0904482211085,-4.154576431057391],[136.0727481018434,-4.140218143952159],[136.1052835796735,-4.09257170312152],[136.0864492624236,-4.077260336994895],[136.0902956843984,-4.058776867758221],[136.1075625921399,-4.045583314218495],[136.1361953450393,-4.05201654342873],[136.1599428942492,-4.046221793301077],[136.1660277449845,-4.028564789333513],[136.1825561375558,-4.025247664248235],[136.1800788902286,-4.000000024281627],[136.1925300929895,-3.982489688947924],[136.2168041242111,-3.998738388765569],[136.2734365036918,-3.98023698255068],[136.3182608170831,-3.999122625908383]]],[[[136.3566612623075,-3.990016935333232],[136.3467114033087,-3.999496278030692],[136.3366369288512,-3.996518141598917],[136.3358079068095,-3.986590664027892],[136.3501512309946,-3.972839875259984],[136.3566612623075,-3.990016935333232]]]]}}]}