{"type":"FeatureCollection","features":[{"type":"Feature","properties":{"kode":"15.01","nama":"Kabupaten Kerinci","lat":-2.0323166508492956,"lng":101.46532454444025},"geometry":{"type":"MultiPolygon","coordinates":[[[[101.4263594005659,-1.67737771500949],[101.4454444443058,-1.711188889255746],[101.6176361112176,-1.874008332618418],[101.6363055557568,-1.897877777737181],[101.6412361113575,-1.924841666809376],[101.6660027777061,-1.972761111236279],[101.6963138885752,-1.988399999660187],[101.698252778343,-1.996963889172124],[101.7303722217008,-2.001205555991595],[101.7265277782344,-2.020841667408993],[101.7506722216458,-2.037783332634627],[101.7603555557643,-2.074133332587172],[101.7933666670381,-2.105369443844721],[101.7833882077996,-2.139386999010709],[101.8007834362067,-2.143367946073818],[101.824742235266,-2.178062298636155],[101.8368295273608,-2.181870296177182],[101.8293870034075,-2.189910348583693],[101.8122642569899,-2.177521148682063],[101.7994222223578,-2.191944444180718],[101.784033332872,-2.19458333295435],[101.7718055558818,-2.222430555925373],[101.7787027777111,-2.2283611108765],[101.7396666673828,-2.26241666689562],[101.7114444442057,-2.3180833327795],[101.6774166673454,-2.328833332991811],[101.6586666669332,-2.347291667076748],[101.6519722224402,-2.3402222223776],[101.6378833326497,-2.350305556056556],[101.6137083329733,-2.332511111398608],[101.6003083328633,-2.333444444005897],[101.5868333328921,-2.348861110851511],[101.5883611110765,-2.360055556019061],[101.5545555557943,-2.3519444436811],[101.5531666671081,-2.404722221852998],[101.5619999998002,-2.428138888898593],[101.5569978707552,-2.451949465295547],[101.4056389513766,-2.356726338649542],[101.3786614096964,-2.355209530395522],[101.3699939281773,-2.347300451654435],[101.3812887412824,-2.3452148392934],[101.3848640779149,-2.333838767045362],[101.3551508633218,-2.327473585037845],[101.2928694436699,-2.288666666933084],[101.2809999997502,-2.262683332969376],[101.2797222106115,-2.251000000149775],[101.3697221998197,-2.191111110789093],[101.3686111000223,-2.174444443855952],[101.3922221995948,-2.180555555694299],[101.4122222081885,-2.165555556443691],[101.4091667003829,-2.11888888921086],[101.4175000001249,-2.104999999650195],[101.4445610996151,-2.103313888624994],[101.4538139003913,-2.093224999833845],[101.442868099783,-2.067123888856306],[101.4449392231666,-2.044836842246392],[101.4294412144406,-2.027001994646296],[101.2891169001249,-2.026401110822531],[101.2715799997173,-2.031951944126911],[101.2396830558285,-2.066693056039595],[101.1383333328171,-1.898888889110919],[101.1316666665834,-1.684719443847163],[101.1691772641195,-1.710604866821066],[101.1910111180687,-1.676018618164646],[101.1967719961308,-1.710155880289646],[101.2159480521609,-1.72508339778055],[101.2262341047202,-1.718405940581638],[101.2422708810963,-1.7210593713928],[101.2666911510758,-1.695770875225636],[101.3104228025703,-1.700952732882291],[101.3305628266132,-1.695215842437106],[101.3365027776811,-1.680705556416198],[101.3731888893558,-1.675272222235227],[101.3953805556681,-1.689975000046198],[101.411059854229,-1.672682852831356],[101.4263594005659,-1.67737771500949]]]]}},{"type":"Feature","properties":{"kode":"15.02","nama":"Kabupaten Merangin","lat":-2.193116201687171,"lng":102.0683378414467},"geometry":{"type":"MultiPolygon","coordinates":[[[[102.4751338608391,-1.650116359882039],[102.5123584712665,-1.658982669814327],[102.5302541651976,-1.652589982042032],[102.5166388889736,-1.670777777572299],[102.5235000003248,-1.685916667220313],[102.4935277782844,-1.6965277779345],[102.4896388894232,-1.705805555581888],[102.5142919471157,-1.707558614838137],[102.5136675379266,-1.717694881713408],[102.5067138890348,-1.758830555585591],[102.4866833331693,-1.759705556366312],[102.4968833331994,-1.797016667185394],[102.4816169790404,-1.803284375273664],[102.4568520097125,-1.850329542874077],[102.4725131212835,-1.856396210216873],[102.4858750000313,-1.884261111161292],[102.4582472224314,-1.885286110765419],[102.4583027780508,-1.945149999872589],[102.466900000035,-1.945774999916219],[102.476597222384,-1.974908332553474],[102.5087666671481,-1.972936111212478],[102.5155166672604,-1.982050000007421],[102.4944750000212,-2.008644443985899],[102.5088277778797,-2.018838888903554],[102.5472249999339,-2.018061111131322],[102.5474444444056,-2.077916667120475],[102.5797666668982,-2.090113888744918],[102.5924999995753,-2.086941666924316],[102.6257777778222,-2.112241667219086],[102.6290833331294,-2.185444443905896],[102.6136576658686,-2.209179267708963],[102.6015833330045,-2.202638888773636],[102.5460972222091,-2.213888888661211],[102.5475055560367,-2.204858332845719],[102.5304444437561,-2.203361110926474],[102.5158583331956,-2.213247222381368],[102.5115083331432,-2.19318611115005],[102.462524999729,-2.182019444241925],[102.4583138891746,-2.20450277778095],[102.4108305556857,-2.273330555960376],[102.3955138889549,-2.329102777970762],[102.3371194444069,-2.361033333121812],[102.3381972216246,-2.389924999938733],[102.3031416671543,-2.393472221965423],[102.303508333343,-2.361352777708506],[102.2761055562266,-2.35749444421314],[102.2655305559905,-2.362436110937763],[102.2660055563114,-2.380863888757359],[102.2572388885639,-2.393841667059229],[102.2398250001237,-2.403527778284323],[102.1693250000488,-2.415050000257304],[102.1554027780158,-2.408361110876525],[102.1483250001987,-2.421708333372832],[102.1339194438273,-2.410944444030763],[102.1243638889824,-2.43045833308553],[102.1376805561129,-2.463313888625043],[102.1576944439435,-2.485424999963717],[102.151344981186,-2.49346498132377],[102.1557805562278,-2.522899999635245],[102.1353194436375,-2.52523333295194],[102.1224305561254,-2.547963889222052],[102.0942888888212,-2.572602778095659],[102.1041694442646,-2.601386110780338],[102.0639638888225,-2.621613888869836],[102.081900000085,-2.650341666834402],[102.0872805557531,-2.68504166713919],[102.0785055557868,-2.702930555900343],[102.0821388887987,-2.724208332948111],[102.0730211113353,-2.764895556284833],[102.063888894357,-2.768519443717279],[102.0326500752408,-2.758003707904757],[101.9944860653797,-2.723577550263714],[101.9640144453104,-2.721816967279159],[101.9537759812766,-2.730701136847882],[101.9064298555534,-2.740289540329924],[101.8590024742848,-2.730511536378247],[101.8473555442231,-2.704888290062504],[101.8121168086439,-2.692022495341886],[101.8133085884207,-2.675716792895669],[101.7731131359625,-2.649118454852742],[101.7486816694235,-2.616073676558875],[101.7352199848145,-2.610629413816381],[101.6700242626097,-2.528315413025853],[101.6556687436177,-2.526202713984008],[101.6469741754179,-2.53809341697753],[101.609676913259,-2.549875776845559],[101.6041513931723,-2.53584528902884],[101.5908251383695,-2.531294859769931],[101.5905271938749,-2.544214826952709],[101.568804315367,-2.547790163585153],[101.5643351443515,-2.570623563626453],[101.542016375955,-2.571381968203282],[101.5401203640636,-2.549929949307719],[101.5607327210383,-2.458948465199454],[101.5545555557943,-2.3519444436811],[101.5883611110765,-2.360055556019061],[101.5868333328921,-2.348861110851511],[101.6003083328633,-2.333444444005897],[101.6137083329733,-2.332511111398608],[101.6378833326497,-2.350305556056556],[101.6519722224402,-2.3402222223776],[101.6586666669332,-2.347291667076748],[101.6774166673454,-2.328833332991811],[101.7114444442057,-2.3180833327795],[101.7396666673828,-2.26241666689562],[101.7787027777111,-2.2283611108765],[101.7718055558817,-2.222430555925373],[101.784033332872,-2.19458333295435],[101.7994222223578,-2.191944444180718],[101.8122642569899,-2.177521148682063],[101.8293870034075,-2.189910348583693],[101.8367415161081,-2.183094549573708],[101.824742235266,-2.178062298636155],[101.8008858869742,-2.14345055509895],[101.7833882077996,-2.139386999010709],[101.7933666670381,-2.105369443844721],[101.7603555557643,-2.074133332587172],[101.7506722216458,-2.037783332634627],[101.7265277782344,-2.020841667408993],[101.7303722217008,-2.001205555991595],[101.698252778343,-1.996963889172124],[101.6963138885751,-1.988399999660187],[101.666002777706,-1.972761111236279],[101.6290916673466,-1.888697222199001],[101.6606944438935,-1.871777778321773],[101.6751388887487,-1.880611111013922],[101.7345000001749,-1.877250000087363],[101.7881944438186,-1.8291111111888],[101.8287222218531,-1.820722221653151],[101.8829722216907,-1.846944444330559],[101.9213055559067,-1.839444443805929],[101.9471666666084,-1.859861111001385],[101.9773888893858,-1.870777778071966],[101.9961833333941,-1.909249999987475],[102.0101111114386,-1.900388889035989],[102.0350416666397,-1.904638888973478],[102.0579527779984,-1.877361111326151],[102.086275000391,-1.868738889088453],[102.1105999997902,-1.872663889326967],[102.1305000001749,-1.853944444280645],[102.1431944443682,-1.81335833262091],[102.1337333327271,-1.790694443993315],[102.1681388886988,-1.780611111213728],[102.1844722219155,-1.786222221578251],[102.1940833332793,-1.767861111401173],[102.2831277784242,-1.726497221969206],[102.2928888886114,-1.712822221768098],[102.3037555560742,-1.716247222331349],[102.3270833332293,-1.701888889360673],[102.3446111109141,-1.67597222214029],[102.3617500001624,-1.677666667182878],[102.3915194439673,-1.699841667259053],[102.4305555560941,-1.696694443893401],[102.4615546204494,-1.674272052013562],[102.4564166667958,-1.655583333204261],[102.4751338608391,-1.650116359882039]]]]}},{"type":"Feature","properties":{"kode":"15.03","nama":"Kabupaten Sarolangun","lat":-2.3062600654812617,"lng":102.67254936960893},"geometry":{"type":"MultiPolygon","coordinates":[[[[102.5264674869849,-1.912815753444155],[102.5477499998627,-1.917861111101329],[102.5671666668083,-1.907944444280643],[102.6156111111639,-1.905388889385653],[102.6278611113013,-1.921416667145406],[102.6613888893858,-1.928333333216672],[102.7126388893733,-1.953416667045429],[102.8018055559816,-1.932416667195438],[102.800833333092,-1.990611110614251],[102.8880277783593,-1.979944444280671],[102.9074722217657,-1.96425000023728],[102.9419444435813,-1.972916666970528],[102.955388889086,-1.950888888611216],[102.9656111113638,-1.95755555574422],[102.9793611114262,-1.943500000224743],[103.0795833328047,-1.953555555644362],[103.0794444442058,-1.980249999737607],[103.0871944436687,-1.980166666758246],[103.094166667158,-1.965694443643587],[103.1328611106518,-1.970138888698683],[103.1327777776724,-1.95816666665827],[103.1690277784093,-1.958388889135934],[103.1767777778722,-1.923583332704551],[103.1994444436063,-1.909611111063894],[103.1995555557444,-1.956083333179206],[103.1808333326922,-1.975861111201274],[103.2058611109016,-2.013916667320339],[103.1915833329045,-2.040916666870698],[103.2100833325798,-2.059194444068238],[103.2309166673704,-2.131305556206422],[103.2258250000238,-2.165433333181779],[103.1869694438848,-2.184194443818457],[103.1673638887326,-2.229383333374082],[103.1749861107205,-2.245561110856523],[103.1982222217782,-2.260555555894131],[103.2113055562066,-2.32027777839672],[103.1540416673891,-2.335583333104266],[103.1186111109141,-2.354083332779469],[103.0671166671005,-2.339861111301181],[103.0551805564376,-2.317341667284081],[103.0392975002795,-2.322185833109616],[103.0413250002486,-2.330553611060251],[103.0293255557299,-2.341625000193551],[102.9897444436512,-2.339524999578993],[102.9723416672342,-2.330222221678094],[102.9635333329969,-2.335697222348879],[102.9407138886351,-2.336177777782192],[102.9286222222379,-2.326877777887118],[102.9150013891029,-2.332477644927325],[102.8927694439548,-2.317338889278256],[102.8776166669757,-2.324555555694266],[102.8675416673142,-2.31451666741023],[102.8700111112239,-2.327577777792181],[102.8645027780808,-2.32299444413824],[102.8652083330982,-2.331894443573715],[102.8559361105631,-2.333536111002646],[102.8599944442882,-2.342388888836114],[102.8484305558255,-2.350094443803455],[102.8531999996803,-2.370244444025873],[102.8435277775849,-2.373966666928043],[102.8449166671706,-2.38778333283445],[102.8524083327784,-2.397400000209851],[102.8671472219668,-2.397708332773243],[102.8792472223815,-2.424350000152378],[102.8494888888013,-2.443083333429088],[102.8477194438973,-2.455113889094632],[102.8157111108791,-2.485411110834049],[102.8083499998527,-2.513294444283146],[102.7929138887651,-2.520530555840386],[102.7969741551333,-2.526444291670662],[102.7866750003511,-2.546694443993383],[102.7437277780146,-2.561247222081578],[102.7348083334379,-2.579433333181738],[102.7253833331744,-2.579602778045745],[102.7226166669257,-2.554813889449361],[102.7076249998939,-2.583775000116153],[102.6803249999988,-2.590900000434607],[102.6726833328696,-2.609138889148335],[102.6364805564326,-2.611749999662718],[102.6311388892484,-2.620088888691255],[102.6245138886051,-2.615350000202257],[102.6141499997227,-2.622188889305724],[102.615797222264,-2.652719443747278],[102.5806416667795,-2.678316667280336],[102.5388416673092,-2.675180555937898],[102.510405555672,-2.689963888722405],[102.5069972222441,-2.702958333260399],[102.4971444441608,-2.694444444255664],[102.4690888887413,-2.704300000344675],[102.4055638892621,-2.689069443699823],[102.3730568839681,-2.656167332056627],[102.3496027781458,-2.646608332808301],[102.3344166668957,-2.656636110867774],[102.3052222217282,-2.649336110573033],[102.298177778182,-2.632933332607193],[102.2713078511764,-2.624472787788859],[102.2428375410197,-2.646989603087649],[102.2360871658901,-2.691214928426147],[102.1941854899684,-2.708402795652434],[102.1684444441558,-2.707194444068309],[102.1094444438061,-2.738722221653214],[102.0970118408239,-2.766657827296884],[102.0730211113353,-2.764895556284833],[102.0821388887987,-2.724208332948111],[102.0785055557868,-2.702930555900343],[102.0872805557531,-2.68504166713919],[102.081900000085,-2.650341666834402],[102.0639638888225,-2.621613888869836],[102.1041694442646,-2.601386110780338],[102.0942888888212,-2.572602778095659],[102.1224305561254,-2.547963889222052],[102.1353194436375,-2.52523333295194],[102.1557805562278,-2.522899999635245],[102.151344981186,-2.49346498132377],[102.1576944439435,-2.485424999963717],[102.1376805561129,-2.463313888625043],[102.1243638889824,-2.43045833308553],[102.1339194438273,-2.410944444030763],[102.1483250001987,-2.421708333372832],[102.1554027780158,-2.408361110876525],[102.1693250000488,-2.415050000257304],[102.2398250001237,-2.403527778284323],[102.2572388885639,-2.393841667059229],[102.2660055563114,-2.380863888757359],[102.2655305559905,-2.362436110937763],[102.2761055562266,-2.35749444421314],[102.303508333343,-2.361352777708506],[102.3031416671543,-2.393472221965423],[102.3381972216246,-2.389924999938733],[102.3371194444069,-2.361033333121812],[102.3955138889549,-2.329102777970762],[102.4108305556857,-2.273330555960376],[102.4583138891746,-2.20450277778095],[102.462524999729,-2.182019444241925],[102.5115083331432,-2.19318611115005],[102.5158583331956,-2.213247222381368],[102.5304444437561,-2.203361110926474],[102.5475055560367,-2.204858332845719],[102.5460972222091,-2.213888888661211],[102.6015833330045,-2.202638888773636],[102.6136576658686,-2.209179267708963],[102.6290833331294,-2.185444443905896],[102.6257777778222,-2.112241667219086],[102.5924999995753,-2.086941666924316],[102.5797666668982,-2.090113888744918],[102.5474444444056,-2.077916667120475],[102.5472249999339,-2.018061111131322],[102.5088277778797,-2.018838888903554],[102.4944750000213,-2.008644443985899],[102.5155166672604,-1.982050000007421],[102.5087666671481,-1.972936111212478],[102.476597222384,-1.974908332553474],[102.466900000035,-1.945774999916219],[102.4583027780508,-1.945149999872589],[102.4583111111689,-1.899955556103963],[102.4771111102896,-1.891444444205684],[102.5264674869849,-1.912815753444155]]]]}},{"type":"Feature","properties":{"kode":"15.04","nama":"Kabupaten Batanghari","lat":-1.7497988094887236,"lng":103.09794620426872},"geometry":{"type":"MultiPolygon","coordinates":[[[[103.3037049204458,-1.348860959066014],[103.3191368793636,-1.36814946362678],[103.3310525421411,-1.366729261446212],[103.3341122560758,-1.381081606730719],[103.3459738929808,-1.387345200420567],[103.3548003350675,-1.441504770728555],[103.3815796077128,-1.470537821762965],[103.3841867369284,-1.483694823257478],[103.4160712692737,-1.478514891049334],[103.4322027658451,-1.466375644220522],[103.4439981146214,-1.47578864303142],[103.4517883668397,-1.467439507127535],[103.4741963623723,-1.477935217736073],[103.462977994339,-1.517815272556769],[103.4728211982398,-1.543936609287025],[103.4668576336729,-1.557115228684827],[103.4477279457881,-1.568128359735946],[103.4491786556705,-1.575882732601988],[103.4308587587248,-1.597255319777149],[103.4271809470431,-1.62400853726419],[103.4083704267538,-1.632269732961758],[103.4005763146453,-1.655938639156831],[103.4164208375517,-1.658638162920825],[103.430018644445,-1.678801540558597],[103.4184688627479,-1.678676203843635],[103.4253253893553,-1.70305865373386],[103.4155661452614,-1.704614858588796],[103.4156666283123,-1.715586169366182],[103.4003914787837,-1.727523292665792],[103.4023161107,-1.751108724687869],[103.4068539764299,-1.74503239502897],[103.4206944446929,-1.75386111240037],[103.4321111114387,-1.773083332429762],[103.421833334441,-1.779166667807422],[103.4164335395762,-1.817154654263822],[103.393863005973,-1.834570109323044],[103.3994166676452,-1.861083332829486],[103.4105277780345,-1.868333332617203],[103.3202777781969,-1.868194444018359],[103.3144166670955,-1.913499999925053],[103.3182895561182,-1.952095944272328],[103.3371740807193,-1.963852559248183],[103.3333486471225,-1.976509939681906],[103.3401388900977,-1.975027777809649],[103.3401666665585,-1.99486111055174],[103.3702222215783,-1.994194444018296],[103.3699147190891,-2.046578894700149],[103.4544063508725,-2.047908301326975],[103.4464444441558,-2.173611111363607],[103.4601944442183,-2.177694444443004],[103.4520833327796,-2.221944443581128],[103.4631388893483,-2.265527777984547],[103.4556388888237,-2.277555555644353],[103.4616388894233,-2.296500000274795],[103.4476111112639,-2.316166667057987],[103.4619444439809,-2.33967500020105],[103.4538055560816,-2.359602777945804],[103.438388889236,-2.34239166684185],[103.4057777784218,-2.335144444160766],[103.3829722222902,-2.294749999612725],[103.3594999996253,-2.284972222290163],[103.349305555607,-2.265444444105727],[103.3383611111764,-2.271305556106443],[103.3326666669332,-2.24899999965025],[103.3010888888412,-2.22181388899976],[103.3033611114263,-2.199252777593566],[103.2775833328046,-2.147886111255007],[103.2589499996429,-2.133061111081316],[103.2304694444094,-2.135758332580975],[103.2100833325798,-2.059194444068238],[103.1915833329045,-2.040916666870698],[103.2058611109016,-2.013916667320339],[103.1808333326922,-1.975861111201274],[103.1995555557444,-1.956083333179206],[103.1994444436063,-1.909611111063894],[103.1767777778722,-1.923583332704551],[103.1690277784093,-1.958388889135934],[103.1327777776724,-1.95816666665827],[103.1328611106518,-1.970138888698683],[103.094166667158,-1.965694443643587],[103.0871944436687,-1.980166666758246],[103.0794444442058,-1.980249999737607],[103.0795833328047,-1.953555555644362],[102.9793611114262,-1.943500000224743],[102.9656111113638,-1.95755555574422],[102.955388889086,-1.950888888611216],[102.9419444435813,-1.972916666970528],[102.9074722217657,-1.96425000023728],[102.8880277783593,-1.979944444280671],[102.800833333092,-1.990611110614251],[102.8018055559816,-1.932416667195438],[102.7126388893733,-1.953416667045429],[102.6613888893858,-1.928333333216672],[102.6278611113013,-1.921416667145406],[102.6156111111639,-1.905388889385653],[102.5671666668083,-1.907944444280643],[102.5477499998627,-1.917861111101329],[102.4771111102896,-1.891444444205684],[102.4959786538918,-1.879439842075017],[102.4969640770306,-1.852097135174605],[102.5196253009669,-1.857086426397439],[102.5657320107238,-1.886953076123524],[102.5902796795636,-1.882028610731792],[102.6643234455706,-1.813351230674678],[102.6677777784218,-1.756944444330591],[102.6984562245752,-1.722240415962409],[102.7141583155539,-1.718418680377701],[102.7069913043053,-1.704301257796795],[102.7274078240119,-1.704448119784876],[102.7329046026653,-1.695211417772649],[102.7269444438311,-1.683055555969107],[102.7571111109891,-1.667972221940397],[102.787118807687,-1.633504101932706],[102.8046111107142,-1.579583333104287],[102.7934874358966,-1.526709013610075],[102.8240960433978,-1.466813195872232],[102.8228981527276,-1.442696683604952],[102.808622221938,-1.423088889140869],[102.8171046193827,-1.423341306356177],[102.8222529745952,-1.396399582874411],[102.8333777142102,-1.398006265776511],[102.8451353211382,-1.385703507810623],[102.8572950940934,-1.389583604000036],[102.8551972770327,-1.378823203128279],[102.8649915227406,-1.379387278600033],[102.8656173366708,-1.371545336048355],[102.8912777780471,-1.370777778171897],[102.9183333332168,-1.381833332941953],[102.9608333325923,-1.421333333366606],[102.9836953022965,-1.423308276955362],[103.0062431963665,-1.442802013102343],[103.0192980060982,-1.43858059631741],[103.0293938727291,-1.455049201059724],[103.0406388885739,-1.441611111063848],[103.042889349364,-1.413670899991962],[103.0622145867338,-1.405347658267766],[103.0551712826287,-1.387298854758326],[103.1099722233395,-1.400527780432695],[103.1500555528215,-1.377222226424538],[103.17019444192,-1.389111108290988],[103.2070833327297,-1.369527778084459],[103.207111110989,-1.359749999862528],[103.217833332942,-1.366083333279169],[103.2223176008767,-1.39152027963714],[103.2547945157544,-1.393239714141428],[103.2667499924183,-1.403647418893231],[103.2892301846254,-1.393079088029461],[103.2934684825845,-1.383193982016609],[103.2946118410636,-1.373762152301408],[103.2818998735804,-1.364357696150689],[103.285180582418,-1.35290129375967],[103.3037049204458,-1.348860959066014]]]]}},{"type":"Feature","properties":{"kode":"15.05","nama":"Kabupaten Muaro Jambi","lat":-1.6116336775710471,"lng":103.74222867880124},"geometry":{"type":"MultiPolygon","coordinates":[[[[103.3192173057341,-1.237184499964686],[103.3386752830379,-1.238155499776441],[103.3297829089542,-1.265487642340782],[103.3356435380189,-1.277603978041133],[103.3911819893574,-1.279897317607118],[103.3932306242939,-1.292328627364173],[103.4164982916629,-1.306449583381466],[103.4170138442136,-1.328297213145804],[103.4326566986478,-1.341606852973845],[103.4414132427271,-1.341514983629535],[103.4412804973971,-1.329876707743852],[103.5069276379002,-1.33225286407839],[103.5071177815605,-1.316285052213376],[103.5590270340704,-1.315714771419499],[103.5584566030898,-1.353923298621298],[103.5808935693828,-1.354873753420874],[103.5807034257225,-1.390230347852198],[103.6336451089346,-1.392161305599673],[103.6713661334404,-1.370448312439601],[103.7892911549629,-1.34860075372181],[104.0553130299725,-1.31826833611475],[104.0794386379828,-1.294162765898912],[104.0916023409753,-1.294173563159331],[104.1081863988833,-1.310297886738068],[104.0948107362266,-1.324969254827193],[104.0852619083105,-1.321361913121757],[104.1727784385742,-1.462030099409509],[104.235466466904,-1.543407402329747],[104.2862705092766,-1.573403368270723],[104.2966689968768,-1.603398903436551],[104.3162775746505,-1.62775139061411],[104.3383651516305,-1.645319496597411],[104.3625106607384,-1.64669055172755],[104.0448943328073,-1.74692205590812],[103.8733333325673,-1.788611111413621],[103.871944443881,-1.802777778171885],[103.8500000002998,-1.81666666683318],[103.795277778147,-1.825277777947035],[103.7661111112388,-1.816111110639243],[103.6620433447246,-1.846282777128375],[103.630333333017,-1.84119444356863],[103.5862222215783,-1.861655556158917],[103.5214444440059,-1.906658332815761],[103.5002888893209,-1.959861110801578],[103.4999972220942,-1.982180556387528],[103.5427444442008,-1.986041666989349],[103.5566416668795,-2.017669443789741],[103.5639244442578,-2.016752778318034],[103.5631116666701,-2.042171944179819],[103.5535666671681,-2.04223611080783],[103.5246388889736,-2.072986110620414],[103.5322222215783,-2.072708333422815],[103.5322499998376,-2.091500000324656],[103.5168691673782,-2.092233332702145],[103.5172936114111,-2.114248889274764],[103.5459999999001,-2.136272222285188],[103.5593250001487,-2.137122221913026],[103.5070083331681,-2.173675000101108],[103.4464444441558,-2.173611111363607],[103.4544063508725,-2.047908301326975],[103.3699147190891,-2.046578894700149],[103.3702222215783,-1.994194444018296],[103.3401666665585,-1.99486111055174],[103.3401388900977,-1.975027777809649],[103.3333486471225,-1.976509939681906],[103.3371740807193,-1.963852559248183],[103.3182895561182,-1.952095944272328],[103.3144166670955,-1.913499999925053],[103.3202777781969,-1.868194444018359],[103.4105277780345,-1.868333332617203],[103.3994166676452,-1.861083332829486],[103.393863005973,-1.834570109323044],[103.4164335395762,-1.817154654263822],[103.421833334441,-1.779166667807422],[103.4321111114387,-1.773083332429762],[103.4206944446929,-1.75386111240037],[103.4068539764299,-1.74503239502897],[103.4023161107,-1.751108724687869],[103.4003914787837,-1.727523292665792],[103.4156666283123,-1.715586169366182],[103.4155661452614,-1.704614858588796],[103.4253253893553,-1.70305865373386],[103.4184688627479,-1.678676203843635],[103.430018644445,-1.678801540558597],[103.4164208375517,-1.658638162920825],[103.4005763146453,-1.655938639156831],[103.4083704267538,-1.632269732961758],[103.4271809470431,-1.62400853726419],[103.4308587587248,-1.597255319777149],[103.4491786556705,-1.575882732601988],[103.4477279457881,-1.568128359735946],[103.4668576336729,-1.557115228684827],[103.4728211982398,-1.543936609287025],[103.462977994339,-1.517815272556769],[103.4741963623723,-1.477935217736073],[103.4517883668397,-1.467439507127535],[103.4439981146214,-1.47578864303142],[103.4322027658451,-1.466375644220522],[103.4160712692737,-1.478514891049334],[103.3841867369284,-1.483694823257478],[103.3815796077128,-1.470537821762965],[103.3548003350675,-1.441504770728555],[103.3459738929808,-1.387345200420567],[103.3341122560758,-1.381081606730719],[103.3310525421411,-1.366729261446212],[103.3119786014314,-1.362939696409773],[103.3028326500068,-1.347626074783451],[103.285180582418,-1.35290129375967],[103.2818998735804,-1.364357696150689],[103.2946118410636,-1.373762152301408],[103.2892301846254,-1.393079088029461],[103.2667499924183,-1.403647418893231],[103.2547945157544,-1.393239714141428],[103.2204127342603,-1.38932593834136],[103.2206027780958,-1.374486111045117],[103.2382877087109,-1.374517366982866],[103.2328584979215,-1.359166902830269],[103.2245618122779,-1.359156256655838],[103.2245592591026,-1.331222640312538],[103.2401150105993,-1.330636000850729],[103.2415555563439,-1.361277805925967],[103.2500277779596,-1.374752778018243],[103.2627333332767,-1.374700000404586],[103.2583694791682,-1.33698821733226],[103.2704973189962,-1.315334482300459],[103.2710794852302,-1.234589210323714],[103.3192173057341,-1.237184499964686]],[[103.5813691452699,-1.565501094699664],[103.5674166673454,-1.574249999937452],[103.5504166666959,-1.565805555681779],[103.5466082365809,-1.587867712424964],[103.5350388892334,-1.589188889355755],[103.5482860000988,-1.611513027604053],[103.5378333328421,-1.645052778362979],[103.5267555558243,-1.649647222241482],[103.524219444272,-1.676127777874628],[103.5683261112611,-1.680527778434174],[103.5729722220904,-1.667838889353204],[103.5814308333663,-1.669436111387393],[103.6212541670463,-1.696131389152258],[103.6286772215766,-1.676476667164442],[103.6078188892304,-1.660469167318171],[103.6129722221904,-1.656805555931642],[103.6232500000875,-1.665722221603152],[103.6307765000355,-1.65289799984272],[103.6498318328728,-1.657164416904225],[103.669318806118,-1.640473443994209],[103.6799444435812,-1.612833333091837],[103.6550662496078,-1.607399333412454],[103.6490833334292,-1.550722221653158],[103.6108055557319,-1.546666666833188],[103.5813691452699,-1.565501094699664]]]]}},{"type":"Feature","properties":{"kode":"15.06","nama":"Kabupaten Tanjung Jabung Barat","lat":-1.071291191196065,"lng":103.11457459112609},"geometry":{"type":"MultiPolygon","coordinates":[[[[103.444769515301,-0.731548751873293],[103.4827386951347,-0.752959354290697],[103.4886793440765,-0.777108763758408],[103.4799780390553,-0.793946307276164],[103.4885638081733,-0.803173579896724],[103.5118445570806,-0.80078311265053],[103.5476416340542,-0.810574270086375],[103.5583031175949,-0.841675879638062],[103.5543722582732,-0.857943112684437],[103.5739565012916,-0.875346419701442],[103.5605303929633,-0.906742655249262],[103.5678850045894,-0.928235828021043],[103.5592467132653,-0.927983854171524],[103.5599005122988,-0.938708497998755],[103.5659873730189,-0.941568096590364],[103.5534385425547,-0.947773888154371],[103.5550774643535,-0.963302113201861],[103.5435744869731,-0.96654546510109],[103.5490936533495,-0.978062047425501],[103.5390488942911,-0.980248157226596],[103.5238955147663,-1.002585035271133],[103.5084853572136,-1.003795725092596],[103.4693424272113,-1.02844557939992],[103.4411165608806,-1.069274292174763],[103.4707796049948,-1.125673249920547],[103.4549691861791,-1.118233893379442],[103.4454667650792,-1.127674359284184],[103.4500941942917,-1.186276512151244],[103.4478103533652,-1.195038905421056],[103.4296400712324,-1.200921279193581],[103.4257054941133,-1.219675664700118],[103.3815058866873,-1.221875435203115],[103.3814498993933,-1.236499546616779],[103.2710794852302,-1.234589210323714],[103.2704973189962,-1.315334482300459],[103.2583694791682,-1.33698821733226],[103.2627333332767,-1.374700000404586],[103.2500277779596,-1.374752778018243],[103.2415555563439,-1.361277805925967],[103.2401150105993,-1.330636000850729],[103.2245592591026,-1.331222640312538],[103.2245618122779,-1.359156256655838],[103.2328584979215,-1.359166902830269],[103.2382877087109,-1.374517366982866],[103.2206027780958,-1.374486111045117],[103.207111110989,-1.359749999862528],[103.2070833327297,-1.369527778084459],[103.17019444192,-1.389111108290988],[103.1500555528215,-1.377222226424538],[103.1099722233395,-1.400527780432695],[103.0551712826287,-1.387298854758326],[103.0622145867338,-1.405347658267766],[103.0419722216407,-1.415138889448178],[103.0353611110265,-1.454083332779524],[103.0223126109383,-1.452504181722583],[103.0166363159133,-1.437298222434949],[103.0062431963665,-1.442802013102343],[102.9836953022965,-1.423308276955362],[102.9608333325923,-1.421333333366606],[102.9183333332168,-1.381833332941953],[102.8912777780471,-1.370777778171897],[102.8656173366708,-1.371545336048355],[102.8649915227406,-1.379387278600033],[102.8551972770327,-1.378823203128279],[102.8572950940934,-1.389583604000036],[102.8451353211382,-1.385703507810623],[102.8333777142102,-1.398006265776511],[102.8222529745952,-1.396399582874411],[102.8171046193827,-1.423341306356177],[102.8086182109618,-1.423095659237175],[102.7948112199619,-1.396424218902562],[102.802147392788,-1.375576056090091],[102.784972223989,-1.339944442681842],[102.7808578067425,-1.310373199563466],[102.7462833311109,-1.261413128013336],[102.7243466756586,-1.262285669148236],[102.7177721287808,-1.249118543985597],[102.6970510545625,-1.238570029683109],[102.6867687198006,-1.196900280823224],[102.6457007208117,-1.138024997555556],[102.6501878773687,-1.130912044555179],[102.6435813793772,-1.119166645024608],[102.6831926493214,-1.095923571415616],[102.6815772798676,-1.081396834995887],[102.691311565976,-1.085486596429222],[102.7046925076532,-1.075000007644158],[102.7101992022315,-1.081781535289553],[102.7149110040397,-1.074304200378487],[102.7290120679526,-1.080179041429544],[102.7316666768757,-1.049722258375477],[102.7510394209327,-1.043955073367878],[102.75317419923,-1.023824092907491],[102.7808655418114,-1.032240945063537],[102.7692851687756,-1.011581742403481],[102.7857908147943,-0.97922209102668],[102.8600000290781,-0.927777772725927],[102.9277777714271,-0.866111088256075],[103.003611149635,-0.754722216157313],[103.0808333283954,-0.761944493443581],[103.1118329521291,-0.746610969820408],[103.2082499683614,-0.757056027913341],[103.2775967354011,-0.776335857613633],[103.2907627885719,-0.77185328040448],[103.3014915270125,-0.781257661012161],[103.302544852563,-0.765531120164978],[103.3122222385655,-0.764722207863569],[103.3463890272319,-0.779166952193025],[103.3527779972069,-0.799166985967561],[103.4016726421788,-0.787271187415309],[103.4088890037246,-0.769999985410921],[103.4372219937001,-0.778055998985108],[103.444769515301,-0.731548751873293]]]]}},{"type":"Feature","properties":{"kode":"15.07","nama":"Kabupaten Tanjung Jabung Timur","lat":-1.2253734858980192,"lng":103.96529379756305},"geometry":{"type":"MultiPolygon","coordinates":[[[[104.4987789372982,-1.679621515420562],[104.4926768618478,-1.681202951654795],[104.4926775947952,-1.671358943760184],[104.4935615384344,-1.672124983581094],[104.4987789372982,-1.679621515420562]]],[[[104.212294948753,-1.060393844899979],[104.2085244547398,-1.06235047559389],[104.2078320307237,-1.061351103070843],[104.2079533843413,-1.060658679054763],[104.2095381048997,-1.061308271959119],[104.2128288996341,-1.059930563644576],[104.212294948753,-1.060393844899979]]],[[[104.2222264480922,-1.058843108822385],[104.2182116460507,-1.062484414324219],[104.2140227802272,-1.062815318072444],[104.2170123659279,-1.060240773093104],[104.2222264480922,-1.058843108822385]]],[[[104.2475621226939,-1.049746318837455],[104.2455569996559,-1.051837999823737],[104.2423076789562,-1.053172147676465],[104.2423219547944,-1.052686737702738],[104.2475621226939,-1.049746318837455]]],[[[104.252499702899,-1.041233107022224],[104.2474052773317,-1.046992672074134],[104.2424641196235,-1.048925523793878],[104.2467229751852,-1.043685015051368],[104.252499702899,-1.041233107022224]]],[[[104.1981550476174,-1.053544664854369],[104.1911617727976,-1.049507879784775],[104.1871712110826,-1.040101243677396],[104.1962491395862,-1.046926918142768],[104.1981550476174,-1.053544664854369]]],[[[104.1798007192278,-1.034926597684274],[104.1820778629031,-1.037722624099827],[104.1813071079367,-1.042347343654873],[104.1783375411447,-1.038573518553035],[104.1798007192278,-1.034926597684274]]],[[[104.2053836678221,-1.031494699320914],[104.2049642635899,-1.042275846652954],[104.2116848531735,-1.045739303126306],[104.2032413837828,-1.056377174966608],[104.190491698733,-1.03628207925455],[104.2053836678221,-1.031494699320914]]],[[[104.246081972605,-1.030860757318022],[104.2547887338131,-1.035827506134426],[104.2075631721028,-1.060418035763691],[104.2132686591213,-1.045790887339562],[104.2061350352038,-1.040918702236285],[104.2106063816792,-1.035234912261343],[104.246081972605,-1.030860757318022]]],[[[103.5925313992048,-0.876912987444348],[103.6266555689994,-0.913255037390018],[103.6687106548729,-0.936986011195431],[103.6750062212601,-0.952459295759825],[103.6858650628224,-0.946856224435136],[103.7243611212687,-0.955547611732824],[103.7525957299091,-0.989254907987538],[103.8046469997593,-0.995628999578615],[103.8083089995607,-1.013723000316149],[103.8307130003048,-1.015336000056324],[103.9131488178637,-0.982731498359859],[103.9544615592536,-0.99637309144496],[103.9702958253921,-0.991691485273785],[104.0284426488092,-1.000855168631068],[104.0837950636913,-1.02752388671801],[104.1050370558156,-1.029637862797086],[104.1297450162196,-1.043900518693944],[104.1255893299837,-1.049112976682467],[104.1785837890107,-1.051233855957692],[104.2070819062051,-1.070714677840082],[104.2241160442201,-1.058770168408499],[104.2656906151299,-1.041649279090942],[104.3291473938372,-1.042803743298107],[104.3528334537011,-1.031737376878342],[104.3568667745821,-1.018620783722193],[104.3662645118978,-1.023530678298171],[104.3943078005646,-1.076470591644421],[104.405101322568,-1.12737918200361],[104.4078204416601,-1.163161879716926],[104.3944260029578,-1.190352787351204],[104.391966117942,-1.2170313494172],[104.4563371636292,-1.336747843837907],[104.4505132979505,-1.385273964621694],[104.4564421100154,-1.426053038416944],[104.4423088854468,-1.464676403093515],[104.4378198600985,-1.508075730810246],[104.4592820557223,-1.596452971627274],[104.4909992808922,-1.667800678058809],[104.4799744964259,-1.655862446794456],[104.4695535842306,-1.66043444899058],[104.4749607265563,-1.653434356410413],[104.4617829642125,-1.650899231414352],[104.4639770725838,-1.641706513444754],[104.4580716635764,-1.647070363306538],[104.4497621823789,-1.635678682425182],[104.4307016964262,-1.639550355564426],[104.4293107348027,-1.628072400920535],[104.3742879133566,-1.637195700221364],[104.3625106607384,-1.64669055172755],[104.3383651516305,-1.645319496597411],[104.3162775746505,-1.62775139061411],[104.2966689968768,-1.603398903436551],[104.2862705092766,-1.573403368270723],[104.235466466904,-1.543407402329747],[104.1638654502304,-1.44896193204749],[104.0852619083105,-1.321361913121757],[104.0948107362266,-1.324969254827193],[104.1081863988833,-1.310297886738068],[104.0916023409753,-1.294173563159331],[104.0794386379828,-1.294162765898912],[104.0553130299725,-1.31826833611475],[103.7499313921201,-1.354873753420874],[103.6713661334404,-1.370448312439601],[103.6336451089346,-1.392161305599673],[103.6180441835922,-1.391935084736298],[103.5807034257225,-1.390230347852198],[103.5808935693828,-1.354873753420874],[103.5584566030898,-1.353923298621298],[103.5590270340704,-1.315714771419499],[103.5071177815605,-1.316285052213376],[103.5069276379002,-1.33225286407839],[103.4412804973971,-1.329876707743852],[103.4414132427271,-1.341514983629535],[103.4326566986478,-1.341606852973845],[103.4170138442136,-1.328297213145804],[103.4164982916629,-1.306449583381466],[103.3932306242939,-1.292328627364173],[103.3911819893574,-1.279897317607118],[103.3367625734341,-1.278591264575171],[103.3297829089542,-1.265487642340782],[103.3381900529287,-1.237150448034699],[103.3814498993933,-1.236499546616779],[103.3815058866873,-1.221875435203115],[103.4257054941133,-1.219675664700118],[103.4296400712324,-1.200921279193581],[103.4478103533652,-1.195038905421056],[103.4454667650792,-1.127674359284184],[103.4549691861791,-1.118233893379442],[103.4707796049948,-1.125673249920547],[103.4411165608806,-1.069274292174763],[103.4693424272113,-1.02844557939992],[103.5084853572136,-1.003795725092596],[103.5238955147663,-1.002585035271133],[103.5390488942911,-0.980248157226596],[103.5490936533495,-0.978062047425501],[103.543806037219,-0.965847459892258],[103.5550774643535,-0.963302113201861],[103.5534385425547,-0.947773888154371],[103.5659873730189,-0.941568096590364],[103.558876113442,-0.928936059951171],[103.5678850045894,-0.928235828021043],[103.5602799497599,-0.915893472905418],[103.5671504896035,-0.913411825195512],[103.5605303929633,-0.906742655249262],[103.5681929468471,-0.881833944580793],[103.5780709715981,-0.87295177870155],[103.5925313992048,-0.876912987444348]]]]}},{"type":"Feature","properties":{"kode":"15.08","nama":"Kabupaten Bungo","lat":-1.5915799673321276,"lng":101.92711314354658},"geometry":{"type":"MultiPolygon","coordinates":[[[[101.9097797708198,-1.137691233963237],[101.9181032238847,-1.138715523102876],[101.9229104896275,-1.129301091672],[101.9438314948277,-1.130656800770671],[101.9481392393345,-1.136303569254229],[101.9380889458482,-1.145063626085443],[101.966554975232,-1.139210744680133],[101.9622946510773,-1.153501062823706],[101.9715585306018,-1.154753530650845],[101.9631384822552,-1.170109676720157],[101.9442320879406,-1.173581369184776],[101.9570320891596,-1.21098136809559],[101.9649722826448,-1.213868201756066],[101.9614747193829,-1.227252495206413],[101.9293628770952,-1.238702460250332],[101.9196876710492,-1.250054052052787],[101.9206944971533,-1.288150530922197],[101.9321112367442,-1.306733877066771],[101.9363559936343,-1.347407915442902],[101.9560369029808,-1.341017469680386],[101.9878758927583,-1.350425905331212],[101.9917665712703,-1.357798158957804],[102.0037172887219,-1.352473413417313],[102.04258337862,-1.38623388388657],[102.0401019278617,-1.391563465981063],[102.0787815316424,-1.39163449983222],[102.0930067739435,-1.41361800726523],[102.1387376947888,-1.422429949582485],[102.1451639821322,-1.445969420852025],[102.1821141392561,-1.444251404578603],[102.183404718553,-1.460161755160774],[102.2105802100087,-1.476137379436507],[102.2220132857845,-1.467957032790748],[102.2512765929405,-1.478853478605105],[102.2686392649902,-1.462546574664694],[102.2911667363558,-1.460261578109259],[102.2902119324348,-1.443531338100781],[102.3077031589737,-1.4666492440673],[102.3076720487261,-1.488012680640674],[102.3294877426653,-1.510026048263471],[102.3141534528196,-1.535005415967097],[102.3144167212548,-1.568928256333882],[102.4769320948404,-1.571181369224719],[102.4812152572783,-1.595507278737854],[102.4889951331189,-1.595328203034077],[102.4890264376201,-1.645981146712552],[102.5129164223551,-1.639473754909806],[102.5131264320393,-1.649413199759289],[102.4564166667958,-1.655583333204261],[102.4615546204494,-1.674272052013562],[102.4519444443807,-1.685333332767039],[102.4437222217033,-1.68144444390588],[102.4305555560941,-1.696694443893401],[102.4054833333892,-1.700736111382442],[102.3446111109141,-1.67597222214029],[102.3270833332294,-1.701888889360673],[102.3037555560742,-1.716247222331349],[102.2928888886114,-1.712822221768098],[102.2831277784242,-1.726497221969206],[102.1940833332793,-1.767861111401173],[102.1844722219155,-1.786222221578251],[102.1681388886988,-1.780611111213728],[102.1337333327271,-1.790694443993315],[102.1431944443682,-1.81335833262091],[102.1305000001749,-1.853944444280645],[102.1105999997902,-1.872663889326967],[102.086275000391,-1.868738889088453],[102.0579527779984,-1.877361111326151],[102.0350416666397,-1.904638888973478],[102.0101111114387,-1.900388889035989],[101.9961833333941,-1.909249999987475],[101.9773888893858,-1.870777778071966],[101.9471666666084,-1.859861111001385],[101.9213055559067,-1.839444443805929],[101.8829722216907,-1.846944444330559],[101.8287222218531,-1.820722221653151],[101.7881944438186,-1.8291111111888],[101.7345000001749,-1.877250000087363],[101.6751388887488,-1.880611111013922],[101.6606944438935,-1.871777778321773],[101.6290916673466,-1.888697222199001],[101.4454444443058,-1.711188889255746],[101.4375003252799,-1.695780920652881],[101.4765459998981,-1.6767259997051],[101.4899862581593,-1.645815436732947],[101.5232533326752,-1.636096110846788],[101.5675819055805,-1.579257406204329],[101.5866630003972,-1.578473000428529],[101.6163188841092,-1.548430987400076],[101.6227627783796,-1.527015277732849],[101.6417646851922,-1.520559457552809],[101.6421644689152,-1.512577942018359],[101.6563111293551,-1.512290319942247],[101.6561619597067,-1.498423836091048],[101.6798063890537,-1.498057222063112],[101.6910799997423,-1.48993200026151],[101.7005149995676,-1.454873999635334],[101.7218020000624,-1.431095000234064],[101.6937099996168,-1.408430000044428],[101.6949310001656,-1.394086999615299],[101.7281722569442,-1.365286481785668],[101.7281320788324,-1.354902039797226],[101.724321000214,-1.342265000229562],[101.7118360000315,-1.336336000206176],[101.7037809999932,-1.346849000281106],[101.6797780001547,-1.350638999689993],[101.6717450002316,-1.332083000130327],[101.6887569996359,-1.324010000161271],[101.6944640002135,-1.307426999856068],[101.6886578943464,-1.299111090304519],[101.6963844439869,-1.291818056158325],[101.6919029999235,-1.28047299972909],[101.7175700000555,-1.260003000038326],[101.7238330001928,-1.238186000283628],[101.8159899998386,-1.217833999739229],[101.8741059998921,-1.142183999591831],[101.8909963650903,-1.136964357818806],[101.8882179402059,-1.123081945175544],[101.9097797708198,-1.137691233963237]]]]}},{"type":"Feature","properties":{"kode":"15.09","nama":"Kabupaten Tebo","lat":-1.3075639168272624,"lng":102.36429282482342},"geometry":{"type":"MultiPolygon","coordinates":[[[[102.0147887632909,-0.878457923794043],[102.0483333362146,-0.900295876853166],[102.065615309399,-0.889481295425368],[102.1172222197298,-0.921111085807949],[102.138942524378,-0.912211938030419],[102.1441832048911,-0.899050846419394],[102.1591743736984,-0.904969156201554],[102.1664531284092,-0.899762103138515],[102.1747464361992,-0.917241233795865],[102.1889965951168,-0.916328376953038],[102.1902778097732,-0.944999971571361],[102.2029025511119,-0.947092677784747],[102.2213888819913,-0.946111107341688],[102.2361679286071,-0.930368652091554],[102.2464102192563,-0.933569249321378],[102.2571764333458,-0.919821526342337],[102.3037654054492,-0.918575216173226],[102.3234758314445,-0.961865457924452],[102.3575059969043,-0.967781263094805],[102.3830555563689,-0.993611137643827],[102.3732462955801,-1.011791207997772],[102.3746273412788,-1.034205784769052],[102.3844444405585,-1.038055547725294],[102.3875852031946,-1.028406637855975],[102.404370363002,-1.039884127550364],[102.4087893644377,-1.033216464867939],[102.429595178175,-1.037037531356935],[102.440677610983,-1.030870767671724],[102.4741836749367,-1.07062432475267],[102.4679544623286,-1.080901332830189],[102.4799803747945,-1.0890513462426],[102.5086111482859,-1.083611143039745],[102.5370105082284,-1.100177736113642],[102.5419443994145,-1.086944456821184],[102.5497813750105,-1.104427947391764],[102.5861111384183,-1.095555555344577],[102.6071770279976,-1.101961731148984],[102.6122465414448,-1.095695756953566],[102.63021845202,-1.107467229628936],[102.6321142013094,-1.12419425635977],[102.6496905495793,-1.129152234088318],[102.6457007208117,-1.138024997555556],[102.6867687198006,-1.196900280823224],[102.6970510545625,-1.238570029683109],[102.7177721287808,-1.249118543985597],[102.7243466756586,-1.262285669148236],[102.7462833311109,-1.261413128013336],[102.7671309417397,-1.28690336459856],[102.7662256697789,-1.298111582883246],[102.7771287867641,-1.303767008240778],[102.802147392788,-1.375576056090091],[102.7948112199619,-1.396424218902562],[102.8228981527276,-1.442696683604952],[102.8240960433978,-1.466813195872232],[102.7934874358966,-1.526709013610075],[102.8046111107142,-1.579583333104287],[102.7843348393814,-1.638465277650328],[102.7571111109891,-1.667972221940397],[102.7269444438311,-1.683055555969107],[102.7329046026653,-1.695211417772649],[102.7274078240119,-1.704448119784876],[102.7069913043053,-1.704301257796795],[102.7141583155539,-1.718418680377701],[102.6984562245752,-1.722240415962409],[102.6677777784218,-1.756944444330591],[102.6643234455706,-1.813351230674678],[102.5902796795636,-1.882028610731792],[102.5657320107238,-1.886953076123524],[102.5196253009669,-1.857086426397439],[102.4969640770306,-1.852097135174605],[102.4886197605935,-1.889760217260131],[102.4583111111689,-1.899955556103963],[102.4582472224314,-1.885286110765419],[102.4858750000313,-1.884261111161292],[102.4725131212836,-1.856396210216873],[102.4568520097125,-1.850329542874077],[102.4816169790404,-1.803284375273664],[102.4968833331994,-1.797016667185394],[102.4866833331693,-1.759705556366312],[102.5067138890348,-1.758830555585591],[102.5136675379266,-1.717694881713408],[102.5142919471157,-1.707558614838137],[102.4896388894232,-1.705805555581888],[102.4935277782844,-1.6965277779345],[102.5235000003248,-1.685916667220313],[102.5166388889736,-1.670777777572299],[102.5302541651976,-1.652589982042032],[102.5125407170804,-1.658980981786831],[102.4750130908815,-1.649867253970585],[102.4702501311387,-1.655178277655336],[102.4702778698279,-1.64942829757784],[102.5131264320393,-1.649413199759289],[102.5129164223551,-1.639473754909806],[102.4890264376201,-1.645981146712552],[102.4889951331189,-1.595328203034077],[102.4812152572783,-1.595507278737854],[102.4769320948404,-1.571181369224719],[102.3144167212548,-1.568928256333882],[102.3141534528196,-1.535005415967097],[102.3294877426653,-1.510026048263471],[102.3076720487261,-1.488012680640674],[102.3077031589737,-1.4666492440673],[102.2902119324348,-1.443531338100781],[102.2911667363558,-1.460261578109259],[102.2686392649902,-1.462546574664694],[102.2512765929405,-1.478853478605105],[102.2220132857845,-1.467957032790748],[102.2105802100087,-1.476137379436507],[102.183404718553,-1.460161755160774],[102.1821141392561,-1.444251404578603],[102.1451639821322,-1.445969420852025],[102.1387376947888,-1.422429949582485],[102.0930067739435,-1.41361800726523],[102.0787815316424,-1.39163449983222],[102.0401019278618,-1.391563465981063],[102.0425833786201,-1.38623388388657],[102.0037172887219,-1.352473413417313],[101.9919448411816,-1.357824508194463],[101.9560369029808,-1.341017469680386],[101.9329840332866,-1.34430794065892],[101.9196876710492,-1.250054052052787],[101.9293628770952,-1.238702460250332],[101.9614747193829,-1.227252495206413],[101.9649722826448,-1.213868201756066],[101.9570320891596,-1.21098136809559],[101.9442320879406,-1.173581369184776],[101.9697422660928,-1.162185208780356],[101.9704147179649,-1.151082882968593],[101.9622946510773,-1.153501062823706],[101.9671256517274,-1.139869941444596],[101.9421093479681,-1.146809383746008],[101.9459415210844,-1.131630002122888],[101.9229104896275,-1.129301091672],[101.9141142728554,-1.139953162908094],[101.890553573089,-1.121530443774946],[101.8875489021602,-1.138258814992257],[101.8846826288004,-1.113522770559408],[101.8926326572714,-1.101849344671438],[101.8777298270699,-1.093571544790864],[101.8663681610618,-1.112021835339386],[101.8529584563677,-1.100230543404804],[101.8447246000603,-1.102507733844751],[101.8454759854284,-1.111867019747129],[101.8295669919232,-1.109620274955672],[101.8282960097531,-1.067706013021999],[101.8215320242835,-1.059174034154323],[101.8256388890236,-1.038361111276201],[101.8191994059279,-1.030215412811033],[101.8232222218281,-1.007361110726615],[101.8151944002014,-1.001555556143943],[101.8235795575506,-0.977620798660864],[101.845277779346,-0.983611113562047],[101.8550000244317,-0.96777775304078],[101.8824999813891,-0.968055576103913],[101.9077777864158,-0.952499978391222],[101.9153886616575,-0.919252808570173],[101.9466666768257,-0.907777799206036],[101.9623803348846,-0.917321443429822],[101.9861111162351,-0.881111130674109],[102.0147887632909,-0.878457923794043]]]]}},{"type":"Feature","properties":{"kode":"15.71","nama":"Kota Jambi","lat":-1.6181774220730685,"lng":103.59978913913127},"geometry":{"type":"MultiPolygon","coordinates":[[[[103.6199895997403,-1.550947400202299],[103.6515277779846,-1.554138889098391],[103.6550662496078,-1.607399333412454],[103.6799444435812,-1.612833333091837],[103.669318806118,-1.640473443994209],[103.6498318328728,-1.657164416904225],[103.6307765000355,-1.65289799984272],[103.6232500000875,-1.665722221603152],[103.6129722221904,-1.656805555931642],[103.6078188892304,-1.660469167318171],[103.6286772215766,-1.676476667164442],[103.6212541670463,-1.696131389152258],[103.5814308333663,-1.669436111387393],[103.5729722220904,-1.667838889353204],[103.5683261112611,-1.680527778434174],[103.524219444272,-1.676127777874628],[103.5267555558243,-1.649647222241482],[103.5378333328421,-1.645052778362979],[103.5482860000988,-1.611513027604053],[103.5350388892334,-1.589188889355755],[103.5466082365809,-1.587867712424964],[103.5471681104201,-1.568207396653934],[103.5674166673454,-1.574249999937452],[103.6046666674328,-1.548333332717069],[103.6199895997403,-1.550947400202299]]]]}},{"type":"Feature","properties":{"kode":"15.72","nama":"Kota Sungai Penuh","lat":-2.1132906932571256,"lng":101.33925759467051},"geometry":{"type":"MultiPolygon","coordinates":[[[[101.3204560997692,-2.026643889104188],[101.4294412144406,-2.027001994646296],[101.4449392231666,-2.044836842246392],[101.442868099783,-2.067123888856306],[101.4538139003913,-2.093224999833845],[101.4445610996151,-2.103313888624994],[101.4175000001249,-2.104999999650195],[101.4091667003829,-2.11888888921086],[101.4155556002109,-2.155833332941961],[101.4077777910123,-2.171388888386419],[101.3922221995948,-2.180555555694299],[101.3686111000223,-2.174444443855952],[101.3697221998197,-2.191111110789093],[101.2797222106115,-2.251000000149775],[101.2610666668932,-2.1018999996852],[101.2572166674153,-2.095383333174253],[101.2410555561691,-2.097638888623779],[101.2396830558285,-2.066693056039595],[101.2715799997173,-2.031951944126911],[101.3204560997692,-2.026643889104188]]]]}}]}