{"type":"FeatureCollection","features":[{"type":"Feature","properties":{"kode":"16.01","nama":"Kabupaten Ogan Komering Ulu","lat":-4.093734720934706,"lng":104.10521210740282},"geometry":{"type":"MultiPolygon","coordinates":[[[[103.7793397922977,-4.340156777413354],[103.7767808784349,-4.339172580050457],[103.7772926610276,-4.337440393159556],[103.7800484149024,-4.33818838178828],[103.7793397922977,-4.340156777413354]]],[[[104.4566949786904,-3.747018491610079],[104.4633202563249,-3.747926677374183],[104.4651212341577,-3.760617107893152],[104.4897584529903,-3.769500738768075],[104.4992183460499,-3.785430863643382],[104.5079452691589,-3.783350041071534],[104.5181656873966,-3.794223957969203],[104.533752836924,-3.789041328694312],[104.5396504613998,-3.799331277116716],[104.5444549383448,-3.792903477113699],[104.5685673488042,-3.814565482311119],[104.5732840573134,-3.82617130166423],[104.5629419392192,-3.83155883697073],[104.5558866858219,-3.850975252106162],[104.5681022176433,-3.862065705967479],[104.5416009569186,-3.872476445931186],[104.523293567744,-3.89247090930496],[104.4936405213929,-3.901564364603674],[104.4896023603607,-3.918310206950418],[104.4653814988572,-3.933887999931221],[104.4793769526843,-3.95661816679487],[104.4571662818985,-3.952169222431648],[104.4453622951339,-3.958207798551053],[104.4364697339911,-3.980174379843751],[104.4229736251328,-3.989109414168082],[104.4232583019291,-3.976367499260627],[104.421036417097,-3.981094853044967],[104.4185027678884,-3.973852369790956],[104.4182714011043,-3.983677947878997],[104.4168755660546,-3.977822981845039],[104.4042158275984,-3.974373195066841],[104.4139528971086,-3.984058092207102],[104.4038815298088,-3.979101282697941],[104.4031109645995,-3.983352217930472],[104.4150719307251,-3.994196434717681],[104.3781517030387,-4.010801573633652],[104.3509402252112,-4.012618037792118],[104.340603281816,-4.050959024339454],[104.3084711849973,-4.074702771215824],[104.3191883608543,-4.095509163217306],[104.3138444336738,-4.11963641788631],[104.3232436944411,-4.130989765165507],[104.3231086936114,-4.154534367067322],[104.3344920962333,-4.178740054310007],[104.321589544422,-4.207918344955599],[104.2899447488512,-4.211968857276885],[104.2607022412156,-4.246085592376117],[104.2262218229788,-4.24992372799762],[104.2310532148341,-4.279443702564814],[104.2207626009133,-4.305038979065559],[104.2403318333475,-4.332204086948968],[104.2185054869388,-4.401202141865282],[104.1957725780421,-4.394690882977839],[104.1892947397605,-4.407744389591864],[104.1748313578809,-4.414544006200829],[104.1512934649216,-4.405822764109216],[104.0455889934374,-4.458115822087441],[104.0132309644375,-4.448408571398391],[104.0058901367205,-4.462958948296761],[103.9882704168463,-4.463403252058454],[103.9698561009784,-4.453008232244107],[103.9742335789166,-4.437682440092486],[103.9590440484441,-4.398919434983897],[103.9496853228194,-4.395534301366835],[103.9560652779902,-4.380355884716261],[103.939777187867,-4.348975561772741],[103.9166840753099,-4.343660482145475],[103.887244654817,-4.299910185006953],[103.8896964270486,-4.285985392711636],[103.8700072718183,-4.284616332277905],[103.8664533750233,-4.269677664992136],[103.8497971744001,-4.24897594508378],[103.8377367351622,-4.248000579063474],[103.8364182337146,-4.237037961132975],[103.795747444589,-4.236772170998806],[103.7887935960477,-4.222768186202755],[103.7632530369981,-4.248198923641391],[103.7335689946134,-4.25055663398142],[103.706229744707,-4.276247076741127],[103.6262894442026,-4.273308889093899],[103.6152273666498,-4.262734282760919],[103.6189618140366,-4.224565444439657],[103.6440593571536,-4.217706974397275],[103.6447398633541,-4.201032479765113],[103.705177149406,-4.183913411574627],[103.7017868123116,-4.087005827756654],[103.7324372472812,-4.087805656905521],[103.7741616776194,-4.074475320979223],[103.7918242960545,-4.044708344014827],[103.8210374138456,-4.03005340474081],[103.8380909457406,-4.008650359326607],[103.8517873956718,-4.00747406137876],[103.8744092823625,-3.976182545587983],[103.8914882866551,-3.968105154229454],[103.8947414852314,-3.928777456714252],[103.9286268283655,-3.916254854078163],[103.9406664599892,-3.898807679031149],[103.9696781476284,-3.888532017238758],[103.9934973737049,-3.91999397074512],[104.0627753210243,-3.903050686739709],[104.0752430101569,-3.908582424739018],[104.1141666665584,-3.900638889373267],[104.2120237393042,-3.852202717881051],[104.2438238199135,-3.822180423387847],[104.2480665281478,-3.781109539373675],[104.2798127789367,-3.767456881929457],[104.2878278688611,-3.755091815334913],[104.3076106668988,-3.774560438813149],[104.3235041318103,-3.772360692591883],[104.3363874399284,-3.759935172670017],[104.3608290040554,-3.771178121872756],[104.3875938893466,-3.76070750594655],[104.3973157324352,-3.766316168356434],[104.4048699270056,-3.758410841587059],[104.4175497581148,-3.762084500199483],[104.4236151843933,-3.754235002443343],[104.4566949786904,-3.747018491610079]]]]}},{"type":"Feature","properties":{"kode":"16.02","nama":"Kabupaten Ogan Komering Ilir","lat":-3.3637135239084666,"lng":105.3973096548644},"geometry":{"type":"MultiPolygon","coordinates":[[[[106.2155084994177,-3.215952188642548],[106.2206238153369,-3.218468129300669],[106.2188562976801,-3.221867637681244],[106.2136504443127,-3.217169542440404],[106.2155084994177,-3.215952188642548]]],[[[105.616656832347,-2.391331974890745],[105.6288893829388,-2.403062531110914],[105.6336795094019,-2.437453063907727],[105.6079002909657,-2.506629070375224],[105.6035936238467,-2.55255955887648],[105.6103335947197,-2.59720490897937],[105.6259904489002,-2.629546543338249],[105.6558158916901,-2.663222314757954],[105.6923572134147,-2.68364462340063],[105.7403437040987,-2.689615022815042],[105.779633281151,-2.68292583216139],[105.7875503962339,-2.761438751197412],[105.7823397980433,-2.856712463809144],[105.8109906866708,-2.915388337701577],[105.8469586186453,-2.950842307126747],[105.8725996913228,-2.963767538940745],[105.8860583434179,-2.965888488363058],[105.936378763669,-2.961188203272938],[105.9587537253042,-2.943426863558843],[105.9748407207228,-2.962815084048811],[106.0127346335966,-2.968278541021776],[106.0416881557839,-2.986894909372475],[106.0557287627722,-3.066606940357966],[106.0478814170938,-3.122705025416542],[106.0953780362674,-3.219872694968798],[106.0964535525895,-3.240098112337966],[106.084127944649,-3.261789279851326],[106.011863685161,-3.296133699010964],[105.9538188763401,-3.336394831656067],[105.9448085705591,-3.355216667215347],[105.9298382633253,-3.360421312793241],[105.8994646100038,-3.418497005232515],[105.8854611144389,-3.428828029290079],[105.8262323508423,-3.593932429637883],[105.8209576246946,-3.652159123644585],[105.8307610039173,-3.710712900180171],[105.8509097756657,-3.743045596177266],[105.8626007428301,-3.741915345316896],[105.9261678728491,-3.775366901361357],[105.9610488239441,-3.827895906370918],[105.9515940857985,-3.864106581553431],[105.8860513026256,-3.973994406916306],[105.8627308504484,-4.031934374571636],[105.8469615171604,-4.092645754198168],[105.8452863769648,-4.160032090008839],[105.8213985029386,-4.157164348955503],[105.8112052837969,-4.126105373564107],[105.7754507285683,-4.110875486014789],[105.7685529419648,-4.133029108306621],[105.7454073036043,-4.143643456580184],[105.7267009409956,-4.130400680446991],[105.7003266213765,-4.135344522631515],[105.7084772247441,-4.101704783448914],[105.6849783093016,-4.097845681033332],[105.6789020947559,-4.073979561607446],[105.6650540146312,-4.089869743993438],[105.650305804869,-4.084212204329754],[105.6451969559749,-4.064395559407499],[105.662501500344,-4.054965426713045],[105.6616700303477,-4.04632505076046],[105.6391239996729,-4.048749772284113],[105.6247708270121,-4.039267349408584],[105.6188511205828,-4.056512700400708],[105.6044034786377,-4.05255349984415],[105.6306506673944,-4.003943822149639],[105.610959048921,-3.964866743205578],[105.5899974429278,-3.954090400951207],[105.6103481430524,-3.940787177786012],[105.5993841509579,-3.924357157556793],[105.5830826276612,-3.937108684418236],[105.5631246866551,-3.929157648706452],[105.5731579937465,-3.900039478638975],[105.5479560105615,-3.880781272237835],[105.5321303833106,-3.895676272042328],[105.5246330222962,-3.894089798705183],[105.5122445544427,-3.873039053709329],[105.5265093893968,-3.848372359596722],[105.5228205349398,-3.839500669919873],[105.4927187205925,-3.840957452924057],[105.4799621773127,-3.821732848791884],[105.4321042995738,-3.825699499332361],[105.4329287368718,-3.783549641102971],[105.3896636833324,-3.778563615318545],[105.3666468332848,-3.798051273847117],[105.3574479927308,-3.796604944562512],[105.3492230001414,-3.747241741113408],[105.3330433089017,-3.723666044252452],[105.3191495728946,-3.731637697821435],[105.3043132412631,-3.792034308436579],[105.2841946291789,-3.797318743665004],[105.2820724548799,-3.828524885015375],[105.2929695464075,-3.842702174565618],[105.2772087099141,-3.87693213161249],[105.2449826896994,-3.906174251640396],[105.2303147866981,-3.8896842709123],[105.2045195594302,-3.891081695963441],[105.1777396599574,-3.907099193572863],[105.1653741517957,-3.937630032200159],[105.1510494130001,-3.93124774868461],[105.1388082990638,-3.936072377638114],[105.1358807917652,-3.948733646740335],[105.1437335216848,-3.958410885254152],[105.1346623398951,-3.989510997434545],[105.1282669001973,-3.998552856828821],[105.1155962889376,-3.99771437841572],[105.1055187423961,-4.019612970062505],[105.1082834885922,-4.030415543742352],[105.1210251022267,-4.034549993387396],[105.1195577351015,-4.047591619057902],[105.0947295272459,-4.045894176574974],[105.07823964994,-4.085859393596072],[105.0614457792993,-4.097198374205549],[105.0630253530377,-4.125773787230427],[105.0494998426437,-4.141647833081022],[105.0288430105965,-4.1444829674149],[105.0138705566809,-4.174689386405975],[104.9675884602393,-4.171057820561932],[104.9531728476489,-4.178199157964782],[104.9461713638174,-4.192091012590174],[104.9277212972002,-4.191771147120685],[104.906062459415,-4.201037467405191],[104.9021608802204,-4.21034822768849],[104.8926283489192,-4.208387430435481],[104.8912062680549,-4.217368542424252],[104.8750705707503,-4.218069726736465],[104.8727314763766,-4.235641810421134],[104.8637214053187,-4.23135705168656],[104.8555628861184,-4.24129547760417],[104.8274197106512,-4.238724393216112],[104.7968507956278,-4.250515621298836],[104.7925296467259,-4.266598448359707],[104.7635802596214,-4.245836341673817],[104.7481496182104,-4.248076185067776],[104.7446426930059,-4.227247907165113],[104.7600386961289,-4.212807635164209],[104.776793198947,-4.174378900865497],[104.7859123766549,-4.170737695188434],[104.7904579342863,-4.126986832376359],[104.8041690593547,-4.11012199533374],[104.8214344175644,-4.109865914280489],[104.834555968683,-4.099361982069707],[104.8258177357,-4.070567678555451],[104.830089024389,-4.060472552066566],[104.8469211593841,-4.053751039778566],[104.8530719610023,-4.036312080038476],[104.8726486443196,-4.021033410563371],[104.9112250284124,-4.006509941380701],[104.9297094922993,-3.949411704986153],[104.8999391419778,-3.941605464620482],[104.8674901978144,-3.957596274848177],[104.85449546999,-3.953617934919665],[104.8977178327119,-3.925097153910498],[104.8875807807285,-3.909903391228456],[104.8492487118586,-3.910779720307803],[104.8605973089187,-3.873925117949797],[104.8770097231203,-3.862618375337748],[104.8716464542205,-3.838546821078895],[104.8771265333629,-3.810016995587853],[104.8350536031413,-3.747909496725901],[104.7994021093199,-3.756955781683915],[104.8015771151917,-3.735155801598891],[104.7766151151955,-3.72887909669293],[104.7736042929038,-3.709146478127392],[104.7601023519421,-3.705211397388],[104.7534525426008,-3.685932216998181],[104.7217540727923,-3.679108337579676],[104.7109669647537,-3.665459826010123],[104.718979228109,-3.65702965129733],[104.6981078043318,-3.66006872129441],[104.7046583662906,-3.620051989307774],[104.6808569998507,-3.637830119364496],[104.6711669064277,-3.619296985967038],[104.6587940247245,-3.615822889614575],[104.6645405199291,-3.627374460962487],[104.6663937159972,-3.620972068606035],[104.6728540921427,-3.624195167772706],[104.6678262703662,-3.634438567286027],[104.6473655417863,-3.621867842826612],[104.6517573360323,-3.635574455996318],[104.6648126979477,-3.639507227276686],[104.6600194436425,-3.65038055601781],[104.6319943266769,-3.615055952270366],[104.635527464421,-3.590621544948272],[104.6513426712274,-3.575919329213642],[104.6433076019643,-3.581686421591071],[104.6395251406728,-3.573595639327268],[104.6493141397358,-3.560661169677173],[104.6490468657203,-3.528585382109631],[104.6595183665794,-3.517070714441831],[104.6607594426942,-3.495893671355857],[104.6682375492236,-3.499040838963444],[104.7008999843468,-3.466632634088709],[104.7260003918047,-3.466468371118372],[104.7352216533567,-3.484008947055164],[104.7488009144307,-3.487381221266242],[104.7682920632282,-3.460687338349969],[104.7855012569775,-3.467117067398709],[104.8160969996769,-3.450586000243641],[104.8140833330794,-3.417416666745757],[104.8057778358785,-3.412130679287342],[104.8263836430907,-3.318746391033114],[104.8089407434206,-3.272934205649028],[104.798746237349,-3.2738133900758],[104.8017832487979,-3.266769335935995],[104.787936773963,-3.258135428806932],[104.7869920136706,-3.249039511164467],[104.7930220165529,-3.248282866560961],[104.7906391386853,-3.23780929726121],[104.8133650787354,-3.237626510954675],[104.8110054213632,-3.203414254364281],[104.7986119595744,-3.186576809771926],[104.8070042287622,-3.177933055066331],[104.7990944035839,-3.173190840884546],[104.8089367711152,-3.168165286298821],[104.8123236170413,-3.157607899285056],[104.8052949979658,-3.153849376147713],[104.8182088587519,-3.143490208706082],[104.814135845393,-3.132839960395797],[104.793033058429,-3.130961995199824],[104.7999123225957,-3.120553024202691],[104.7919068626116,-3.113645093246456],[104.7963716917002,-3.072930630344286],[104.8300983917275,-3.074040903664768],[104.8303012805797,-3.090751602304545],[104.8551574402637,-3.110111663222684],[104.8800357331626,-3.098925215726103],[104.8869132553425,-3.107279395927323],[104.8837026171822,-3.142206520014826],[104.902614136733,-3.141455145438579],[104.9019194491234,-3.148869801200307],[104.9232383054035,-3.159401589012115],[104.9425267685955,-3.158128316268785],[104.9613718597236,-3.168399466162411],[104.9841843748091,-3.152918809855157],[105.0004447028608,-3.157199599881613],[105.0317625130296,-3.146587892017541],[105.0502719897606,-3.148477474655722],[105.0444207280343,-3.11401405990093],[105.0624851752506,-3.104071078017759],[105.0842506789258,-3.104931942355263],[105.0832755539237,-3.000057678219184],[105.1268144887976,-2.941537351067838],[105.1408969439388,-2.951844945088114],[105.156355905001,-2.992063579370699],[105.189098814159,-3.10682710528665],[105.2090480749087,-3.109718363611494],[105.2171099655525,-3.101429692726112],[105.2327119637862,-3.020773932970558],[105.2543134527037,-3.003976490222795],[105.26028481799,-2.982551845790995],[105.2810866864015,-2.975330165654524],[105.2929593930616,-2.993965945871649],[105.3050869334153,-2.978306943210798],[105.2885058720484,-2.957964023121098],[105.2896554106687,-2.938629202575596],[105.3007504124017,-2.934777056415941],[105.2989656466473,-2.904064576319135],[105.2852380720794,-2.8827234843013],[105.2706152997563,-2.898013972666627],[105.2590113330067,-2.882330605572905],[105.2571448350662,-2.85578690763966],[105.2786033119933,-2.851591460577454],[105.278179302333,-2.826675120960045],[105.2487335587068,-2.807163875912158],[105.2563187394184,-2.789433741773697],[105.2551549348525,-2.756151253777331],[105.2199352945782,-2.747570874296359],[105.2055952915894,-2.732051304324193],[105.2154365106864,-2.718860373207635],[105.2146922587408,-2.685386637183543],[105.1954863596078,-2.657155175271056],[105.173854749697,-2.646238412872462],[105.1796329990637,-2.634612418128571],[105.1995527683456,-2.637403629573745],[105.2051328431063,-2.631201318386081],[105.2098273419584,-2.606687116916875],[105.1989160699207,-2.58914351206341],[105.2128798694105,-2.560396879812091],[105.2290792791854,-2.541671260919889],[105.240979222713,-2.543657128573587],[105.2465181148192,-2.554741029075183],[105.258421890358,-2.549659283049424],[105.2855243056023,-2.50895667770841],[105.3122056960362,-2.499474202672294],[105.3064047603714,-2.488650983256216],[105.3348529139309,-2.460624291577743],[105.3343696686253,-2.448183159425257],[105.3512156486833,-2.445511626160604],[105.3608350194207,-2.453287089927228],[105.3778925838757,-2.445290613271103],[105.4004034618503,-2.457540225800761],[105.4274624290479,-2.448412464063912],[105.4723791342897,-2.464313628970752],[105.4701828738406,-2.456264133682831],[105.4807901102754,-2.446593800163724],[105.4948016322896,-2.451034040888159],[105.4946546398998,-2.440557218740549],[105.5254917480458,-2.423102335604257],[105.5803929964397,-2.418202815607431],[105.616656832347,-2.391331974890745]]]]}},{"type":"Feature","properties":{"kode":"16.03","nama":"Kabupaten Muara Enim","lat":-3.636601366521556,"lng":103.99668856642977},"geometry":{"type":"MultiPolygon","coordinates":[[[[103.7845824522184,-3.316529474955201],[103.8013338568721,-3.30948627067478],[103.8185611548734,-3.326237676227686],[103.831378518404,-3.315216805611046],[103.8496924357574,-3.317494743387675],[103.8569450327871,-3.332917458174103],[103.8705079612735,-3.328520214036581],[103.9073896071447,-3.359691153224079],[103.9177402616038,-3.399190205763317],[103.9486732545671,-3.412515187126155],[104.0246375479845,-3.405799158004699],[104.0287183332846,-3.341249721897091],[104.0593330561757,-3.337652222372148],[104.0924661110223,-3.356037777921086],[104.0999334050027,-3.338672959189706],[104.1100702834169,-3.346647128162397],[104.1141056799333,-3.333026804943076],[104.1126055208282,-3.351116864851436],[104.132214668772,-3.343942731871577],[104.1248476312132,-3.360436502342681],[104.1536993483463,-3.40865013389651],[104.1367537737677,-3.453928158857414],[104.1423297107476,-3.468247072744182],[104.125715670342,-3.494905123072892],[104.1405165641881,-3.513506210143438],[104.1493341362614,-3.551166570880484],[104.1951992611371,-3.55147003541372],[104.1959866733464,-3.540547222376381],[104.2180596462358,-3.526274253953579],[104.2298543915669,-3.529869604098915],[104.2324815306981,-3.540150302994041],[104.2478638632268,-3.535452599857505],[104.2511528035591,-3.577641922136968],[104.2803379119651,-3.581402567674344],[104.2987857149888,-3.563815100186643],[104.3145815548949,-3.566706238002462],[104.315749889346,-3.557139342706497],[104.3208618364047,-3.609236369163041],[104.3488042346278,-3.600083100854404],[104.3580096618165,-3.589265381692],[104.3906917543211,-3.590303916092788],[104.4140889060782,-3.572718571904579],[104.4150509432465,-3.563142667200283],[104.4352656002274,-3.566273349335594],[104.4558190291249,-3.578790832131132],[104.4549729010786,-3.594981246886933],[104.4674861336782,-3.614631215957756],[104.4514089525612,-3.644001801441979],[104.3750000514113,-3.691993313940214],[104.3663011403854,-3.755587002737906],[104.3845233493731,-3.763397666868753],[104.3608290040554,-3.771178121872756],[104.3363874399284,-3.759935172670017],[104.3235041318103,-3.772360692591883],[104.3076106668988,-3.774560438813149],[104.2860983610506,-3.755913796584379],[104.2798127789367,-3.767456881929457],[104.2480665281478,-3.781109539373675],[104.2438238199135,-3.822180423387847],[104.2120237393042,-3.852202717881051],[104.1141666665584,-3.900638889373267],[104.0752430101569,-3.908582424739018],[104.0627753210243,-3.903050686739709],[103.9934973737049,-3.91999397074512],[103.9696781476284,-3.888532017238758],[103.9406664599892,-3.898807679031149],[103.9286268283655,-3.916254854078163],[103.8958753037024,-3.927682880160679],[103.8914882866551,-3.968105154229454],[103.8744092823625,-3.976182545587983],[103.8517873956718,-4.00747406137876],[103.8380909457406,-4.008650359326607],[103.8210374138456,-4.03005340474081],[103.7918242960545,-4.044708344014827],[103.7741616776194,-4.074475320979223],[103.7324372472812,-4.087805656905521],[103.7017868123116,-4.087005827756654],[103.705177149406,-4.183913411574627],[103.6472658692245,-4.198893367634751],[103.6440593571536,-4.217706974397275],[103.6189618140366,-4.224565444439657],[103.6152273666498,-4.262734282760919],[103.6275546068597,-4.281090756932818],[103.6012001721503,-4.346524890311423],[103.6018032233402,-4.363120842652693],[103.5832098479562,-4.353490079303659],[103.5590345236244,-4.356488199570732],[103.5450014151832,-4.371134258039502],[103.5366066773564,-4.366165944402736],[103.5181382519789,-4.376844964723306],[103.5042772261132,-4.36090067192845],[103.4505348566983,-4.349547098020048],[103.4422149874318,-4.330134307152525],[103.4093207718363,-4.313586875933575],[103.3711356881615,-4.315687756984302],[103.3457281532317,-4.290338457653656],[103.3226899469835,-4.2835989913004],[103.3161366313005,-4.267172795887733],[103.3359885925995,-4.256903398772829],[103.3312910900119,-4.239298724556376],[103.3528086272164,-4.227551896902495],[103.3594781119254,-4.237265012969951],[103.3707026124356,-4.229858677735779],[103.3746808399488,-4.211667206676209],[103.4052965592889,-4.173114418095805],[103.4384734488906,-4.18219379900451],[103.4579168167078,-4.158885628868594],[103.4463648397656,-4.147246513016148],[103.4430837172398,-4.12588376622274],[103.4543147117546,-4.121068783397577],[103.4645131055954,-4.10004754515805],[103.4804964910203,-4.106886207632312],[103.4979907419792,-4.130582965831112],[103.5133494079488,-4.123820977755857],[103.5262309965633,-4.137546463198641],[103.5555627331337,-4.119927376447199],[103.5666159190894,-4.090187148917737],[103.5846333470514,-4.091899080378239],[103.5968126361942,-3.995796482421701],[103.6433546465997,-3.967455466896277],[103.6453108321293,-3.957026386158782],[103.6345264148622,-3.943424070964044],[103.6602707791732,-3.91089709532462],[103.6757824270174,-3.902112477109101],[103.6951755038465,-3.907284560933702],[103.7196997831185,-3.884796913346802],[103.7034108035659,-3.869965156566638],[103.7165435062778,-3.82777470563809],[103.7380592592275,-3.801786078264849],[103.7243944042783,-3.764754507314619],[103.7639182808041,-3.739777287192039],[103.7513952959562,-3.729894263109726],[103.7503720734125,-3.712923834866968],[103.7340847396191,-3.69099488570537],[103.7499029807381,-3.682745540374357],[103.7645470490072,-3.686552725827566],[103.7677243717824,-3.670141037378885],[103.7625879119027,-3.662301835960927],[103.7466269888445,-3.660518475846944],[103.7348945395514,-3.640467856106591],[103.7436087453474,-3.622385954847898],[103.73125877837,-3.617237623017802],[103.7615923111364,-3.611001187954413],[103.7554577809519,-3.604567825644603],[103.7729447060334,-3.583193079197214],[103.7630862442348,-3.585919891090031],[103.7571999107474,-3.575654188390034],[103.7321964367163,-3.576099357299414],[103.7081246738148,-3.565481889277747],[103.6277283522817,-3.509315629312828],[103.5701388459311,-3.549291551863545],[103.5383050002756,-3.547829721864096],[103.5492408157111,-3.527402749337297],[103.5400642270825,-3.492683859672388],[103.5603906491093,-3.479273994898938],[103.5717791077197,-3.456234685182549],[103.5936618236343,-3.457292583785668],[103.6109251790538,-3.426075732409098],[103.6266602023065,-3.359414580218603],[103.6906677042513,-3.301422356556463],[103.7074000729551,-3.294169758627399],[103.7207631262174,-3.303363997350564],[103.7236184800089,-3.318725796558189],[103.7161374542802,-3.333516527165939],[103.7310423978884,-3.353561106160077],[103.7380665671184,-3.346137188280609],[103.7363864689605,-3.299873723993121],[103.7439364987705,-3.28557078386458],[103.7606331769796,-3.280135618663829],[103.7845824522184,-3.316529474955201]]],[[[104.6331039866597,-3.017835712947806],[104.6637586538389,-3.041385093846907],[104.6750279756606,-3.036834121397527],[104.6766680171154,-3.051029403683961],[104.6604142738997,-3.077675897724477],[104.6430892339811,-3.070899242605909],[104.6429860628565,-3.096308148102514],[104.6240424743808,-3.096398211608145],[104.6241331503247,-3.101927550216191],[104.5770047918378,-3.101596127559228],[104.576011237029,-3.114805026230963],[104.5223977485573,-3.180014135743717],[104.521713830329,-3.208105915855322],[104.5424768588201,-3.210132833063797],[104.5499730264341,-3.249636357032218],[104.5488129495581,-3.263219737001213],[104.5306722776036,-3.274283186919449],[104.5315620020848,-3.297311470947564],[104.5407457088474,-3.302929277664004],[104.5400341337683,-3.315228646085069],[104.5329552686707,-3.317731443151553],[104.5384612347982,-3.344856520412057],[104.5333361090742,-3.361566842235922],[104.501104770269,-3.372295470059841],[104.4978493665551,-3.399298411292564],[104.4657433383844,-3.422634225688872],[104.4372999997952,-3.428109999776632],[104.4428121649495,-3.457596343296546],[104.424386811702,-3.491726496280714],[104.3851374712174,-3.506603733575345],[104.3488346236191,-3.531812788129665],[104.317690125399,-3.538704374806992],[104.2949892890246,-3.474510514448673],[104.2764257693338,-3.460531430980732],[104.3171520951931,-3.449552153109339],[104.3517337060458,-3.37592074964286],[104.313251335281,-3.350618710584977],[104.2863717000939,-3.365182052109963],[104.2083790811298,-3.35970297571169],[104.1969911000593,-3.34923505325502],[104.1785654275525,-3.349006411416758],[104.177766238721,-3.335442249060508],[104.1890225500507,-3.318777048022328],[104.2136238742425,-3.312183433718443],[104.2090111318583,-3.305155041272092],[104.2174175204023,-3.303796469631306],[104.215596395957,-3.29533962732185],[104.2234695449836,-3.301111263074288],[104.2337730012231,-3.283413938002846],[104.2282307744307,-3.265990691217338],[104.2102985617293,-3.257994872865025],[104.2169273323305,-3.227373866410746],[104.2353681548165,-3.206315636357518],[104.2571716386603,-3.03242156720154],[104.2695898650802,-3.021895449615267],[104.3182928105648,-3.054873912800796],[104.385670189128,-3.06137737186816],[104.4563904691449,-3.080380615972603],[104.4820739313669,-3.072731535731757],[104.4975563008827,-3.080751775174198],[104.53600165825,-3.057777123115704],[104.5448128856063,-3.033119572410284],[104.5819552683211,-3.034051281741215],[104.5830707082467,-3.048183350681002],[104.5956766816336,-3.053145843905527],[104.6108286069548,-3.048112223300395],[104.6331039866597,-3.017835712947806]]]]}},{"type":"Feature","properties":{"kode":"16.04","nama":"Kabupaten Lahat","lat":-3.8288234056844073,"lng":103.37894909096525},"geometry":{"type":"MultiPolygon","coordinates":[[[[103.4109381206978,-3.490187117741231],[103.4212727132652,-3.501578366048699],[103.4332335705729,-3.500885054401673],[103.4338892294045,-3.515861182947136],[103.4479645996866,-3.508219314369823],[103.4708087322373,-3.532868486991061],[103.4871012353338,-3.530035420198432],[103.4899677676984,-3.544619699739274],[103.5051117618984,-3.553214828101739],[103.5038410279411,-3.569097454383988],[103.5204965486768,-3.571547776009057],[103.5128424780979,-3.575229639136504],[103.518330629555,-3.598760216111055],[103.5426590715589,-3.589637245962043],[103.5383050002756,-3.547829721864096],[103.570138845931,-3.549291551863545],[103.6277283522817,-3.509315629312828],[103.7081246738148,-3.565481889277747],[103.7321964367162,-3.576099357299414],[103.7571999107473,-3.575654188390034],[103.7630862442348,-3.585919891090031],[103.7724216063721,-3.582516315075848],[103.770332168295,-3.590076984765014],[103.7619778981615,-3.589165851023138],[103.7636371923026,-3.602169937192803],[103.7554577809518,-3.604567825644603],[103.7615923111363,-3.611001187954413],[103.73125877837,-3.617237623017802],[103.7436087453474,-3.622385954847898],[103.7348945395514,-3.640467856106591],[103.7466269888445,-3.660518475846944],[103.7625879119027,-3.662301835960927],[103.7677243717824,-3.670141037378885],[103.7645470490071,-3.686552725827566],[103.7499029807381,-3.682745540374357],[103.7340847396191,-3.69099488570537],[103.7503720734125,-3.712923834866968],[103.7513952959562,-3.729894263109726],[103.7639182808041,-3.739777287192039],[103.7243944042783,-3.764754507314619],[103.7380592592275,-3.801786078264849],[103.7165435062778,-3.82777470563809],[103.7034108035659,-3.869965156566638],[103.7196997831185,-3.884796913346802],[103.6951755038465,-3.907284560933702],[103.6757824270174,-3.902112477109101],[103.6602707791732,-3.91089709532462],[103.6345264148622,-3.943424070964044],[103.6453108321293,-3.957026386158782],[103.6433546465997,-3.967455466896277],[103.5968126361942,-3.995796482421701],[103.5846333470514,-4.091899080378239],[103.5666159190894,-4.090187148917737],[103.5555627331337,-4.119927376447199],[103.5262309965633,-4.137546463198641],[103.5133494079488,-4.123820977755857],[103.4979907419792,-4.130582965831112],[103.4804964910203,-4.106886207632312],[103.4645131055954,-4.10004754515805],[103.4543147117546,-4.121068783397577],[103.4430837172398,-4.12588376622274],[103.4463648397656,-4.147246513016148],[103.4579168167078,-4.158885628868594],[103.4384734488906,-4.18219379900451],[103.4052965592889,-4.173114418095805],[103.3760276430613,-4.210628870126223],[103.3682353880528,-4.206668745066525],[103.3560567140462,-4.163537671626186],[103.3648329388891,-4.149262186001026],[103.356059913834,-4.12642108866226],[103.3637155231529,-4.113210428218641],[103.3596430799642,-4.097932959338538],[103.3952218384172,-4.063694547765165],[103.4147466056714,-3.985524470977511],[103.3797770389792,-3.98815398431889],[103.3531479558136,-4.002539203421465],[103.3437755730843,-4.051017866980969],[103.3292405269288,-4.065917894894858],[103.3145086209761,-4.048601071182459],[103.2782852509636,-4.032446916192159],[103.2896943975784,-4.007967834148188],[103.249407257439,-4.00746598097024],[103.2248690998291,-3.989215996421061],[103.1831975190504,-3.990508904961912],[103.1632760806267,-4.010124040591981],[103.1199221192105,-4.015694228206071],[103.1361464626892,-4.045747479162801],[103.1334021400967,-4.073684032691885],[103.1489308300938,-4.091900212624713],[103.1421113888297,-4.097833610332804],[103.1456458323894,-4.115179573878239],[103.16516036356,-4.117451468210634],[103.1874379349129,-4.164615725835022],[103.1822810298457,-4.178432409727842],[103.1868499257835,-4.217408585637619],[103.1777500223457,-4.240741559974984],[103.1673371842637,-4.247110501148635],[103.1592498383094,-4.23611666595132],[103.1377991755915,-4.257591871167834],[103.1171210655848,-4.249037412846304],[103.0973720361905,-4.253318004122589],[103.0847552538519,-4.267905243332295],[103.0676360408707,-4.256885666840018],[103.0697591342767,-4.241088922215999],[103.0512226778843,-4.219049226940255],[103.0631410431247,-4.211032680114071],[103.0602885132044,-4.19584810670475],[103.0346719479522,-4.172538462579992],[103.0027075000512,-4.160492221838544],[102.9699242050381,-4.123647237729847],[102.9196389608694,-4.096593128669904],[102.9220383835646,-4.076302502358578],[102.9146439679448,-4.060154377322592],[102.9307517224142,-4.048180455563502],[102.9584200909145,-4.054651977906401],[103.003749728867,-4.016277291064066],[103.034773941864,-4.020397823700497],[103.0422773049537,-4.011796828161065],[103.0599366165816,-4.015728906963448],[103.1235982617504,-4.006489756097301],[103.1068944636087,-3.974327374608569],[103.1084897817781,-3.932397786428668],[103.1212094240757,-3.900472021066895],[103.119324061956,-3.868162717335524],[103.1380803774076,-3.816302354669856],[103.1318621859911,-3.80282510999084],[103.1072066021031,-3.7946514740862],[103.109787309237,-3.78346313801339],[103.0881611033523,-3.76521422725469],[103.1140219118818,-3.731336033730928],[103.1192608369181,-3.709917600017201],[103.102404325799,-3.65390252598077],[103.1202827599415,-3.63012341956013],[103.1198849583242,-3.613557484790045],[103.1299024319517,-3.613171357272263],[103.1196187859783,-3.611703303964278],[103.1386945469159,-3.586753147139968],[103.1377472730183,-3.556809512748751],[103.163104382961,-3.561164265718178],[103.180068914349,-3.531788905733338],[103.1806834687671,-3.521782875079607],[103.1693044647293,-3.519407843796854],[103.1678449118133,-3.508909408242536],[103.2078555293093,-3.497468322205213],[103.2535548218976,-3.499044708746249],[103.2677487012416,-3.507071291107147],[103.2763519028181,-3.50035061968528],[103.2944232073652,-3.518664096370896],[103.2954107861789,-3.5125077414391],[103.3020058645791,-3.521108231559625],[103.3360089721364,-3.524451796712993],[103.3570454260056,-3.540599545832348],[103.364725032834,-3.53219475988025],[103.4089320920425,-3.527490269560277],[103.4046070086066,-3.505596171825756],[103.411461867871,-3.502673203405562],[103.4109381206978,-3.490187117741231]]]]}},{"type":"Feature","properties":{"kode":"16.05","nama":"Kabupaten Musi Rawas","lat":-3.165397272976841,"lng":103.13654937560912},"geometry":{"type":"MultiPolygon","coordinates":[[[[103.2710862796082,-2.75306037293779],[103.3378650901019,-2.823082580296779],[103.3525015312207,-2.852385871310828],[103.4338343230956,-2.854191203661019],[103.4356904860272,-2.878250009130559],[103.4110555676603,-2.924722201568278],[103.4263889024259,-2.943361090741694],[103.4420277845547,-2.936920264058854],[103.4432500117787,-2.963277758261887],[103.4569734359753,-2.975798356309037],[103.4752553329674,-3.019189206116904],[103.4834748972487,-3.021181370823525],[103.4784422730925,-3.043250376803355],[103.5093271406351,-3.13372016555318],[103.5219778238176,-3.22056524399075],[103.5333483382553,-3.233224691066619],[103.5548987888481,-3.229663144638353],[103.5624967363354,-3.236199017970234],[103.5882226366654,-3.22266944713723],[103.5997783691765,-3.246197297367351],[103.6366755202591,-3.237391884128085],[103.6500997552996,-3.241697819198988],[103.6050907058714,-3.287483473683286],[103.6256121440853,-3.375768229120427],[103.5936618236343,-3.457292583785668],[103.5717791077197,-3.456234685182549],[103.5603906491093,-3.479273994898938],[103.5409508938688,-3.490146649148487],[103.5492408157111,-3.527402749337297],[103.5375792626729,-3.540041763816307],[103.5434953808073,-3.558398979029656],[103.5373296990065,-3.595729089825531],[103.5139809658489,-3.595153118121866],[103.5128424780979,-3.575229639136504],[103.5204965486768,-3.571547776009057],[103.5038410279411,-3.569097454383988],[103.5051117618984,-3.553214828101739],[103.4899677676984,-3.544619699739274],[103.4867745296209,-3.52974215577582],[103.4708087322373,-3.532868486991061],[103.4479645996866,-3.508219314369823],[103.4338892294045,-3.515861182947136],[103.4332335705729,-3.500885054401673],[103.4212727132652,-3.501578366048699],[103.4108933623389,-3.490113454272395],[103.411461867871,-3.502673203405562],[103.4046070086066,-3.505596171825756],[103.4089320920425,-3.527490269560277],[103.364725032834,-3.53219475988025],[103.3570454260056,-3.540599545832348],[103.3360089721364,-3.524451796712993],[103.3020058645791,-3.521108231559625],[103.2954107861789,-3.5125077414391],[103.2944232073652,-3.518664096370896],[103.2763519028181,-3.50035061968528],[103.2706216349805,-3.507186102156792],[103.2535548218976,-3.499044708746249],[103.202161587787,-3.501308278054507],[103.1758085461275,-3.452445732584478],[103.1019242254228,-3.474950713704386],[103.044266712339,-3.432591896199069],[103.0425258919564,-3.416662075294477],[102.998497222269,-3.4128930561695],[102.9882917453678,-3.367651597643098],[102.9669780556927,-3.362349166980463],[102.959047505638,-3.329883368622502],[102.9581450161797,-3.3088558171422],[102.9765206018443,-3.292468691876563],[102.9663903001723,-3.283590500101477],[102.965486587636,-3.2685000947035],[102.927407498957,-3.261510511600799],[102.9305441121211,-3.251396868970316],[102.949369115992,-3.248613425868887],[102.9544506129055,-3.237011114771063],[102.9397176727324,-3.230966389087511],[102.9301176158354,-3.196040335193276],[102.9148925522496,-3.189793913158459],[102.9248616549415,-3.171927154914192],[102.9172740460605,-3.152012467701207],[102.9116125206014,-3.158573898866271],[102.8927126823445,-3.151049676901055],[102.8820427874447,-3.156895442870303],[102.861418721297,-3.13069817008447],[102.8376422930574,-3.151071855981316],[102.8329577640896,-3.176438932210848],[102.8113763516374,-3.178743731837733],[102.8073200269977,-3.233655530178472],[102.7701649881238,-3.254023053021429],[102.7779852075514,-3.268531863254845],[102.7673801555698,-3.268779428627669],[102.7530468822079,-3.283324784611066],[102.7582108397585,-3.289885286776498],[102.7507293940464,-3.309402080641435],[102.7395626147229,-3.305090657008217],[102.6746872490174,-3.315696626298228],[102.6380781669739,-3.33777445732524],[102.6323620373782,-3.325980433250278],[102.6241982526473,-3.33186505262997],[102.6108095875924,-3.31909056697606],[102.5923032926629,-3.317175930125041],[102.5676558548339,-3.276592058676522],[102.5452098926225,-3.290894530258262],[102.5403153099037,-3.276633601959114],[102.4942721489406,-3.268369837797705],[102.4842376241671,-3.254473268026883],[102.4931450178284,-3.239446922237635],[102.4843223627869,-3.228203594420245],[102.4939050942448,-3.169066575162274],[102.4867199598583,-3.156963943331251],[102.486528715428,-3.109910083783321],[102.5846279063529,-3.071370616860383],[102.5962423556003,-3.047059682858036],[102.6167330810669,-3.055491899931242],[102.6350457051951,-3.040852998267221],[102.6727003219624,-3.031362890684777],[102.6970350691132,-3.006391044910719],[102.712516293792,-3.012406404132209],[102.7294814574034,-3.00484925079221],[102.7410986639722,-3.0138990547975],[102.7477101469058,-3.004092860696941],[102.7787741378162,-2.99162259500674],[102.8156650655903,-2.985048442931218],[102.8277315986344,-2.995509270636257],[102.8471460019864,-2.990614487368662],[102.8565810431806,-2.974703271638626],[102.8698507755929,-2.973025823782718],[102.8732568391319,-2.926833771061668],[102.9115498648345,-2.934500605718318],[102.9010479947692,-2.885972235730064],[102.9463565697,-2.880983985922184],[103.0143004096363,-2.854419266336075],[103.0269315874229,-2.859484174355112],[103.1008044255839,-2.845723143208437],[103.1020885459497,-2.792537123189634],[103.1199599401991,-2.792536610576038],[103.1199185264189,-2.770713598853439],[103.1697669383935,-2.770633268710368],[103.1737847495666,-2.759103335050808],[103.2038112753701,-2.759244997158808],[103.2046998900879,-2.753638835763608],[103.231706236154,-2.765928004973331],[103.2710862796082,-2.75306037293779]]]]}},{"type":"Feature","properties":{"kode":"16.06","nama":"Kabupaten Musi Banyuasin","lat":-2.4502899663969657,"lng":103.82783465152235},"geometry":{"type":"MultiPolygon","coordinates":[[[[104.1757057875921,-1.81869971022344],[104.2007233198254,-1.86639884413127],[104.2941518700129,-1.986090394955722],[104.3382306993874,-2.011011000956911],[104.355554499141,-2.05526486538117],[104.3702412492343,-2.055280306740739],[104.3714395176197,-2.117747796123906],[104.383123854982,-2.132165066164829],[104.3836757437407,-2.146177350804093],[104.4004718339081,-2.150474013864637],[104.4290181259858,-2.1909314280429],[104.4552231410351,-2.191202389278748],[104.4551896340944,-2.209333310783615],[104.4681128703128,-2.21971867817439],[104.4884698468061,-2.203901036004011],[104.5105481796548,-2.229636629226997],[104.5644433321941,-2.247094910001993],[104.6090356843494,-2.2376610765974],[104.6336450412856,-2.240994596323523],[104.6841478710275,-2.335170341038387],[104.6598583480843,-2.347654797131129],[104.6421809897609,-2.343280304042741],[104.6054352782156,-2.3769213148668],[104.5482179284147,-2.379305605569185],[104.5386677937837,-2.368137495249181],[104.5204438823793,-2.382722952901942],[104.5145869081594,-2.374482893071031],[104.4729967501999,-2.407639850098933],[104.4740007344464,-2.414192475102597],[104.3785203288501,-2.402794343384221],[104.3425807911706,-2.406574642705531],[104.2794464769734,-2.439794891321137],[104.1424057133531,-2.388379767712115],[104.093647697883,-2.311809884318697],[104.0613014670891,-2.296483005786046],[104.0388869838473,-2.330209189602408],[104.0547470209583,-2.362079733892555],[104.0616473967101,-2.451772362704288],[104.0790592697695,-2.451751882443334],[104.083347225594,-2.444872653350208],[104.0760105500469,-2.440236187749781],[104.0760635875646,-2.436768088976107],[104.0959515577182,-2.441519124607863],[104.1014149841143,-2.466275251801411],[104.1306740482688,-2.480936781307344],[104.1347530583071,-2.499497406080378],[104.1465677838762,-2.503504157390937],[104.1525079795597,-2.517719226560969],[104.1514540082959,-2.537464610103582],[104.1402247485734,-2.550968649183785],[104.2091511500056,-2.628747816758262],[104.2287103181268,-2.635291335226933],[104.2532663560576,-2.624155456609037],[104.2806460187987,-2.629739259958866],[104.3021620361491,-2.644447226858018],[104.2944352158126,-2.6589555442629],[104.2671546223879,-2.664421671323039],[104.2629039632474,-2.682198005433614],[104.2256308838583,-2.689045930025616],[104.1958782142082,-2.723470537235498],[104.1917956446533,-2.760634922763375],[104.1713293906389,-2.760605227149496],[104.1705446224364,-2.786317119639284],[104.1788535109808,-2.791072886604409],[104.1852213064182,-2.813116432777088],[104.1762466308774,-2.826304077770983],[104.1706604973841,-2.872323275398772],[104.1834907122266,-2.88468764411938],[104.2299423200821,-2.885165515076407],[104.2316901245996,-2.908391289326476],[104.2113920411099,-2.908232480744369],[104.2055006255535,-2.918840399764536],[104.1752243876954,-2.918547082281966],[104.1767616923983,-2.951052791652911],[104.1642510453496,-2.995643110441184],[104.1658576410174,-3.050337684736329],[104.1416245388414,-3.04652312394296],[104.1321052356682,-3.026626050851513],[104.1353466513269,-3.012610121259998],[104.1278513488607,-3.0091836979693],[104.0647480432876,-3.004400981020419],[104.0196334620147,-3.030170544335034],[103.9503812317085,-3.004182863947927],[103.9256676811186,-3.024236146580852],[103.9118230642831,-3.021666439054885],[103.8897104124057,-3.075837298552456],[103.8489467026282,-3.082980467874188],[103.8352726242323,-3.104353925593164],[103.819225341976,-3.10298700824381],[103.8118728068846,-3.122332026202004],[103.7915284164033,-3.134538661030353],[103.7972391221878,-3.150385871111075],[103.7800735086855,-3.178955685856158],[103.7969999996503,-3.223472221565673],[103.795555556244,-3.240513888704902],[103.783666667183,-3.239250000387164],[103.7362416394401,-3.261387727161827],[103.7219305559505,-3.255708333073029],[103.7158618138717,-3.236019290258055],[103.655018855336,-3.265972927808283],[103.6344430486079,-3.262761408312345],[103.6500997552996,-3.241697819198988],[103.6366755202591,-3.237391884128085],[103.5958703679232,-3.245487395027238],[103.5882226366654,-3.22266944713723],[103.5624967363354,-3.236199017970234],[103.5548987888481,-3.229663144638353],[103.5333483382553,-3.233224691066619],[103.5157713757485,-3.209459486366109],[103.5093271406351,-3.13372016555318],[103.4784422730925,-3.043250376803355],[103.4834748972487,-3.021181370823525],[103.4752553329674,-3.019189206116904],[103.4569734359753,-2.975798356309037],[103.4432500117787,-2.963277758261887],[103.4420277845547,-2.936920264058854],[103.4263889024259,-2.943361090741694],[103.4110555676603,-2.924722201568278],[103.4356904860272,-2.878250009130559],[103.4338343230956,-2.854191203661019],[103.3525015312207,-2.852385871310828],[103.3378650901019,-2.823082580296779],[103.271081593241,-2.7530553781032],[103.3086668426008,-2.731496435212291],[103.3413348364336,-2.694663592850491],[103.3614129070801,-2.573183616031008],[103.347273496075,-2.569249500264162],[103.3238546931397,-2.537522224271152],[103.2853597966174,-2.511635422636596],[103.2758249999239,-2.446763888942252],[103.2666861108754,-2.437416667445172],[103.2497722221104,-2.444480556132669],[103.2267194441471,-2.470055555619391],[103.200666667233,-2.460733332577172],[103.2000444442957,-2.439044443945873],[103.1430138890798,-2.434719444146952],[103.1167527779184,-2.451491667206687],[103.0827500004123,-2.432583333054319],[103.0680250003535,-2.41243888884364],[103.0793111107193,-2.392872222175216],[103.0664277783194,-2.3849055562464],[103.0518280376339,-2.392332131622579],[103.0387797120141,-2.386862090712929],[103.0293255557299,-2.341625000193551],[103.0413250002486,-2.330553611060251],[103.0392975002795,-2.322185833109616],[103.0551805564376,-2.317341667284081],[103.0671166671005,-2.339861111301181],[103.1316666670831,-2.352777777972006],[103.1540416673891,-2.335583333104266],[103.2113055562066,-2.32027777839672],[103.1982222217782,-2.260555555894131],[103.1695999999401,-2.238430556325069],[103.1687222220529,-2.221022222097771],[103.1850444441458,-2.200922222382554],[103.1869694438848,-2.184194443818457],[103.2258250000238,-2.165433333181779],[103.2304694444094,-2.135758332580975],[103.2589499996429,-2.133061111081316],[103.2775833328046,-2.147886111255007],[103.3033611114263,-2.199252777593566],[103.3010888888412,-2.22181388899976],[103.3326666669332,-2.24899999965025],[103.3383611111764,-2.271305556106443],[103.349305555607,-2.265444444105727],[103.3594999996253,-2.284972222290163],[103.3829722222902,-2.294749999612725],[103.4057777784218,-2.335144444160766],[103.438388889236,-2.34239166684185],[103.4538055560816,-2.359602777945804],[103.4619444439809,-2.33967500020105],[103.4476111112639,-2.316166667057987],[103.4616388894233,-2.296500000274795],[103.4556388888237,-2.277555555644353],[103.4631388893483,-2.265527777984547],[103.4520833327796,-2.221944443581128],[103.4551388891484,-2.185972221840496],[103.4601944442183,-2.177694444443004],[103.5070083331681,-2.173675000101108],[103.5593250001487,-2.137122221913026],[103.5459999999001,-2.136272222285188],[103.5172936114111,-2.114248889274764],[103.5168691673782,-2.092233332702145],[103.5322499998376,-2.091500000324656],[103.5322222215783,-2.072708333422815],[103.5246388889736,-2.072986110620414],[103.5535666671681,-2.04223611080783],[103.5631116666701,-2.042171944179819],[103.5639244442578,-2.016752778318034],[103.5566416668795,-2.017669443789741],[103.5427444442008,-1.986041666989349],[103.4999972220942,-1.982180556387528],[103.5002888893209,-1.959861110801578],[103.5214444440059,-1.906658332815761],[103.5862222215783,-1.861655556158917],[103.630333333017,-1.84119444356863],[103.6620433447246,-1.846282777128375],[103.7661111112388,-1.816111110639243],[103.795277778147,-1.825277777947035],[103.8500000002998,-1.81666666683318],[103.871944443881,-1.802777778171885],[103.8733333325673,-1.788611111413621],[104.1445668058135,-1.715500332674116],[104.1757057875921,-1.81869971022344]]]]}},{"type":"Feature","properties":{"kode":"16.07","nama":"Kabupaten Banyuasin","lat":-2.520170237933361,"lng":104.68699686736372},"geometry":{"type":"MultiPolygon","coordinates":[[[[104.7035610000402,-2.362328999883426],[104.7024549481374,-2.360823298256578],[104.7027163540765,-2.357908365278741],[104.7030359029846,-2.360537671776067],[104.7035610000402,-2.362328999883426]]],[[[104.7084683414409,-2.364659601959021],[104.7039335073256,-2.363111938864806],[104.703364266148,-2.352895922808587],[104.7085856481093,-2.357658181080138],[104.7084683414409,-2.364659601959021]]],[[[104.7619671888347,-2.350890715234291],[104.7532667696458,-2.346899183150766],[104.7705313706263,-2.317149722281789],[104.7700839480159,-2.330876565700882],[104.7619671888347,-2.350890715234291]]],[[[104.9176243810604,-2.286172176904413],[104.9160678722346,-2.284426319419078],[104.9158021135767,-2.282252614866279],[104.9170396175843,-2.283059920079181],[104.9176243810604,-2.286172176904413]]],[[[104.916609765928,-2.276349163682914],[104.9162858993749,-2.275887170256643],[104.9167211235811,-2.273275849300907],[104.9176588718595,-2.274637502019042],[104.916609765928,-2.276349163682914]]],[[[104.5540986384415,-1.854039145590017],[104.5895359020603,-1.871235446658462],[104.6432363441821,-1.922448971043147],[104.6413077471549,-1.93591801300588],[104.6260036916171,-1.938693170653297],[104.6079460046045,-1.961503684747148],[104.6166993695803,-1.982685889042537],[104.6032747334423,-2.000902613964398],[104.5647687590711,-1.997527630096021],[104.5360944080306,-1.980239641346307],[104.5238994715834,-1.97966736765485],[104.5061326612933,-1.965251736178589],[104.5013816526412,-1.938495672337373],[104.5194620727165,-1.925984050423571],[104.5399177569989,-1.861195007043895],[104.5540986384415,-1.854039145590017]]],[[[104.5416607213653,-1.783601330037301],[104.5293289027068,-1.799718558864319],[104.5104978976599,-1.806603802623366],[104.4851072061328,-1.786059986579039],[104.495761950154,-1.781858343187961],[104.4981733949862,-1.779633546350981],[104.4994565638694,-1.770854298886684],[104.496698669608,-1.765676471991531],[104.5088857459805,-1.750360030091239],[104.5062061925618,-1.723068068336689],[104.5203113178131,-1.715895745692089],[104.5339559658952,-1.733469354626907],[104.5416607213653,-1.783601330037301]]],[[[104.4227687505775,-1.631636532899597],[104.4304257889191,-1.628689671291264],[104.4350860964463,-1.64106739134702],[104.4499847816724,-1.635768307960975],[104.4579412142157,-1.64705103417784],[104.4642744352171,-1.641877219158319],[104.4617829642125,-1.650899231414352],[104.4749607265563,-1.653434356410413],[104.4691832748883,-1.660030198334963],[104.4810574069738,-1.65648457800083],[104.4926768618478,-1.681202951654795],[104.5074157330497,-1.685954120386304],[104.5255719120142,-1.711786666821149],[104.5053448875566,-1.723181888333405],[104.5082172808029,-1.750420414170753],[104.4962062961837,-1.765578984582453],[104.49735939522,-1.779364151734145],[104.4836200961906,-1.786869073348976],[104.503609568327,-1.809338794749562],[104.4720235389552,-1.856836734127912],[104.4788650855553,-1.87790497093763],[104.472178738558,-1.912976214080933],[104.4850597659954,-1.913464915573362],[104.4930740843016,-1.92318940356804],[104.5047766689082,-1.969227827801914],[104.5230415048617,-1.981052686931919],[104.5357367557468,-1.981188660827973],[104.5619689815833,-1.999286933345237],[104.5889973466502,-2.007969267167889],[104.6112726741946,-2.00576157273831],[104.6355535132841,-1.973323066106561],[104.6548535075834,-1.964431395292612],[104.6986260962175,-1.999109524984524],[104.7210109989585,-1.994074941205495],[104.8275530081649,-2.003825549109786],[104.8596908399604,-2.029208500172144],[104.8909874899807,-2.079273498573089],[104.9006242203316,-2.11161606462962],[104.9025206953739,-2.190871288579002],[104.8442226887262,-2.248668598576911],[104.8283793853005,-2.250345708287751],[104.7886770374155,-2.280255026348391],[104.7432000734247,-2.359414916764971],[104.7013991683369,-2.342428093881368],[104.7022373940406,-2.363072487405285],[104.7282217631239,-2.380742207786637],[104.7300230898938,-2.390042900159608],[104.7541995266868,-2.395184848601842],[104.7582919267311,-2.38691706357155],[104.7876359129671,-2.383769637858427],[104.8390515689748,-2.337715567219581],[104.8445721266024,-2.324263721193701],[104.8376402062306,-2.300852224350683],[104.8463768339238,-2.286058291257101],[104.9005252202628,-2.279091113863776],[104.9122998603503,-2.279720276869204],[104.9181337489734,-2.288995272913466],[104.9101162542618,-2.336349713768263],[104.9258529538508,-2.341399176830519],[104.9606681573097,-2.328550937775534],[105.0068085934419,-2.33311223893862],[105.0384312836769,-2.35245821917143],[105.0456441774369,-2.376362659609013],[105.0771079853454,-2.360801186625386],[105.1051008139515,-2.368548935085249],[105.1089085425952,-2.382911718800765],[105.1591691048703,-2.347947185614066],[105.2097865828845,-2.326033961997689],[105.2971154732006,-2.373527087305208],[105.4186721244191,-2.390833814329055],[105.4811007208217,-2.386288470736345],[105.5482240409068,-2.398579621152555],[105.5707104357381,-2.410196241363385],[105.5684958201261,-2.41620982622244],[105.5254917480458,-2.423102335604257],[105.4946546398998,-2.440557218740549],[105.4948016322896,-2.451034040888159],[105.4807901102754,-2.446593800163724],[105.4701828738406,-2.456264133682831],[105.4723791342897,-2.464313628970752],[105.4274624290479,-2.448412464063912],[105.4004034618503,-2.457540225800761],[105.3778925838757,-2.445290613271103],[105.3608350194207,-2.453287089927228],[105.3512156486833,-2.445511626160604],[105.3343696686253,-2.448183159425257],[105.3348529139309,-2.460624291577743],[105.3064047603714,-2.488650983256216],[105.3122056960362,-2.499474202672294],[105.2855243056023,-2.50895667770841],[105.2528007777337,-2.553197940832222],[105.228718916345,-2.541844866047674],[105.2008393600485,-2.58229376814281],[105.2098273419584,-2.606687116916875],[105.2051328431063,-2.631201318386081],[105.1995527683456,-2.637403629573745],[105.1796329990637,-2.634612418128571],[105.174090799251,-2.647180787263517],[105.1954863596078,-2.657155175271056],[105.2146922587408,-2.685386637183543],[105.2154365106864,-2.718860373207635],[105.2055952915894,-2.732051304324193],[105.2199352945782,-2.747570874296359],[105.2551549348525,-2.756151253777331],[105.2563187394184,-2.789433741773697],[105.2487335587068,-2.807163875912158],[105.278179302333,-2.826675120960045],[105.2786033119933,-2.851591460577454],[105.2571448350662,-2.85578690763966],[105.2590113330067,-2.882330605572905],[105.2706152997563,-2.898013972666627],[105.2852380720795,-2.8827234843013],[105.2989656466473,-2.904064576319135],[105.3007504124017,-2.934777056415941],[105.2896554106687,-2.938629202575596],[105.2885058720484,-2.957964023121098],[105.3050869334153,-2.978306943210798],[105.2929593930616,-2.993965945871649],[105.2810866864015,-2.975330165654524],[105.26028481799,-2.982551845790995],[105.2543134527037,-3.003976490222795],[105.2327119637862,-3.020773932970558],[105.2171099655526,-3.101429692726112],[105.2090480749088,-3.109718363611494],[105.1890988141591,-3.10682710528665],[105.1563559050011,-2.992063579370699],[105.1408969439388,-2.951844945088114],[105.1268144887976,-2.941537351067838],[105.0832755539237,-3.000057678219184],[105.0842506789258,-3.104931942355263],[105.0624851752506,-3.104071078017759],[105.0444207280343,-3.11401405990093],[105.0502719897606,-3.148477474655722],[105.0317625130296,-3.146587892017541],[105.0004447028608,-3.157199599881613],[104.9841843748091,-3.152918809855157],[104.9613718597236,-3.168399466162411],[104.9425267685955,-3.158128316268785],[104.9232383054035,-3.159401589012115],[104.9019194491234,-3.148869801200307],[104.902614136733,-3.141455145438579],[104.8837026171822,-3.142206520014826],[104.8869132553425,-3.107279395927323],[104.8800357331626,-3.098925215726103],[104.8548525386138,-3.109981518732033],[104.8303012805797,-3.090751602304545],[104.8300983917275,-3.074040903664768],[104.8022987581812,-3.072154679095076],[104.7980784205827,-3.061933534205233],[104.8060640694014,-3.055383522631397],[104.7902299129802,-3.053488605214907],[104.7857716138689,-3.037567484351891],[104.7918442140393,-3.026615784191014],[104.8119710513231,-3.040011579071036],[104.8086155287837,-3.020387560837248],[104.8278202444089,-3.020819875736594],[104.8365646377479,-3.013372668114103],[104.8345976702464,-2.986715628623296],[104.8618204840282,-2.968410444586292],[104.8640943739562,-2.946195369820417],[104.8546812618308,-2.947382599027629],[104.8426607911627,-2.920068933934131],[104.8513193612995,-2.907819873588283],[104.833214045292,-2.89581593605657],[104.819617227653,-2.916371482857619],[104.7897963920899,-2.907452337755137],[104.7884105206291,-2.900692760762238],[104.7683352828471,-2.916012979815077],[104.7273481050311,-2.896858861846921],[104.7249795821421,-2.871445210627924],[104.7144124078064,-2.8656145586649],[104.7101419024269,-2.87592827257164],[104.703644088404,-2.870068148925922],[104.6966187122838,-2.877629343819146],[104.6781571703172,-2.873135909994209],[104.6681344536422,-2.886842257863867],[104.6687500153011,-2.897521790797944],[104.6820648711969,-2.908663780309142],[104.6749717482476,-2.917711693040095],[104.6795275959218,-2.963963040761611],[104.6659390547437,-2.974127790065475],[104.6354849804475,-2.958851758301931],[104.6465344054385,-2.942071019561856],[104.643352482631,-2.93434197070537],[104.6234098921528,-2.928300101268613],[104.6119150275566,-2.959333686100665],[104.6487593083954,-2.987047663718625],[104.6388400155543,-2.998731217771391],[104.6337223901762,-2.994166531560152],[104.6377007768694,-3.012851681859521],[104.6108049772679,-3.048132000291551],[104.5956766816336,-3.053145843905527],[104.5830707082467,-3.048183350681002],[104.5827719237853,-3.034375249018487],[104.5450196802141,-3.033035828440658],[104.5316520071345,-3.062102898130162],[104.4934989150429,-3.080788954946259],[104.4820739313669,-3.072731535731757],[104.4563904691449,-3.080380615972603],[104.385670189128,-3.06137737186816],[104.3182928105648,-3.054873912800796],[104.2695898650802,-3.021895449615267],[104.2534159906555,-3.032752998851754],[104.2330419917945,-3.020130002197766],[104.1930827237887,-3.051808107757894],[104.1658576410174,-3.050337684736329],[104.1642510453496,-2.995643110441184],[104.1767616923983,-2.951052791652911],[104.1752243876954,-2.918547082281966],[104.2055006255535,-2.918840399764536],[104.2113920411099,-2.908232480744369],[104.2316901245996,-2.908391289326476],[104.2299423200821,-2.885165515076407],[104.1834907122266,-2.88468764411938],[104.1706604973841,-2.872323275398772],[104.1762466308774,-2.826304077770983],[104.1852213064182,-2.813116432777088],[104.1788535109808,-2.791072886604409],[104.1705446224364,-2.786317119639284],[104.1713293906389,-2.760605227149496],[104.1917956446533,-2.760634922763375],[104.1958782142082,-2.723470537235498],[104.2256308838583,-2.689045930025616],[104.2629039632474,-2.682198005433614],[104.2671546223879,-2.664421671323039],[104.2944352158126,-2.6589555442629],[104.3021620361491,-2.644447226858018],[104.2806460187987,-2.629739259958866],[104.2532663560576,-2.624155456609037],[104.2287103181268,-2.635291335226933],[104.2091511500056,-2.628747816758262],[104.1402247485734,-2.550968649183785],[104.1514540082959,-2.537464610103582],[104.1525079795597,-2.517719226560969],[104.1465677838762,-2.503504157390937],[104.1347530583071,-2.499497406080378],[104.1306740482688,-2.480936781307344],[104.1014149841143,-2.466275251801411],[104.0959515577182,-2.441519124607863],[104.0760635875646,-2.436768088976107],[104.083347225594,-2.444872653350208],[104.0790592697695,-2.451751882443334],[104.0616473967101,-2.451772362704288],[104.0547470209583,-2.362079733892555],[104.0388869838473,-2.330209189602408],[104.0613014670891,-2.296483005786046],[104.093647697883,-2.311809884318697],[104.1424057133531,-2.388379767712115],[104.2794464769734,-2.439794891321137],[104.3425807911706,-2.406574642705531],[104.3785203288501,-2.402794343384221],[104.4740007344464,-2.414192475102597],[104.4729967501999,-2.407639850098933],[104.5145869081594,-2.374482893071031],[104.5204438823793,-2.382722952901942],[104.5386677937837,-2.368137495249181],[104.5482179284147,-2.379305605569185],[104.6054352782156,-2.3769213148668],[104.6421809897609,-2.343280304042741],[104.6598583480843,-2.347654797131129],[104.6841478710275,-2.335170341038387],[104.6336450412856,-2.240994596323523],[104.6090356843494,-2.2376610765974],[104.5644433321941,-2.247094910001993],[104.5105481796548,-2.229636629226997],[104.4884698468061,-2.203901036004011],[104.4681128703128,-2.21971867817439],[104.4551896340944,-2.209333310783615],[104.4552231410351,-2.191202389278748],[104.4290181259858,-2.1909314280429],[104.4004718339081,-2.150474013864637],[104.3836757437407,-2.146177350804093],[104.383123854982,-2.132165066164829],[104.3714395176197,-2.117747796123906],[104.3702412492343,-2.055280306740739],[104.355554499141,-2.05526486538117],[104.3382306993874,-2.011011000956911],[104.2915512159159,-1.982884894622108],[104.2007233198254,-1.86639884413127],[104.162750873654,-1.79266146995081],[104.1445668058135,-1.715500332674116],[104.3490898889873,-1.65206844360373],[104.3742879133566,-1.637195700221364],[104.4193918547503,-1.62693146341624],[104.4227687505775,-1.631636532899597]]]]}},{"type":"Feature","properties":{"kode":"16.08","nama":"Kabupaten Ogan Komering Ulu Timur","lat":-4.07431135242508,"lng":104.56698887315143},"geometry":{"type":"MultiPolygon","coordinates":[[[[104.6662329118195,-3.618791912316846],[104.6751718581948,-3.621997061015561],[104.6808569998507,-3.637830119364496],[104.7048124714185,-3.620156846661063],[104.6981078043318,-3.66006872129441],[104.718979228109,-3.65702965129733],[104.7109669647537,-3.665459826010123],[104.7217540727923,-3.679108337579676],[104.7534525426008,-3.685932216998181],[104.7601023519421,-3.705211397388],[104.7736042929038,-3.709146478127392],[104.7766151151955,-3.72887909669293],[104.8015771151917,-3.735155801598891],[104.79940210932,-3.756955781683915],[104.8326439137857,-3.745756105160039],[104.8687917281558,-3.790661303576284],[104.8771231609052,-3.809978545973072],[104.8716464542205,-3.838546821078895],[104.8774741321256,-3.860572870041848],[104.8605973089187,-3.873925117949797],[104.8492487118586,-3.910779720307803],[104.8875807807285,-3.909903391228456],[104.8977178327119,-3.925097153910498],[104.85449546999,-3.953617934919665],[104.8674901978144,-3.957596274848177],[104.8997371110789,-3.941619924819653],[104.9058591119085,-3.947841290842893],[104.9277876482814,-3.9451366742181],[104.9257290335681,-3.974847950772256],[104.9055788121126,-4.012007228151029],[104.8726486443196,-4.021033410563371],[104.8530719610023,-4.036312080038476],[104.8469211593841,-4.053751039778566],[104.830089024389,-4.060472552066566],[104.8258177357,-4.070567678555451],[104.834555968683,-4.099361982069707],[104.8214344175644,-4.109865914280489],[104.8041690593547,-4.11012199533374],[104.7904579342863,-4.126986832376359],[104.7859123766549,-4.170737695188434],[104.776793198947,-4.174378900865497],[104.7600386961289,-4.212807635164209],[104.7465138970987,-4.223515540809489],[104.7496874391241,-4.243640026366061],[104.7389050300432,-4.254290539077113],[104.7063966092162,-4.259328792989406],[104.6867482292474,-4.249847180402957],[104.678653359565,-4.25736629781637],[104.6495995099095,-4.242913203281676],[104.6274022462168,-4.244385376383944],[104.6211505298731,-4.225579916579816],[104.6281300747432,-4.219730518248779],[104.6210698858666,-4.213937242109969],[104.5848583329458,-4.243225000033737],[104.524777778272,-4.264286110615403],[104.5239898138788,-4.277674495981179],[104.5078724843278,-4.279835470630447],[104.4921881405703,-4.298210448353482],[104.4838753327805,-4.291408902698704],[104.4721319864021,-4.311832450607048],[104.4606780103819,-4.311438588919694],[104.4496828765635,-4.298486024910078],[104.4348553951605,-4.306505586263734],[104.4354562969705,-4.31584859173906],[104.4139367587744,-4.336221908014595],[104.3840101125766,-4.347673946895084],[104.3790604616711,-4.373952685667851],[104.3489216815904,-4.398031237551583],[104.3218061101638,-4.458264167057616],[104.3291972207752,-4.514238889413116],[104.3105651088927,-4.512674530405183],[104.3232777769479,-4.55646666670331],[104.334620210954,-4.556548778403327],[104.3407619159298,-4.602296628086913],[104.3243392026921,-4.627394852890079],[104.3162187086265,-4.62620927214015],[104.2995248120205,-4.644140021644619],[104.2806659765536,-4.624936962570716],[104.2773590317939,-4.579187988734626],[104.2492818962426,-4.534183952127682],[104.2448891855875,-4.512634727310763],[104.2242259998301,-4.490943999565891],[104.2123941106997,-4.44276941477664],[104.196197999638,-4.439136999972495],[104.1512934649216,-4.405822764109216],[104.1748313578809,-4.414544006200829],[104.1892947397605,-4.407744389591864],[104.1957725780421,-4.394690882977839],[104.2186061606458,-4.401075378825661],[104.2403318333475,-4.332204086948968],[104.2207626009133,-4.305038979065559],[104.2310532148341,-4.279443702564814],[104.2262218229788,-4.24992372799762],[104.2607022412156,-4.246085592376117],[104.2899447488512,-4.211968857276885],[104.321589544422,-4.207918344955599],[104.3344920962333,-4.178740054310007],[104.3231086936114,-4.154534367067322],[104.3232436944411,-4.130989765165507],[104.3138444336738,-4.11963641788631],[104.3191883608543,-4.095509163217306],[104.3084711849973,-4.074702771215824],[104.340603281816,-4.050959024339454],[104.3509402252112,-4.012618037792118],[104.3781517030387,-4.010801573633652],[104.4150719307251,-3.994196434717681],[104.4031109645995,-3.983352217930472],[104.4139528971086,-3.984058092207102],[104.4042158275984,-3.974373195066841],[104.4182714011043,-3.983677947878997],[104.4185027678884,-3.973852369790956],[104.421036417097,-3.981094853044967],[104.4232583019291,-3.976367499260627],[104.4207545219038,-3.986958530811505],[104.4229736251328,-3.989109414168082],[104.4364697339911,-3.980174379843751],[104.4453622951339,-3.958207798551053],[104.4571662818985,-3.952169222431648],[104.4793769526843,-3.95661816679487],[104.4653814988572,-3.933887999931221],[104.4896023603607,-3.918310206950418],[104.4936405213929,-3.901564364603674],[104.523293567744,-3.89247090930496],[104.5416009569186,-3.872476445931186],[104.5677364049112,-3.862900516045967],[104.5562739132106,-3.846814777879695],[104.5724151476411,-3.821186854189909],[104.5563888888362,-3.803055555869131],[104.6075000002249,-3.721944444180705],[104.6224383275668,-3.711893327814744],[104.635347455221,-3.653406212626534],[104.664551416115,-3.646155698426659],[104.6473655417863,-3.621867842826612],[104.6678262703662,-3.634438567286027],[104.6728540921427,-3.624195167772706],[104.6663937159972,-3.620972068606035],[104.6645405199291,-3.627374460962487],[104.6587940247245,-3.615822889614575],[104.6662329118195,-3.618791912316846]]]]}},{"type":"Feature","properties":{"kode":"16.09","nama":"Kabupaten Ogan Komering Ulu Selatan","lat":-4.588940185355713,"lng":103.91014103620374},"geometry":{"type":"MultiPolygon","coordinates":[[[[103.7910772732975,-4.22655471872522],[103.795747444589,-4.236772170998806],[103.8364182337146,-4.237037961132975],[103.8377367351622,-4.248000579063474],[103.8497971744001,-4.24897594508378],[103.8664533750233,-4.269677664992136],[103.8700072718183,-4.284616332277905],[103.8896964270486,-4.285985392711636],[103.887244654817,-4.299910185006953],[103.9166840753099,-4.343660482145475],[103.9416099738213,-4.35190802163781],[103.9560652779902,-4.380355884716261],[103.9496853228194,-4.395534301366835],[103.9590440484441,-4.398919434983897],[103.9742335789166,-4.437682440092486],[103.9698561009784,-4.453008232244107],[103.9801585292927,-4.459785789382645],[104.0058901367205,-4.462958948296761],[104.0132309644375,-4.448408571398391],[104.0455889934374,-4.458115822087441],[104.1512934649216,-4.405822764109216],[104.196197999638,-4.439136999972495],[104.2123941106997,-4.44276941477664],[104.2242259998301,-4.490943999565891],[104.2448891855875,-4.512634727310763],[104.2492818962426,-4.534183952127682],[104.2773590317939,-4.579187988734626],[104.2806659765536,-4.624936962570716],[104.2992738885791,-4.643986666551372],[104.2872164782579,-4.683716852051026],[104.289872846255,-4.704235148033645],[104.3079170857051,-4.704965629560112],[104.3125820121502,-4.723859995442384],[104.3059000439519,-4.730641032057894],[104.3041744706753,-4.765171691820028],[104.3340991986192,-4.818189626749783],[104.3473261322952,-4.82460924382149],[104.3690494145988,-4.821730527441817],[104.335195231175,-4.871808096566424],[104.2851139307633,-4.855699585767217],[104.2699190187478,-4.876682604618468],[104.2535746931176,-4.882890220906935],[104.2340692361064,-4.880808201337386],[104.2153689933844,-4.858943887350422],[104.1912974400249,-4.863022543055864],[104.1922635610146,-4.875636459255153],[104.1773020059828,-4.902304204275579],[104.1444308768835,-4.923756525343295],[104.1416338513213,-4.918121751117857],[104.1216224051499,-4.924159182400237],[104.0927074755696,-4.918190914379108],[104.0711668482715,-4.90802360560483],[104.0608166317822,-4.886004458938567],[104.0488009212256,-4.901709902589849],[104.0135582259314,-4.907860152024382],[104.0057207287287,-4.902451865760929],[103.9978921635925,-4.910767010888753],[103.9887649756232,-4.906263802332569],[103.976247164575,-4.913120233611837],[103.9615638426972,-4.910482682129993],[103.9355991300959,-4.884599386052793],[103.845979891359,-4.919263043854352],[103.8652082861336,-4.882547488375868],[103.8694706373602,-4.856423981581395],[103.8454070537925,-4.8228690673535],[103.8252849181646,-4.822625522849558],[103.8262703449005,-4.80154457861939],[103.7988352065795,-4.791271536552147],[103.7978084937671,-4.781073369340463],[103.7632655240847,-4.74234094208075],[103.7352611940489,-4.743930653876552],[103.7012831020336,-4.722998712020912],[103.6683466767578,-4.728795432563151],[103.7046732430758,-4.704077737897252],[103.7023523770606,-4.664360851571983],[103.6855915088411,-4.6457352669689],[103.6863632809408,-4.634697354199504],[103.6680201464126,-4.62646234406188],[103.6611389451063,-4.610391945631756],[103.6274332703292,-4.594610541643165],[103.5986973849763,-4.593418015429032],[103.630062650571,-4.557530859661332],[103.621474167299,-4.533174071925819],[103.5931176699446,-4.522880492940365],[103.5715623603147,-4.525150335919184],[103.5274909008844,-4.572205040829916],[103.4874252457785,-4.577946995357498],[103.4227017530836,-4.516791801200595],[103.4208983425845,-4.505951091769392],[103.4082866728916,-4.50387667686705],[103.4129698618697,-4.466508054403187],[103.420398177434,-4.467383843889275],[103.4262486000929,-4.455771415418466],[103.4305715188606,-4.413592810359892],[103.4249037242276,-4.401350948187657],[103.4391686644024,-4.395475822051489],[103.435920947194,-4.386491877198376],[103.4674880926014,-4.354909760776751],[103.5042772261132,-4.36090067192845],[103.5181382519789,-4.376844964723306],[103.5366066773564,-4.366165944402736],[103.5450014151832,-4.371134258039502],[103.5590345236244,-4.356488199570732],[103.5832098479562,-4.353490079303659],[103.6018032233402,-4.363120842652693],[103.6262894442026,-4.273308889093899],[103.706229744707,-4.276247076741127],[103.7335689946134,-4.25055663398142],[103.7632530369981,-4.248198923641391],[103.7910772732975,-4.22655471872522]],[[103.7770564522935,-4.339330052240056],[103.7793397922977,-4.340156777413354],[103.7801665183703,-4.338385221800481],[103.7772926610276,-4.337440393159556],[103.7770564522935,-4.339330052240056]]]]}},{"type":"Feature","properties":{"kode":"16.10","nama":"Kabupaten Ogan Ilir","lat":-3.4152936166034418,"lng":104.60531386079522},"geometry":{"type":"MultiPolygon","coordinates":[[[[104.773924369714,-3.034978126639201],[104.7787985845871,-3.052154844070712],[104.8060640694014,-3.055383522631397],[104.7953790299184,-3.077289218022974],[104.7919068626116,-3.113645093246456],[104.7999123225957,-3.120553024202691],[104.792919497437,-3.130318147164671],[104.814135845393,-3.132839960395797],[104.8182088587519,-3.143490208706082],[104.8052949979658,-3.153849376147713],[104.8123236170413,-3.157607899285056],[104.8089367711152,-3.168165286298821],[104.7990944035839,-3.173190840884546],[104.8070042287622,-3.177933055066331],[104.7986119595744,-3.186576809771926],[104.8110054213632,-3.203414254364281],[104.8133650787354,-3.237626510954675],[104.7906391386853,-3.23780929726121],[104.7930220165529,-3.248282866560961],[104.7869920136706,-3.249039511164467],[104.787936773963,-3.258135428806932],[104.8017832487979,-3.266769335935995],[104.798746237349,-3.2738133900758],[104.8089407434206,-3.272934205649028],[104.8263836430907,-3.318746391033114],[104.8057778358785,-3.412130679287342],[104.8140833330794,-3.417416666745757],[104.8160969996769,-3.450586000243641],[104.7855012569775,-3.467117067398709],[104.7682920632282,-3.460687338349969],[104.7488009144307,-3.487381221266242],[104.7352216533567,-3.484008947055164],[104.7260003918047,-3.466468371118372],[104.7008999843468,-3.466632634088709],[104.6682375492236,-3.499040838963444],[104.6607594426942,-3.495893671355857],[104.6595183665794,-3.517070714441831],[104.6490468657203,-3.528585382109631],[104.6493141397358,-3.560661169677173],[104.6395251406728,-3.573595639327268],[104.6433076019643,-3.581686421591071],[104.6513426712274,-3.575919329213642],[104.6313587775856,-3.603675340244708],[104.6393270461064,-3.628801631090342],[104.6600194436425,-3.65038055601781],[104.635347455221,-3.653406212626534],[104.6224383275668,-3.711893327814744],[104.6075000002249,-3.721944444180705],[104.5563888888362,-3.803055555869131],[104.5444549383448,-3.792903477113699],[104.5396504613998,-3.799331277116716],[104.5311064963678,-3.788202168595125],[104.5181656873966,-3.794223957969203],[104.5079452691589,-3.783350041071534],[104.4992183460499,-3.785430863643382],[104.4897584529903,-3.769500738768075],[104.4651212341577,-3.760617107893152],[104.4633202563249,-3.747926677374183],[104.453952169657,-3.744923528098257],[104.3973157324352,-3.766316168356434],[104.366943593572,-3.757157448357498],[104.3752057803225,-3.691664106313366],[104.4514089525612,-3.644001801441979],[104.4674861336782,-3.614631215957756],[104.4549729010786,-3.594981246886933],[104.4558190291249,-3.578790832131132],[104.4159943932268,-3.562985293936086],[104.4140889060782,-3.572718571904579],[104.3906917543211,-3.590303916092788],[104.3580096618165,-3.589265381692],[104.3488042346278,-3.600083100854404],[104.3208618364047,-3.609236369163041],[104.317690125399,-3.538704374806992],[104.3488346236191,-3.531812788129665],[104.3851374712174,-3.506603733575345],[104.424386811702,-3.491726496280714],[104.4428121649495,-3.457596343296546],[104.4372999997952,-3.428109999776632],[104.4657433383844,-3.422634225688872],[104.4978493665551,-3.399298411292564],[104.501104770269,-3.372295470059841],[104.5333361090742,-3.361566842235922],[104.5384612347982,-3.344856520412057],[104.5329552686707,-3.317731443151553],[104.5400341337683,-3.315228646085069],[104.5407457088474,-3.302929277664004],[104.5315620020848,-3.297311470947564],[104.5306722776036,-3.274283186919449],[104.5488129495581,-3.263219737001213],[104.5499730264341,-3.249636357032218],[104.5424768588201,-3.210132833063797],[104.521713830329,-3.208105915855322],[104.5223030013825,-3.18054784830453],[104.576011237029,-3.114805026230963],[104.5770047918378,-3.101596127559228],[104.6429860628565,-3.096308148102514],[104.6430892339811,-3.070899242605909],[104.6604142738997,-3.077675897724477],[104.676610411941,-3.048550106801942],[104.7105021087854,-3.057760140318136],[104.7245208568522,-3.090739870648454],[104.750476634689,-3.039170333444099],[104.773924369714,-3.034978126639201]]]]}},{"type":"Feature","properties":{"kode":"16.11","nama":"Kabupaten Empat Lawang","lat":-3.751489010673991,"lng":102.9480004628481},"geometry":{"type":"MultiPolygon","coordinates":[[[[103.0323053208339,-3.420613179254753],[103.0425258919564,-3.416662075294477],[103.044266712339,-3.432591896199069],[103.1019242254228,-3.474950713704386],[103.1758085461275,-3.452445732584478],[103.202161587787,-3.501308278054507],[103.1678449118133,-3.508909408242536],[103.1693044647293,-3.519407843796854],[103.1806834687671,-3.521782875079607],[103.180068914349,-3.531788905733338],[103.163104382961,-3.561164265718178],[103.1377472730183,-3.556809512748751],[103.1386945469159,-3.586753147139968],[103.1196187859783,-3.611703303964278],[103.1299024319517,-3.613171357272263],[103.1198849583242,-3.613557484790045],[103.1202827599415,-3.63012341956013],[103.102404325799,-3.65390252598077],[103.1192608369181,-3.709917600017201],[103.1140219118818,-3.731336033730928],[103.0881611033523,-3.76521422725469],[103.109787309237,-3.78346313801339],[103.1072066021031,-3.7946514740862],[103.1318621859911,-3.80282510999084],[103.1380803774076,-3.816302354669856],[103.119324061956,-3.868162717335524],[103.1212094240757,-3.900472021066895],[103.1084897817781,-3.932397786428668],[103.1068944636087,-3.974327374608569],[103.1235982617504,-4.006489756097301],[103.0599366165816,-4.015728906963448],[103.0422773049537,-4.011796828161065],[103.034773941864,-4.020397823700497],[103.0098952127939,-4.014845043363982],[102.962888304152,-4.020141051068629],[102.9119079811685,-3.969608031985031],[102.895311241021,-3.975556684893069],[102.8872210738935,-3.988643720031673],[102.8672415329704,-3.986526000074766],[102.8614933956038,-3.992852515731007],[102.84535476561,-3.977203649328922],[102.8170705971304,-3.978649984009477],[102.8171871798446,-3.967501111986651],[102.792859582304,-3.960090188411394],[102.7700517670755,-3.910181454410536],[102.7529424376435,-3.90641118792592],[102.7490135613269,-3.891231624639671],[102.7332645707035,-3.887229835788178],[102.7012215292503,-3.854735763644593],[102.6836071045843,-3.86120962422474],[102.6851799289106,-3.847325468695376],[102.6697462693749,-3.825961478139631],[102.6203333334167,-3.802200000229819],[102.641235765818,-3.79355602788827],[102.6580967357758,-3.771666604829862],[102.692732107201,-3.758356209571348],[102.69678896334,-3.769905644130114],[102.7028161387538,-3.756926668830632],[102.7343781121602,-3.746264023365933],[102.734475040191,-3.717416554630207],[102.7706024012799,-3.708180060361402],[102.7780597964225,-3.686994906289856],[102.7739212836404,-3.675730771757715],[102.7900107072284,-3.660173409575121],[102.8077799303996,-3.612818732198678],[102.7946389997901,-3.5828680003579],[102.8107970002814,-3.553872999639188],[102.8102137125929,-3.52992162897994],[102.8476325909714,-3.536920304228611],[102.8858528624197,-3.578777852216033],[102.8912406989992,-3.609151473161878],[102.9070940910196,-3.616462405615531],[102.9617497300661,-3.561499998825893],[102.9726386260717,-3.531672216899276],[102.9947414177823,-3.524844444315603],[102.9936108620517,-3.489444439609171],[103.0055589103155,-3.467286659751492],[102.9988886431963,-3.4616666685819],[102.9969441974168,-3.445277775249059],[103.0043707943767,-3.435364470094163],[102.998497222269,-3.4128930561695],[103.0323053208339,-3.420613179254753]]]]}},{"type":"Feature","properties":{"kode":"16.12","nama":"Kabupaten Penukal Abab Lematang Ilir","lat":-3.2009762701800577,"lng":103.99497526424963},"geometry":{"type":"MultiPolygon","coordinates":[[[[104.0954430900266,-3.003330223910686],[104.1347755800291,-3.011753515212481],[104.1321052356682,-3.026626050851513],[104.1416245388414,-3.04652312394296],[104.1711759995728,-3.052804999950778],[104.19430336281,-3.051210661143047],[104.2337429917457,-3.019957002313747],[104.2579009996314,-3.031489999963435],[104.2353681548165,-3.206315636357518],[104.2169273323305,-3.227373866410746],[104.2102985617293,-3.257994872865025],[104.2282307744307,-3.265990691217338],[104.2337730012231,-3.283413938002846],[104.2234695449836,-3.301111263074288],[104.215596395957,-3.29533962732185],[104.2174175204023,-3.303796469631306],[104.2090111318583,-3.305155041272092],[104.2136238742425,-3.312183433718443],[104.1994980816712,-3.320946128261129],[104.1933797051094,-3.315506961976647],[104.1879190630144,-3.328145040261335],[104.1745094536485,-3.330790698232081],[104.1711577721135,-3.316390919105563],[104.1617267895597,-3.328480106971268],[104.1524006958355,-3.319131880931517],[104.1548061943505,-3.328835168308311],[104.1397541702189,-3.334116140247614],[104.1346921013595,-3.330498034556653],[104.1446390744338,-3.321258225386783],[104.1277629464029,-3.32509856344794],[104.1327307222451,-3.343683989724314],[104.1126055208282,-3.351116864851436],[104.1126143701571,-3.332981186832276],[104.1105437665816,-3.346172376054282],[104.1002740825829,-3.338350086387345],[104.0924661110223,-3.356037777921086],[104.0593330561757,-3.337652222372148],[104.0287183332846,-3.341249721897091],[104.0246375479845,-3.405799158004699],[103.9926754383208,-3.413562149973151],[103.9486732545671,-3.412515187126155],[103.9177402616038,-3.399190205763317],[103.9073896071447,-3.359691153224079],[103.892161055988,-3.343867737406095],[103.8705079612734,-3.328520214036581],[103.8569450327871,-3.332917458174103],[103.8483599381607,-3.317114028889259],[103.8296534091775,-3.315335778723208],[103.8209406162165,-3.326523210977397],[103.8013338568721,-3.30948627067478],[103.7871522703611,-3.318147509100269],[103.7606331769796,-3.280135618663829],[103.7369813336217,-3.295828639979772],[103.7389231731659,-3.340083838997979],[103.7325271821838,-3.353161356611237],[103.7161374542801,-3.333516527165939],[103.7223621244126,-3.305534065044993],[103.7074000729551,-3.294169758627399],[103.6266602023065,-3.359414580218603],[103.617757108304,-3.350597006346748],[103.6181508548782,-3.324418191246517],[103.6050907058714,-3.287483473683286],[103.6324852416007,-3.254749030743101],[103.6483055430665,-3.247683364095868],[103.6344430486078,-3.262761408312345],[103.6550188553359,-3.265972927808283],[103.7167190170691,-3.235962945033835],[103.7219305559504,-3.255708333073029],[103.7379548506359,-3.261244958887646],[103.783666667183,-3.239250000387164],[103.795555556244,-3.240513888704902],[103.7969999996503,-3.223472221565673],[103.7800735086855,-3.178955685856158],[103.7972391221878,-3.150385871111075],[103.7910287287928,-3.135466649865995],[103.8123724935958,-3.12176095490411],[103.819225341976,-3.10298700824381],[103.8352726242323,-3.104353925593164],[103.8489467026282,-3.082980467874188],[103.8897104124057,-3.075837298552456],[103.9118230642831,-3.021666439054885],[103.9256676811186,-3.024236146580852],[103.9503812317085,-3.004182863947927],[104.0234168046419,-3.030099159748348],[104.052255871911,-3.008755394945497],[104.0954430900266,-3.003330223910686]]]]}},{"type":"Feature","properties":{"kode":"16.13","nama":"Kabupaten Musi Rawas Utara","lat":-2.7401701357872756,"lng":102.7437524326871},"geometry":{"type":"MultiPolygon","coordinates":[[[[102.8773138886251,-2.320583332954376],[102.8927694439548,-2.317338889278256],[102.9150013891029,-2.332477644927325],[102.9286222222379,-2.326877777887118],[102.9407138886351,-2.336177777782192],[102.9723416672342,-2.330222221678094],[102.9897444436512,-2.339524999578993],[103.0293255557299,-2.341625000193551],[103.0387797120141,-2.386862090712929],[103.0518280376339,-2.392332131622579],[103.0664277783194,-2.3849055562464],[103.0793111107193,-2.392872222175216],[103.0680250003535,-2.41243888884364],[103.0827500004123,-2.432583333054319],[103.1167527779184,-2.451491667206687],[103.1430138890798,-2.434719444146952],[103.2000444442957,-2.439044443945873],[103.200666667233,-2.460733332577172],[103.2267194441471,-2.470055555619391],[103.2497722221104,-2.444480556132669],[103.2666861108754,-2.437416667445172],[103.2758249999239,-2.446763888942252],[103.2853597966174,-2.511635422636596],[103.3238546931397,-2.537522224271152],[103.347273496075,-2.569249500264162],[103.3614129070801,-2.573183616031008],[103.3413348364336,-2.694663592850491],[103.3086668426008,-2.731496435212291],[103.2631624070195,-2.757277552117257],[103.2267453257363,-2.765884673838562],[103.2046998900879,-2.753638835763608],[103.2038112753701,-2.759244997158808],[103.1737847495666,-2.759103335050808],[103.1697669383935,-2.770633268710368],[103.1199185264189,-2.770713598853439],[103.1199599401991,-2.792536610576038],[103.1020885459497,-2.792537123189634],[103.1004386299389,-2.845909476441102],[103.0269315874229,-2.859484174355112],[103.0143004096363,-2.854419266336075],[102.9463565697,-2.880983985922184],[102.9010479947692,-2.885972235730064],[102.9115498648345,-2.934500605718318],[102.8732568391319,-2.926833771061668],[102.8698507755929,-2.973025823782718],[102.8565810431806,-2.974703271638626],[102.8471460019864,-2.990614487368662],[102.8277315986344,-2.995509270636257],[102.8156650655903,-2.985048442931218],[102.7787741378162,-2.99162259500674],[102.7477101469058,-3.004092860696941],[102.7410986639722,-3.0138990547975],[102.7294814574034,-3.00484925079221],[102.712516293792,-3.012406404132209],[102.6970350691132,-3.006391044910719],[102.6727003219624,-3.031362890684777],[102.6347714200651,-3.040974561426848],[102.6234894771577,-3.053530403005647],[102.5959391212935,-3.047208490978973],[102.5846279063529,-3.071370616860383],[102.5518421031306,-3.087706967302653],[102.5395553063323,-3.086056059339606],[102.5098791231231,-3.104986243420329],[102.486528715428,-3.109910083783321],[102.4422583637325,-3.058649671445115],[102.40829986075,-3.054693928781729],[102.391913516096,-3.043750089594946],[102.3176058422358,-3.069936170317947],[102.2870873989643,-3.040468726050863],[102.2538260036672,-3.035515995866492],[102.2428904841086,-3.019540496596631],[102.2220133712202,-2.9277365806786],[102.1313403203995,-2.874817339148786],[102.1293661727107,-2.834821507406618],[102.113463433091,-2.814217472758143],[102.0924667841148,-2.810922133749452],[102.0734296013951,-2.794944692843229],[102.063888894357,-2.768519443717279],[102.0970118408239,-2.766657827296884],[102.1094444438061,-2.738722221653214],[102.1684444441558,-2.707194444068309],[102.1941854899684,-2.708402795652434],[102.2360871658901,-2.691214928426147],[102.2428375410197,-2.646989603087649],[102.2713078511764,-2.624472787788859],[102.298177778182,-2.632933332607193],[102.3052222217282,-2.649336110573033],[102.3344166668957,-2.656636110867774],[102.3496027781458,-2.646608332808301],[102.3730568839681,-2.656167332056627],[102.4055638892621,-2.689069443699823],[102.4690888887413,-2.704300000344675],[102.4971444441608,-2.694444444255664],[102.5069972222441,-2.702958333260399],[102.510405555672,-2.689963888722405],[102.5388416673092,-2.675180555937898],[102.5806416667795,-2.678316667280336],[102.615797222264,-2.652719443747278],[102.6141499997227,-2.622188889305724],[102.6245138886051,-2.615350000202257],[102.6311388892484,-2.620088888691255],[102.6364805564326,-2.611749999662718],[102.6726833328696,-2.609138889148335],[102.6803249999988,-2.590900000434607],[102.7076249998939,-2.583775000116153],[102.7226166669257,-2.554813889449361],[102.7253833331744,-2.579602778045745],[102.7348083334379,-2.579433333181738],[102.7437277780146,-2.561247222081578],[102.7866750003511,-2.546694443993383],[102.7969741551333,-2.526444291670662],[102.7929138887651,-2.520530555840386],[102.8083499998527,-2.513294444283146],[102.8157111108791,-2.485411110834049],[102.8477194438973,-2.455113889094632],[102.8494888888013,-2.443083333429088],[102.8792472223815,-2.424350000152378],[102.8671472219668,-2.397708332773243],[102.846688889181,-2.391347221996634],[102.8435277775849,-2.373966666928043],[102.8531999996803,-2.370244444025873],[102.8484305558255,-2.350094443803455],[102.8599944442882,-2.342388888836114],[102.8559361105631,-2.333536111002646],[102.8652083330982,-2.331894443573715],[102.8645027780808,-2.32299444413824],[102.8700111112239,-2.327577777792181],[102.8675416673142,-2.31451666741023],[102.8773138886251,-2.320583332954376]]]]}},{"type":"Feature","properties":{"kode":"16.71","nama":"Kota Palembang","lat":-2.9717194498950685,"lng":104.74131972773073},"geometry":{"type":"MultiPolygon","coordinates":[[[[104.7190235898668,-2.868493456707613],[104.7282901412771,-2.88219888996675],[104.7273481050311,-2.896858861846921],[104.7683352828471,-2.916012979815077],[104.7884105206291,-2.900692760762238],[104.7897963920899,-2.907452337755137],[104.819617227653,-2.916371482857619],[104.833214045292,-2.89581593605657],[104.8513193612995,-2.907819873588283],[104.8451055567761,-2.92822882639914],[104.8654209099471,-2.954671759793806],[104.857357138821,-2.97402677731389],[104.8345976702464,-2.986715628623296],[104.8365646377479,-3.013372668114103],[104.8278202444089,-3.020819875736594],[104.8086155287837,-3.020387560837248],[104.8119710513231,-3.040011579071036],[104.7918442140393,-3.026615784191014],[104.7857716138689,-3.037567484351891],[104.7902299129802,-3.053488605214907],[104.7780426036833,-3.051627871029419],[104.7753706927033,-3.035321806156402],[104.750476634689,-3.039170333444099],[104.7244884668694,-3.090742574010521],[104.7105021087854,-3.057760140318136],[104.6766262103314,-3.048665757818439],[104.6729336191912,-3.035049983369989],[104.6637586538389,-3.041385093846907],[104.6304691619224,-3.016719819763816],[104.6377007768694,-3.012851681859521],[104.6337223901762,-2.994166531560152],[104.6388400155543,-2.998731217771391],[104.6488557876645,-2.98413312104662],[104.6119150275566,-2.959333686100665],[104.6234098921528,-2.928300101268613],[104.643352482631,-2.93434197070537],[104.6449436351407,-2.951108067583233],[104.6346069858238,-2.957122406973481],[104.6562250600385,-2.973981172692922],[104.6795275959218,-2.963963040761611],[104.6749717482476,-2.917711693040095],[104.6820648711969,-2.908663780309142],[104.6687500153011,-2.897521790797944],[104.6681344536422,-2.886842257863867],[104.6839144438966,-2.870739971272565],[104.6966162454434,-2.877629604622525],[104.701334582625,-2.870210513404439],[104.710141902427,-2.87592827257164],[104.713840340959,-2.86561874321041],[104.7190235898668,-2.868493456707613]]]]}},{"type":"Feature","properties":{"kode":"16.72","nama":"Kota Pagar Alam","lat":-4.117601764842542,"lng":103.26638710836193},"geometry":{"type":"MultiPolygon","coordinates":[[[[103.4145587408932,-3.986640382147824],[103.3952218384172,-4.063694547765165],[103.3596430799642,-4.097932959338538],[103.3637155231529,-4.113210428218641],[103.356059913834,-4.12642108866226],[103.3648329388891,-4.149262186001026],[103.3560567140462,-4.163537671626186],[103.3682353880528,-4.206668745066525],[103.3760276430613,-4.210628870126223],[103.3707026124356,-4.229858677735779],[103.3594781119254,-4.237265012969951],[103.3528086272164,-4.227551896902495],[103.3312910900119,-4.239298724556376],[103.3359885925995,-4.256903398772829],[103.3161366313005,-4.267172795887733],[103.306640240155,-4.257710105037285],[103.2883480738046,-4.262109310596143],[103.2240554211209,-4.240741666094985],[103.2036943023502,-4.248149999622777],[103.1906931155949,-4.236112342910284],[103.1777500223457,-4.240741559974984],[103.1868537595934,-4.2173798873719],[103.1822810298457,-4.178432409727842],[103.1874458849198,-4.164645434938821],[103.16516036356,-4.117451468210634],[103.1456458323894,-4.115179573878239],[103.1421113888297,-4.097833610332804],[103.1489308300938,-4.091900212624713],[103.1334021400967,-4.073684032691885],[103.1361464626892,-4.045747479162801],[103.1199221192105,-4.015694228206071],[103.1632760806267,-4.010124040591981],[103.1831975190504,-3.990508904961912],[103.2248690998291,-3.989215996421061],[103.249407257439,-4.00746598097024],[103.2896943975784,-4.007967834148188],[103.2782852509636,-4.032446916192159],[103.3145086209761,-4.048601071182459],[103.3292405269288,-4.065917894894858],[103.3437755730843,-4.051017866980969],[103.3531479558136,-4.002539203421465],[103.3799654928133,-3.988102588063994],[103.4145587408932,-3.986640382147824]]]]}},{"type":"Feature","properties":{"kode":"16.73","nama":"Kota Lubuk Linggau","lat":-3.2630018671716625,"lng":102.87510965352597},"geometry":{"type":"MultiPolygon","coordinates":[[[[102.8818547580907,-3.156732819364086],[102.8927126823445,-3.151049676901055],[102.9116125206014,-3.158573898866271],[102.9172740460605,-3.152012467701207],[102.9248616549415,-3.171927154914192],[102.9148925522496,-3.189793913158459],[102.9301176158354,-3.196040335193276],[102.9397176727324,-3.230966389087511],[102.9544506129055,-3.237011114771063],[102.949369115992,-3.248613425868887],[102.9305441121211,-3.251396868970316],[102.927407498957,-3.261510511600799],[102.9601955289006,-3.264727607792819],[102.9765206018443,-3.292468691876563],[102.9581450161797,-3.3088558171422],[102.9655500330077,-3.363964935733124],[102.8963163008566,-3.376246464302815],[102.8895726409647,-3.352029309804808],[102.8962444468238,-3.326722003417684],[102.8641432318248,-3.34532425960681],[102.8418834751424,-3.343500899446886],[102.8397722635792,-3.334012668749578],[102.7980473044396,-3.331690942083279],[102.7909057143273,-3.299765921360079],[102.7777280769892,-3.293180711220758],[102.7760505077248,-3.281769876578513],[102.7677040895722,-3.29101646483794],[102.7530468822079,-3.283324784611066],[102.7673801555698,-3.268779428627669],[102.7779852075514,-3.268531863254845],[102.7701649881238,-3.254023053021429],[102.7831428788409,-3.242118672238872],[102.8073200269977,-3.233655530178472],[102.8113763516374,-3.178743731837733],[102.8329577640896,-3.176438932210848],[102.8376422930574,-3.151071855981316],[102.8548331190532,-3.131751448870171],[102.861418721297,-3.13069817008447],[102.8818547580907,-3.156732819364086]]]]}},{"type":"Feature","properties":{"kode":"16.74","nama":"Kota Prabumulih","lat":-3.447960454354312,"lng":104.228875656571},"geometry":{"type":"MultiPolygon","coordinates":[[[[104.173217920171,-3.328191142207418],[104.1745094536485,-3.330790698232081],[104.1779113955945,-3.326271595058008],[104.1846837231753,-3.328648046370189],[104.1785654275525,-3.349006411416758],[104.1969911000593,-3.34923505325502],[104.2083790811298,-3.35970297571169],[104.2863717000939,-3.365182052109963],[104.313251335281,-3.350618710584977],[104.3517337060458,-3.37592074964286],[104.3171520951931,-3.449552153109339],[104.2764257693338,-3.460531430980732],[104.2949892890246,-3.474510514448673],[104.3168364016787,-3.523454113116811],[104.3145815548949,-3.566706238002462],[104.2987857149888,-3.563815100186643],[104.2801708997673,-3.581433373950984],[104.2511528035591,-3.577641922136968],[104.2478638632268,-3.535452599857505],[104.2324815306981,-3.540150302994041],[104.2298543915669,-3.529869604098915],[104.2180596462358,-3.526274253953579],[104.1959866733464,-3.540547222376381],[104.1951992611371,-3.55147003541372],[104.1493341362614,-3.551166570880484],[104.1405165641881,-3.513506210143438],[104.125715670342,-3.494905123072892],[104.1423297107476,-3.468247072744182],[104.1367537737677,-3.453928158857414],[104.1536993483463,-3.40865013389651],[104.1248476312132,-3.360436502342681],[104.1328048974281,-3.34338789783313],[104.1251699788115,-3.328452131760409],[104.1435424159498,-3.320912927089894],[104.1354208004296,-3.333344508442318],[104.1536589364109,-3.329581828638409],[104.1542890598923,-3.31872980933319],[104.1619538845641,-3.328427610845511],[104.1705198533086,-3.316372949751736],[104.173217920171,-3.328191142207418]]]]}}]}