{"type":"FeatureCollection","features":[{"type":"Feature","properties":{"kode":"31.01","nama":"Kabupaten Administrasi Kepulauan Seribu","lat":-5.700366519193108,"lng":106.57895590245003},"geometry":{"type":"MultiPolygon","coordinates":[[[[106.7358839676711,-6.038562013426122],[106.7364646716074,-6.039344904743497],[106.7354206873149,-6.040184090922977],[106.7353509691719,-6.039027196747674],[106.7358839676711,-6.038562013426122]]],[[[106.7465801218752,-6.034403670592851],[106.7479833529495,-6.035278381791879],[106.7466323895732,-6.037312130250498],[106.7455659114377,-6.035723596566704],[106.7465801218752,-6.034403670592851]]],[[[106.7352822528737,-6.032174096557234],[106.7366415053013,-6.033060086154033],[106.7352623697626,-6.034900663834523],[106.7333620744002,-6.033580505835604],[106.7352822528737,-6.032174096557234]]],[[[106.7453691622571,-6.026508405438483],[106.7448390838567,-6.026544236227486],[106.7451207272398,-6.02498356983581],[106.7454995019005,-6.025320292197715],[106.7453691622571,-6.026508405438483]]],[[[106.8318890998022,-6.00673866375823],[106.8315953902152,-6.006481285882596],[106.8318589770102,-6.006145397192223],[106.8320374735506,-6.006415101175903],[106.8318890998022,-6.00673866375823]]],[[[106.7821760681711,-6.003305411015861],[106.7815574083478,-6.005684872358933],[106.7795219295934,-6.003039813336634],[106.7812101522268,-6.002876821108386],[106.7821760681711,-6.003305411015861]]],[[[106.8470520373217,-5.985187030556975],[106.8468089919415,-5.984170661746616],[106.8476301889821,-5.984004949069081],[106.8477894238428,-5.984566385030536],[106.8470520373217,-5.985187030556975]]],[[[106.7065336618991,-5.975129075746181],[106.7102775125972,-5.976119160970476],[106.7113805166975,-5.978404102667215],[106.7109807680481,-5.979346369139619],[106.7065336618991,-5.975129075746181]]],[[[106.6911292294304,-5.970918937359019],[106.6951124472817,-5.972175292056007],[106.6949161423662,-5.978421377744318],[106.6892446955863,-5.975059199322511],[106.6911292294304,-5.970918937359019]]],[[[106.8468705235559,-5.957558547888623],[106.8457942176291,-5.960521215081974],[106.8412878506539,-5.956528128969899],[106.8437853057473,-5.954623056408862],[106.8468705235559,-5.957558547888623]]],[[[106.5220924112359,-5.959634473652001],[106.5194493406147,-5.959818813087717],[106.5207905400514,-5.954212744322688],[106.5226451417599,-5.954904567591671],[106.5220924112359,-5.959634473652001]]],[[[106.6311770889516,-5.942364611637422],[106.6324263057295,-5.945633990816005],[106.6278849029659,-5.943564216415424],[106.6285351361876,-5.942771639399584],[106.6311770889516,-5.942364611637422]]],[[[106.5944217978278,-5.93540454068691],[106.5983117352984,-5.938732213920498],[106.5967588480425,-5.940300442711147],[106.5906308352449,-5.935886377654213],[106.5944217978278,-5.93540454068691]]],[[[106.5842997249524,-5.925751789813186],[106.5896600152975,-5.932507543788094],[106.5877469279784,-5.935048807556401],[106.5823253668223,-5.928710946952601],[106.5842997249524,-5.925751789813186]]],[[[106.599238107153,-5.86300461037446],[106.5990742731593,-5.865790928608376],[106.5983172562364,-5.866247815684104],[106.5978282309881,-5.863675028879437],[106.599238107153,-5.86300461037446]]],[[[106.5826337236675,-5.862162799973162],[106.5838710720923,-5.862297673099074],[106.584110681163,-5.862549665834375],[106.5817811708644,-5.862211771655871],[106.5826337236675,-5.862162799973162]]],[[[106.6004488563297,-5.855691098665242],[106.6012911847404,-5.856126539608012],[106.6019061933162,-5.857725642124637],[106.5996636339696,-5.856572688778509],[106.6004488563297,-5.855691098665242]]],[[[106.6308750678302,-5.854197390397146],[106.6199055098315,-5.860881843422287],[106.6093576457389,-5.863893907677634],[106.6149282479403,-5.856721672267343],[106.6308750678302,-5.854197390397146]]],[[[106.6226142750288,-5.854425944101997],[106.6225619848478,-5.854366834361872],[106.6226641883017,-5.854078967670143],[106.6228246210595,-5.853963703362179],[106.6226142750288,-5.854425944101997]]],[[[106.61463401225,-5.855201121934143],[106.6139031467129,-5.854459290963447],[106.614170536741,-5.853752925656933],[106.6146492899329,-5.854208515010909],[106.61463401225,-5.855201121934143]]],[[[106.6055681085814,-5.853547775909077],[106.6086014462998,-5.858681224858556],[106.6013374269807,-5.86086842463807],[106.6055103667101,-5.856458966807824],[106.6055681085814,-5.853547775909077]]],[[[106.6218620191169,-5.85334570723857],[106.6215035619399,-5.852917763943636],[106.6219218806903,-5.852553305590539],[106.6221353500664,-5.852875780892556],[106.6218620191169,-5.85334570723857]]],[[[106.6208141425587,-5.852986773420791],[106.620090239573,-5.853191378179527],[106.6195867748098,-5.854718808326335],[106.6196299656504,-5.853468096875129],[106.6208108420468,-5.852433716442799],[106.6208141425587,-5.852986773420791]]],[[[106.5500522608032,-5.819914805024221],[106.5579767458302,-5.820598412087],[106.5578731978898,-5.822033962097598],[106.5546318191033,-5.824717259393956],[106.5500522608032,-5.819914805024221]]],[[[106.5502119147481,-5.814113513228029],[106.5500162744316,-5.814379533588613],[106.5489109887512,-5.814205905078377],[106.5494807317504,-5.814118272440253],[106.5502119147481,-5.814113513228029]]],[[[106.5360115836677,-5.803433838201037],[106.5359460779491,-5.804496106610006],[106.5358547302117,-5.80449450581673],[106.5357637404044,-5.803605920776604],[106.5360115836677,-5.803433838201037]]],[[[106.5206422886108,-5.802545076893732],[106.5234786073519,-5.802502246681288],[106.5300887493963,-5.804139315876692],[106.5219085187633,-5.80571616916579],[106.5161417699268,-5.80249699464053],[106.5206422886108,-5.802545076893732]]],[[[106.5006814895592,-5.800695911586987],[106.5005054103965,-5.800733982587206],[106.4987184350078,-5.8000439399758],[106.4989777958886,-5.79972271203351],[106.5006814895592,-5.800695911586987]]],[[[106.480651288926,-5.793162020111068],[106.5003923862996,-5.795778111970299],[106.5115987016188,-5.803026759177569],[106.4784421798628,-5.793376068650583],[106.480651288926,-5.793162020111068]]],[[[106.5537438986621,-5.769687589610476],[106.5548060906287,-5.771389380315632],[106.5539694720136,-5.772014703215937],[106.5523647640227,-5.770264370704118],[106.5537438986621,-5.769687589610476]]],[[[106.5598006608719,-5.771965286368789],[106.5594656607118,-5.770304286213771],[106.5613496612579,-5.769482286078612],[106.5610746611668,-5.77048928575186],[106.5598006608719,-5.771965286368789]]],[[[106.5834444759819,-5.765401414443686],[106.581977894864,-5.76374269227136],[106.5839976516703,-5.760388982765256],[106.5843754397748,-5.762447907744654],[106.5834444759819,-5.765401414443686]]],[[[106.5816396022859,-5.764298691831086],[106.5819499178545,-5.761633628289235],[106.5828991189992,-5.760009033590022],[106.5828626110208,-5.761286804742197],[106.5816396022859,-5.764298691831086]]],[[[106.6073596120564,-5.759243206908397],[106.608337569923,-5.75940263062689],[106.6082828416799,-5.75992849210614],[106.6069812771642,-5.75990231823729],[106.6073596120564,-5.759243206908397]]],[[[106.586716062996,-5.759441446265682],[106.586377726351,-5.759589600579566],[106.5871859803487,-5.758158192846245],[106.5870374060515,-5.758771734627802],[106.586716062996,-5.759441446265682]]],[[[106.584472840849,-5.759652929039375],[106.585898665591,-5.759461682810389],[106.5836723219202,-5.759983151101514],[106.5836492812893,-5.758336916015842],[106.5839594529665,-5.757588456142297],[106.584472840849,-5.759652929039375]]],[[[106.5831698922768,-5.758046479960991],[106.582952413723,-5.7584331263876],[106.5832725471904,-5.757497799084081],[106.5831627615523,-5.757908139049376],[106.5831698922768,-5.758046479960991]]],[[[106.6158717446853,-5.74477600560808],[106.6150322680248,-5.746614390741537],[106.6161071494255,-5.746986865651297],[106.6160310056265,-5.747705462636946],[106.6115733198529,-5.749380729636914],[106.6158717446853,-5.74477600560808]]],[[[106.6190197963266,-5.739733951160878],[106.6189512679867,-5.739705397685916],[106.6190026642417,-5.739499811766872],[106.619142576269,-5.739642580040964],[106.6190197963266,-5.739733951160878]]],[[[106.6029164215557,-5.739224090419341],[106.6039463332568,-5.742692947321596],[106.5978927366605,-5.738527541213027],[106.6016612566617,-5.737344315787477],[106.6029164215557,-5.739224090419341]]],[[[106.6097318707293,-5.737995231594598],[106.6093206997905,-5.737761093099873],[106.6095148652189,-5.736698901133312],[106.6100174072776,-5.736841669407492],[106.6097318707293,-5.737995231594598]]],[[[106.6019322178975,-5.734206103628718],[106.6033531800053,-5.73470809620165],[106.5986780669392,-5.735494621679375],[106.6005973397955,-5.734077612991388],[106.6019322178975,-5.734206103628718]]],[[[106.5710270508578,-5.73027943334912],[106.5702858233321,-5.730154139801672],[106.5719764273702,-5.729379941331184],[106.5719555208307,-5.729792428877437],[106.5710270508578,-5.73027943334912]]],[[[106.5659577415566,-5.711001858249158],[106.5654152246329,-5.710954268824401],[106.5653105282584,-5.710744876075128],[106.5660386436685,-5.710678250700666],[106.5659577415566,-5.711001858249158]]],[[[106.5764288602038,-5.708982863168525],[106.576051448016,-5.708699719716285],[106.5760686682345,-5.707722069417879],[106.576317718388,-5.707798211418228],[106.5764288602038,-5.708982863168525]]],[[[106.5376258604452,-5.699682301197199],[106.5430311330804,-5.699726785262874],[106.543520502769,-5.700284028585027],[106.5338539257181,-5.700349821187237],[106.5376258604452,-5.699682301197199]]],[[[106.7131937199144,-5.695269661565553],[106.7135506392507,-5.695662273195338],[106.7135292236948,-5.69652601806128],[106.7111592807762,-5.696647369880185],[106.7131937199144,-5.695269661565553]]],[[[106.5323801608158,-5.690366289772423],[106.5313593718376,-5.690666102158807],[106.5310167301381,-5.690202106841705],[106.5323658840784,-5.689381193087576],[106.5323801608158,-5.690366289772423]]],[[[106.5617695070572,-5.686142079693183],[106.5619070880417,-5.685577431353365],[106.5628396067625,-5.684769535285809],[106.5627926747422,-5.685190294796242],[106.5617695070572,-5.686142079693183]]],[[[106.5885959320567,-5.679232413944727],[106.5872201357008,-5.679684703686031],[106.5864301550277,-5.679180257762687],[106.5882324359782,-5.678612925845775],[106.5885959320567,-5.679232413944727]]],[[[106.5845442272343,-5.668982917927305],[106.5842346392173,-5.670082851742179],[106.5787771537427,-5.671023416697255],[106.5801489750952,-5.669351425927508],[106.5845442272343,-5.668982917927305]]],[[[106.5603425941355,-5.669494662748401],[106.5597953179996,-5.66951845791042],[106.5594859880879,-5.669155589558787],[106.5609458143979,-5.669015112757218],[106.5603425941355,-5.669494662748401]]],[[[106.5677508422276,-5.667606271712059],[106.5680093082831,-5.666825176340743],[106.5688083568203,-5.666933228985264],[106.5685098772292,-5.667496896164773],[106.5677508422276,-5.667606271712059]]],[[[106.5703905448878,-5.661043489765198],[106.5664189165998,-5.663810773848058],[106.5652865019705,-5.663661166229853],[106.5687029994439,-5.660621793161162],[106.5703905448878,-5.661043489765198]]],[[[106.5720297670601,-5.654715644911049],[106.5720564166704,-5.655256258869183],[106.5718051460907,-5.655819714707969],[106.5716604748512,-5.654807016930245],[106.5720297670601,-5.654715644911049]]],[[[106.5785314859394,-5.651543030986054],[106.5791016048552,-5.656311707719101],[106.5642423746859,-5.656571640568656],[106.5660629586387,-5.652994982832097],[106.5785314859394,-5.651543030986054]]],[[[106.5694444221225,-5.648629000028275],[106.5680214464326,-5.650295132614217],[106.5640906347751,-5.6491881741948],[106.5644951426367,-5.648646846174969],[106.5694444221225,-5.648629000028275]]],[[[106.566984012802,-5.642351234821578],[106.5673076203505,-5.643702769267359],[106.5532466383217,-5.647263982946419],[106.5594962916206,-5.643427101879154],[106.566984012802,-5.642351234821578]]],[[[106.5558979521289,-5.642399770333099],[106.5556032649787,-5.642351183560183],[106.5553177428197,-5.641353520648432],[106.5557948097827,-5.641567642032967],[106.5558979521289,-5.642399770333099]]],[[[106.5823417353829,-5.634153325315675],[106.585544847117,-5.63509006455483],[106.5751978331135,-5.635143926750778],[106.5778770330987,-5.634025257359702],[106.5823417353829,-5.634153325315675]]],[[[106.573190100243,-5.627726466003561],[106.571986440422,-5.628146798336057],[106.5713041067992,-5.627704870583265],[106.5727335908826,-5.626923755426886],[106.573190100243,-5.627726466003561]]],[[[106.5456717431565,-5.623725998256183],[106.5475895878892,-5.623783105206107],[106.5481130697624,-5.624530254767438],[106.5436539603621,-5.624387488291908],[106.5456717431565,-5.623725998256183]]],[[[106.5615986646468,-5.619851045289507],[106.561755708759,-5.620443531243938],[106.5611382387388,-5.620711220746236],[106.5608063043675,-5.620147288266678],[106.5615986646468,-5.619851045289507]]],[[[106.5837768995844,-5.618621583918929],[106.5852997548798,-5.62016347516419],[106.5816829747895,-5.620744063987341],[106.5818526372894,-5.619409655331235],[106.5837768995844,-5.618621583918929]]],[[[106.5730372100993,-5.618170431819961],[106.5728016425818,-5.618609443071313],[106.5718165458969,-5.618691534086987],[106.572887303906,-5.617995541560975],[106.5730372100993,-5.618170431819961]]],[[[106.5496344105996,-5.620704405683767],[106.5505612114308,-5.616818746288103],[106.5554084970045,-5.614642404923024],[106.5562056155968,-5.617140839378169],[106.5496344105996,-5.620704405683767]]],[[[106.5825221016138,-5.610199352018411],[106.5754636978914,-5.614631069867907],[106.5726440372925,-5.613762565789741],[106.5740122271826,-5.611002391746903],[106.5825221016138,-5.610199352018411]]],[[[106.5672732671476,-5.607953359060217],[106.5669558667199,-5.607092223127522],[106.5679876022461,-5.606186123790539],[106.5681969940961,-5.606460238049563],[106.5672732671476,-5.607953359060217]]],[[[106.603210480979,-5.605432107006062],[106.6028321460867,-5.60499309575471],[106.6036864471718,-5.604643762199827],[106.6034567549254,-5.605321461616056],[106.603210480979,-5.605432107006062]]],[[[106.5456773666172,-5.605443019379734],[106.5442550186543,-5.606403236320271],[106.5428315321496,-5.605795178604537],[106.5464143799198,-5.603666855640802],[106.5456773666172,-5.605443019379734]]],[[[106.5492008078711,-5.598946449119317],[106.548610702422,-5.598403932195665],[106.549743325694,-5.598237369658835],[106.5498670571191,-5.598846511956949],[106.5492008078711,-5.598946449119317]]],[[[106.5526105757175,-5.598660914369606],[106.5523250409679,-5.598332547608979],[106.5526998055516,-5.597861415272102],[106.5528889734474,-5.598332547608979],[106.5526105757175,-5.598660914369606]]],[[[106.5622212194339,-5.593654527934059],[106.5598007193277,-5.595324079742418],[106.5571357223358,-5.596061712677861],[106.5566354339782,-5.595540250681966],[106.5622212194339,-5.593654527934059]]],[[[106.5685823580894,-5.593944469361726],[106.5668881810448,-5.592250293216398],[106.5696769103612,-5.591488865119024],[106.5700317999277,-5.592515955646763],[106.5685823580894,-5.593944469361726]]],[[[106.5435955368046,-5.591169503269881],[106.5441882475896,-5.592301388198421],[106.5416198818521,-5.592345201369912],[106.5423173906351,-5.591309453968022],[106.5435955368046,-5.591169503269881]]],[[[106.5584369010422,-5.590073071415062],[106.558286994849,-5.590983215003379],[106.5573018990635,-5.590487097701295],[106.5577373400063,-5.590044517940099],[106.5584369010422,-5.590073071415062]]],[[[106.555675298876,-5.589483917448738],[106.5529712991862,-5.5906202827998],[106.5510103661355,-5.590665319049196],[106.5511531326111,-5.589726621985917],[106.555675298876,-5.589483917448738]]],[[[106.5456183782856,-5.586616304099116],[106.5478968412662,-5.586818801746211],[106.5482210432666,-5.587598075090997],[106.5458325293478,-5.58853652933731],[106.5456183782856,-5.586616304099116]]],[[[106.5922940369403,-5.58420155605697],[106.591399009157,-5.587278011770795],[106.587871808737,-5.58727106091064],[106.5898583077148,-5.584850961902336],[106.5922940369403,-5.58420155605697]]],[[[106.5520180259113,-5.584420566156182],[106.5515718767408,-5.584716809133353],[106.5512328035511,-5.584434842893663],[106.5519680568804,-5.583885188050956],[106.5520180259113,-5.584420566156182]]],[[[106.5701754558326,-5.582097578640325],[106.5692688816536,-5.583189751305965],[106.5672382484464,-5.582953033555586],[106.5683518357687,-5.582356979091311],[106.5701754558326,-5.582097578640325]]],[[[106.5952559666896,-5.579006659129941],[106.5960690518453,-5.581075538705064],[106.5926604738019,-5.580747173742998],[106.5927247186708,-5.579765645568084],[106.5952559666896,-5.579006659129941]]],[[[106.5489726390761,-5.58372420041147],[106.5472068409231,-5.580440067854812],[106.5509235590751,-5.577306793873386],[106.5500291203477,-5.582486879865537],[106.5489726390761,-5.58372420041147]]],[[[106.5808369969299,-5.577103974268897],[106.579785666975,-5.576088905878222],[106.5809410430947,-5.574244480898009],[106.5823360570634,-5.575840479854203],[106.5808369969299,-5.577103974268897]]],[[[106.5594638953426,-5.572580962641264],[106.5567883807792,-5.57260619491993],[106.5555460591034,-5.571722992322207],[106.5579255204465,-5.571066260599426],[106.5594638953426,-5.572580962641264]]],[[[106.5405053268595,-5.57466386714374],[106.5391192908227,-5.574455664197479],[106.5428431468938,-5.570761551404394],[106.5431847732587,-5.572672097239443],[106.5405053268595,-5.57466386714374]]],[[[106.5846465143252,-5.571595819191692],[106.5839228658476,-5.570861611773895],[106.5851445094116,-5.569258868801689],[106.5853817667552,-5.570960503024728],[106.5846465143252,-5.571595819191692]]],[[[106.550736032442,-5.570840387773649],[106.5494273282088,-5.570307388375254],[106.5508312103921,-5.569127175678527],[106.5515926375902,-5.569631620702679],[106.550736032442,-5.570840387773649]]],[[[106.5253685191419,-5.567597697775532],[106.5291216238638,-5.567856230380722],[106.5295516113178,-5.568600640607072],[106.5274799861126,-5.570723275358861],[106.5253685191419,-5.567597697775532]]],[[[106.5661387786818,-5.56699993729726],[106.5653630738468,-5.56711415209639],[106.5658056536081,-5.566100501037211],[106.5663719656937,-5.566519285636477],[106.5661387786818,-5.56699993729726]]],[[[106.5269787004068,-5.556661695281021],[106.5278686182422,-5.557575408278374],[106.5255295553448,-5.557935969869091],[106.5262219775623,-5.556679615172103],[106.5269787004068,-5.556661695281021]]],[[[106.5326161842895,-5.554168836622501],[106.5320659340956,-5.556137097349082],[106.5305668730628,-5.556238225213831],[106.5303705681472,-5.555250748922872],[106.5326161842895,-5.554168836622501]]],[[[106.5441866449977,-5.551643609564908],[106.544681573396,-5.554051624382942],[106.5405560090527,-5.554905250976531],[106.5408268461821,-5.55273816183666],[106.5441866449977,-5.551643609564908]]],[[[106.5298742718802,-5.549321230890029],[106.529286545138,-5.550558549637311],[106.526415724806,-5.550154834977564],[106.5272854186872,-5.549359301890248],[106.5298742718802,-5.549321230890029]]],[[[106.5201732831705,-5.551093755972029],[106.5180572341541,-5.550713215942053],[106.520653933932,-5.548771401578882],[106.5209934891583,-5.549561555821096],[106.5201732831705,-5.551093755972029]]],[[[106.578555687595,-5.54015557621879],[106.5785414108575,-5.53960354176997],[106.5791505540549,-5.539627335133427],[106.5787603229306,-5.53982245114513],[106.578555687595,-5.54015557621879]]],[[[106.5339866890345,-5.537200599128304],[106.5307900272381,-5.537987381812196],[106.529786912636,-5.53765855639721],[106.5362508896669,-5.534578803768734],[106.5339866890345,-5.537200599128304]]],[[[106.5440327260296,-5.528192869005614],[106.5440519526356,-5.529552570194944],[106.5392998719915,-5.531716095321463],[106.5409918223149,-5.52842356039898],[106.5440327260296,-5.528192869005614]]],[[[106.5258222307114,-5.523192704079952],[106.5240709476162,-5.522183813132457],[106.5256413923364,-5.520994082011192],[106.5266279342318,-5.521941736322037],[106.5258222307114,-5.523192704079952]]],[[[106.5206664147234,-5.516905204611503],[106.5204165713678,-5.516667259286549],[106.5209043600482,-5.516131880281953],[106.5209281552103,-5.516346032243539],[106.5206664147234,-5.516905204611503]]],[[[106.5281445851046,-5.514525516639227],[106.5261030071481,-5.513875923734871],[106.5260244846423,-5.512886068736992],[106.5281422045991,-5.512517252269315],[106.5281445851046,-5.514525516639227]]],[[[106.5327964309106,-5.51578901105401],[106.5332723233591,-5.512576738825351],[106.5384054458547,-5.511368252342911],[106.5381264239954,-5.512969349555855],[106.5327964309106,-5.51578901105401]]],[[[106.5343110448189,-5.503592230996616],[106.5317690112309,-5.502978572303244],[106.531800474912,-5.501699906325523],[106.5345104766773,-5.50199930412452],[106.5343110448189,-5.503592230996616]]],[[[106.5509897338892,-5.49981960019437],[106.5572469567817,-5.501153161689024],[106.5426682206619,-5.504946028136696],[106.5467453709022,-5.499569915119443],[106.5509897338892,-5.49981960019437]]],[[[106.578557991658,-5.491600919047172],[106.5801230350501,-5.492771043149051],[106.5763193335704,-5.49509486793374],[106.5764572949683,-5.492627567108491],[106.578557991658,-5.491600919047172]]],[[[106.3937249999089,-5.479858999892854],[106.3920523499361,-5.481003765811091],[106.39059040932,-5.478713772622505],[106.3948450263769,-5.477470816025302],[106.3937249999089,-5.479858999892854]]],[[[106.5239735348508,-5.479612511008528],[106.5223436035745,-5.478845134795111],[106.5274447785538,-5.476055193192567],[106.5250502409759,-5.479148515691427],[106.5239735348508,-5.479612511008528]]],[[[106.4386900832808,-5.465317898602144],[106.4382046733071,-5.46526079165213],[106.4381903956703,-5.464504122766981],[106.4389756189297,-5.464960980165116],[106.4386900832808,-5.465317898602144]]],[[[106.5458007302196,-5.463786072569103],[106.5446448819558,-5.463524486765595],[106.5454613818374,-5.462561776005063],[106.5461660537205,-5.463076683741956],[106.5458007302196,-5.463786072569103]]],[[[106.5567447276871,-5.460930053279326],[106.5572714956831,-5.464084482013191],[106.5534592317582,-5.465228881007959],[106.5534662006047,-5.461580363842681],[106.5567447276871,-5.460930053279326]]],[[[106.5726705762861,-5.456535883024553],[106.5721487743466,-5.457628671725771],[106.5665530163087,-5.460031140424774],[106.5665292319385,-5.457119712105011],[106.5726705762861,-5.456535883024553]]],[[[106.5644874282523,-5.452872127746459],[106.5642875530282,-5.452586592996837],[106.5648015173762,-5.452358165197139],[106.5647634445773,-5.452643699946761],[106.5644874282523,-5.452872127746459]]],[[[106.49229458123,-5.422587537884541],[106.4902319951105,-5.419783142378058],[106.4938077796054,-5.418688602696856],[106.4940934528506,-5.420860049051938],[106.49229458123,-5.422587537884541]]],[[[106.4711031013272,-5.415629994028918],[106.4703416741291,-5.413250532685846],[106.4725545720359,-5.412227365000869],[106.4732922049714,-5.412929305642836],[106.4711031013272,-5.415629994028918]]],[[[106.4631161224112,-5.202448421657271],[106.4603665918448,-5.206431828366112],[106.4606283332311,-5.207038590158744],[106.4605450524123,-5.207996323171729],[106.4603606437288,-5.208377036770775],[106.4595218838279,-5.203790625636787],[106.4631161224112,-5.202448421657271]]]]}},{"type":"Feature","properties":{"kode":"31.71","nama":"Kota Administrasi Jakarta Pusat","lat":-6.181200074228588,"lng":106.83512454642566},"geometry":{"type":"MultiPolygon","coordinates":[[[[106.8330298709319,-6.141562736131315],[106.8440833752476,-6.144957999711912],[106.8451843792558,-6.153436609212085],[106.8814047131571,-6.162516112428555],[106.8751276620121,-6.192299026278984],[106.8617899417525,-6.193886565312726],[106.8469867618296,-6.208642379741995],[106.8227468859601,-6.202669023356647],[106.8183805164477,-6.214627305905455],[106.7958582359689,-6.22926313458592],[106.7918753076993,-6.208718956114882],[106.8106588726089,-6.188822219369853],[106.7981815688244,-6.161401721112528],[106.8283355213673,-6.162290664982154],[106.8213225064286,-6.136863627354464],[106.8306995359549,-6.135136714987403],[106.8330298709319,-6.141562736131315]]]]}},{"type":"Feature","properties":{"kode":"31.72","nama":"Kota Administrasi Jakarta Utara","lat":-6.127183230275113,"lng":106.86661440635285},"geometry":{"type":"MultiPolygon","coordinates":[[[[106.7933622782466,-6.100671622996926],[106.7933753795702,-6.103807686675359],[106.7914089939299,-6.103820536188723],[106.7912436068071,-6.100510343977098],[106.7933622782466,-6.100671622996926]]],[[[106.7922172758067,-6.096640203282692],[106.7935661293734,-6.097210556022307],[106.7931511138329,-6.099769200088438],[106.7912378898168,-6.099614054444994],[106.7922172758067,-6.096640203282692]]],[[[106.8772565290656,-6.094685133811843],[106.8781425123671,-6.099063756587046],[106.8760359853725,-6.100424455124446],[106.8770453916316,-6.094541786374278],[106.8772565290656,-6.094685133811843]]],[[[106.794916272568,-6.093566738713977],[106.7913318231053,-6.09581099687995],[106.7903822280574,-6.106650746734558],[106.7909354046453,-6.094058523981597],[106.794916272568,-6.093566738713977]]],[[[106.9680320702239,-6.091125909433152],[106.971508667591,-6.154332760248663],[106.9443820686776,-6.162936176763071],[106.9401562110403,-6.151346375234982],[106.922156104021,-6.161228193326433],[106.922503706381,-6.183116056960428],[106.8963818111717,-6.177998813794153],[106.8566803518169,-6.151834818621963],[106.8451843792558,-6.153436609212085],[106.8440833752476,-6.144957999711912],[106.8306995359549,-6.135136714987403],[106.8167762500239,-6.137123675317272],[106.8150509609331,-6.130237543028175],[106.8014697780079,-6.133399511678109],[106.8005617766047,-6.141863559355691],[106.775029865436,-6.145230231689761],[106.7335898888624,-6.12313449066411],[106.7105072426153,-6.096408219563613],[106.7256327476532,-6.08907921613289],[106.7409771000132,-6.101980263378407],[106.7765940913443,-6.103709599418464],[106.7744986242122,-6.110076977570404],[106.7904143788205,-6.108033728673571],[106.7941531123763,-6.104889723082144],[106.7960332179587,-6.093965109602077],[106.7976364312763,-6.10889734673508],[106.8035334379179,-6.09451999130444],[106.8118273626428,-6.122673431633511],[106.8172100533014,-6.114874574701793],[106.8405387333759,-6.123870430176196],[106.8729268572887,-6.10435119555122],[106.8646175631501,-6.113551800575027],[106.8715141473601,-6.115583934750716],[106.8767324095731,-6.101802587019715],[106.8785688854458,-6.109932192116911],[106.879533661949,-6.094306106441553],[106.8822822949919,-6.106380977100371],[106.8841950252802,-6.096026683984216],[106.8864461057033,-6.096105994296223],[106.8866888093412,-6.106547670938215],[106.888297289988,-6.097210541633195],[106.89149505885,-6.106879771684052],[106.8927342931532,-6.097365129696967],[106.9051463736063,-6.097861713747025],[106.9069753599249,-6.108480592805047],[106.9094552296752,-6.098906198062507],[106.9196244755892,-6.104365680931404],[106.9267162081865,-6.097498216769263],[106.95239482666,-6.096600514402154],[106.9464366571261,-6.096576719240136],[106.9478629054488,-6.09047689209488],[106.9575392509358,-6.097498354365508],[106.9680320702239,-6.091125909433152]]],[[[106.9238824318288,-6.089307312082751],[106.8998341430314,-6.090235604889197],[106.8990274277737,-6.082314452749741],[106.9233671265917,-6.08216850537218],[106.9238824318288,-6.089307312082751]]],[[[106.7345304619113,-6.081707815063523],[106.7406349403502,-6.087363466150978],[106.7365861682172,-6.095344139020734],[106.72874806667,-6.088072925125302],[106.7345304619113,-6.081707815063523]]],[[[106.7568204529016,-6.080768957921005],[106.7511530593663,-6.097556947894737],[106.7382497179502,-6.097394788438652],[106.7514120488271,-6.074315556917379],[106.7568204529016,-6.080768957921005]]]]}},{"type":"Feature","properties":{"kode":"31.73","nama":"Kota Administrasi Jakarta Barat","lat":-6.1653326687532815,"lng":106.74830052457504},"geometry":{"type":"MultiPolygon","coordinates":[[[[106.6942298409345,-6.095626598988328],[106.712913894061,-6.097316610373208],[106.7333890639542,-6.122980722782038],[106.7750692278626,-6.14524430607977],[106.8005617766047,-6.141863559355691],[106.8011692038957,-6.133659934658268],[106.8132450350304,-6.130112548055581],[106.8216024446972,-6.137189201720243],[106.8283355213673,-6.162290664982154],[106.7981815688244,-6.161401721112528],[106.8106492004004,-6.188933196609695],[106.7960786822855,-6.207580903635782],[106.7832121932881,-6.206702763321807],[106.7784334684299,-6.226905574432688],[106.7180894870402,-6.223044397281078],[106.72471264857,-6.19395183900611],[106.7134400936854,-6.191766391106039],[106.7243695527128,-6.184962643910889],[106.6868114296038,-6.172372014756603],[106.6858047231095,-6.128427215843305],[106.6968869679592,-6.110590307896383],[106.688740448413,-6.108093092921844],[106.6879927916341,-6.097068797686837],[106.6942298409345,-6.095626598988328]]]]}},{"type":"Feature","properties":{"kode":"31.74","nama":"Kota Administrasi Jakarta Selatan","lat":-6.2726047320060445,"lng":106.81003987805606},"geometry":{"type":"MultiPolygon","coordinates":[[[[106.846635289687,-6.208663926598915],[106.8655025140299,-6.223635906571782],[106.8567517885642,-6.272590555209926],[106.8467223503562,-6.279043655839959],[106.8583274853253,-6.311206770276171],[106.8386793427775,-6.320113047878787],[106.8434747113889,-6.331589330683033],[106.8362906543902,-6.355077422784809],[106.7945779629028,-6.364594415599782],[106.7924076191164,-6.348382418014146],[106.8092433397084,-6.314835276626666],[106.7767535933037,-6.315203014807284],[106.7737696643386,-6.298539884907743],[106.7601106900564,-6.286440475347614],[106.7621977386348,-6.27784482357974],[106.7515262978005,-6.274537278972207],[106.7548289545927,-6.255829743647715],[106.7374280568594,-6.223880087795734],[106.7784334684299,-6.226905574432688],[106.777681871721,-6.213737161440828],[106.7857343779392,-6.206829582119492],[106.7957976297569,-6.212412682199523],[106.7994650515709,-6.229224928687475],[106.8227468859601,-6.202669023356647],[106.846635289687,-6.208663926598915]]]]}},{"type":"Feature","properties":{"kode":"31.75","nama":"Kota Administrasi Jakarta Timur","lat":-6.254966081116928,"lng":106.90069115569183},"geometry":{"type":"MultiPolygon","coordinates":[[[[106.9403840785624,-6.155225241151888],[106.9486744581597,-6.163139771583096],[106.971508667591,-6.154332760248663],[106.9730040593899,-6.189441713764036],[106.9628207327906,-6.21217066474438],[106.9486917925922,-6.222238287267049],[106.9440025205999,-6.25239632902728],[106.9192436405816,-6.251178346603385],[106.9043495490925,-6.262052440667602],[106.9118696485655,-6.298183783055115],[106.9217790731458,-6.303389933198814],[106.916215901143,-6.362773096001532],[106.9060244743501,-6.359665126244511],[106.9012756402586,-6.370207187011959],[106.8846771023664,-6.372512971396453],[106.8715932283448,-6.353084051187955],[106.8622649996301,-6.357206666654295],[106.849012938896,-6.336942896797185],[106.8397048981627,-6.335271362883058],[106.8393990090571,-6.31916321091344],[106.8583274853253,-6.311206770276171],[106.8467223503562,-6.279043655839959],[106.8567517885642,-6.272590555209926],[106.8542661280794,-6.262321588870171],[106.8669197916151,-6.238713520912213],[106.8635801888747,-6.216345001120852],[106.8492536577301,-6.20671569557281],[106.8617899417525,-6.193886565312726],[106.8751276620121,-6.192299026278984],[106.8789034035693,-6.166419500159729],[106.922503706381,-6.183116056960428],[106.922156104021,-6.161228193326433],[106.9403840785624,-6.155225241151888]]]]}}]}