{"type":"FeatureCollection","features":[{"type":"Feature","properties":{"kode":"51.01","nama":"Kabupaten Jembrana","lat":-8.31312268804714,"lng":114.68288681224492},"geometry":{"type":"MultiPolygon","coordinates":[[[[114.450869779117,-8.172324066102714],[114.4529202477713,-8.174670238140962],[114.4464706320141,-8.178754321254882],[114.4495962923351,-8.172404015832662],[114.450869779117,-8.172324066102714]]],[[[114.4515238533433,-8.164605586078881],[114.4519182492279,-8.167223320100074],[114.4516446107103,-8.167270910424111],[114.4514899462041,-8.167824133776751],[114.4509337469949,-8.168261359873856],[114.4515238533433,-8.164605586078881]]],[[[114.4442881932456,-8.163507063300273],[114.4467223819324,-8.163715980308233],[114.4466117374418,-8.164993749661758],[114.444184686674,-8.165418484175628],[114.4442881932456,-8.163507063300273]]],[[[114.4390992894007,-8.160688826328215],[114.442336793908,-8.180865379033957],[114.4514954266727,-8.178075960836821],[114.4569492806849,-8.168885778955453],[114.4581744891614,-8.167179363936476],[114.4594580096795,-8.166871174365191],[114.4580648860857,-8.19388724300179],[114.4911828709928,-8.191841857315811],[114.5044412251824,-8.209731236207478],[114.5321777272205,-8.192902274020657],[114.5477443362322,-8.19042244473998],[114.5530871743337,-8.197903100847341],[114.5973222923899,-8.176579881955952],[114.6108211495765,-8.183113765987464],[114.6321631759899,-8.214229731416971],[114.6549190886451,-8.227472296209442],[114.6698567927568,-8.22201159565859],[114.6842651028523,-8.23165586772408],[114.7015402016191,-8.2010781033717],[114.7312482154329,-8.222375687088217],[114.7517421613717,-8.223447231104757],[114.7719586565668,-8.25795762734261],[114.8116108105905,-8.251111359301682],[114.8239492959233,-8.333088474053767],[114.8583490054024,-8.342070202078116],[114.8702619702138,-8.337357803120042],[114.8963681371798,-8.35738483274378],[114.9016990187947,-8.371314232265963],[114.9330777832132,-8.380674535301562],[114.9260296794263,-8.448343846391353],[114.9155639108459,-8.467107038958659],[114.884246982912,-8.450092015134274],[114.8166734208418,-8.43158655567498],[114.7996860089022,-8.412826027798896],[114.748505012996,-8.398951004884907],[114.7027519796202,-8.396713032980045],[114.6230170267145,-8.407577976442475],[114.5839800269567,-8.399359974283342],[114.5675083051642,-8.388465587916532],[114.5758074729366,-8.388251248895955],[114.572887874276,-8.382252627856417],[114.5697636420784,-8.384682058230357],[114.5689236923746,-8.386173980444838],[114.5686024653315,-8.38625488075813],[114.56971843226,-8.384503597662878],[114.5735469847057,-8.381564963951842],[114.5457621845772,-8.347811596328096],[114.519053632819,-8.330843450564789],[114.5175893683547,-8.30682462805406],[114.4837308780777,-8.275994864671237],[114.4541560943284,-8.229672654869074],[114.4317712581371,-8.173975536142013],[114.4390992894007,-8.160688826328215]]]]}},{"type":"Feature","properties":{"kode":"51.02","nama":"Kabupaten Tabanan","lat":-8.430231084613808,"lng":115.07827426552363},"geometry":{"type":"MultiPolygon","coordinates":[[[[115.0042140059716,-8.542687037676604],[115.0041180132358,-8.54196502506575],[115.004634963333,-8.541327965113492],[115.0044939874076,-8.542257990913509],[115.0042140059716,-8.542687037676604]]],[[[115.1892337518362,-8.25493663281927],[115.1858290939376,-8.275911957970443],[115.2016485347522,-8.293013242966722],[115.2122895227434,-8.328557959382259],[115.2018695917084,-8.33344197956361],[115.1980023837031,-8.358713649415321],[115.2090379879129,-8.379317676869196],[115.2174114064113,-8.438227968945604],[115.2024539109193,-8.489319106391573],[115.1954318766797,-8.489492044222384],[115.1983509348478,-8.445711909377067],[115.1890195549086,-8.442973069051867],[115.1761612911107,-8.459228719729577],[115.176653027815,-8.487153029888344],[115.1836701175819,-8.495079532993959],[115.1500443430721,-8.580886419672478],[115.1558840557046,-8.600423352056001],[115.1381941833151,-8.618378758273053],[115.1374076146698,-8.608808118200066],[115.1197584150188,-8.610913184695672],[115.0991787645884,-8.637282336810319],[115.055866014605,-8.578890967044455],[114.9155639108459,-8.467107038958659],[114.9280276303709,-8.438131665044217],[114.925153640828,-8.414931968435528],[114.9363126554048,-8.394134299857985],[114.9315434300853,-8.363980246591023],[114.9366930083756,-8.357376038273472],[114.9500501090254,-8.360547608984952],[114.9617582847171,-8.3144531381018],[114.9834408861879,-8.29656171595035],[114.9812632785775,-8.289258648068092],[115.0128978146824,-8.3125118561372],[115.0267079488128,-8.31086702129598],[115.0329052058106,-8.301578198175257],[115.082041237813,-8.314033705091433],[115.1023954812665,-8.308506247865015],[115.1059226888811,-8.298272884785778],[115.125802402359,-8.308379356222222],[115.1388336399606,-8.27077601610025],[115.1791498506851,-8.243169609989458],[115.1892337518362,-8.25493663281927]]]]}},{"type":"Feature","properties":{"kode":"51.03","nama":"Kabupaten Badung","lat":-8.582846789330262,"lng":115.18838021912511},"geometry":{"type":"MultiPolygon","coordinates":[[[[115.1252030302957,-8.847677028871708],[115.1249410110189,-8.847734016211888],[115.1249310006652,-8.847386971431508],[115.125261995245,-8.847385012708102],[115.1252030302957,-8.847677028871708]]],[[[115.1886990032565,-8.765626974605105],[115.1877099918228,-8.76512996697441],[115.1881709690151,-8.76399299008435],[115.1888600025872,-8.764443995593822],[115.1886990032565,-8.765626974605105]]],[[[115.2143849790835,-8.758973984361855],[115.2141129557484,-8.758785949611863],[115.2140439894387,-8.757173943622547],[115.2143190030197,-8.757315983445828],[115.2143849790835,-8.758973984361855]]],[[[115.2296557030483,-8.240204232239439],[115.251362070903,-8.262531682690959],[115.2430661029184,-8.296746512241686],[115.2511306960249,-8.313536673178916],[115.24340283877,-8.328352004741184],[115.2493396089359,-8.338306961996604],[115.2344332821703,-8.357822431160216],[115.2252929020459,-8.391443157775473],[115.2296083654338,-8.444887351569967],[115.2448119810881,-8.477916044589744],[115.2299024248571,-8.525172309154687],[115.2468083842996,-8.558998740399453],[115.249373326318,-8.582271357637055],[115.2441959949493,-8.601382416065544],[115.2272833445508,-8.591739169227246],[115.180192976125,-8.61619746074414],[115.1805350359632,-8.660080290073306],[115.1734298683938,-8.661854480699631],[115.1797517993062,-8.674896548836646],[115.1725084374145,-8.682325727750122],[115.187561988595,-8.70696608341797],[115.1827610333951,-8.764645026446765],[115.1971230158145,-8.781606027995696],[115.2202260101224,-8.787132031917704],[115.21396297671,-8.775824000577153],[115.2210700319565,-8.75296602835947],[115.2270332673715,-8.785573358423697],[115.2401289926589,-8.803792003398208],[115.2175590112395,-8.833118996944105],[115.1985229841484,-8.841687979316752],[115.1234395577894,-8.848048783424627],[115.0888589802578,-8.838201051437338],[115.0851926043553,-8.821249332690488],[115.1417407857088,-8.780192872003383],[115.1639579756801,-8.779572986404176],[115.1685629919885,-8.759387042977611],[115.1519742630019,-8.744300733092274],[115.1601647189267,-8.7421472461984],[115.1692600160371,-8.721988991998302],[115.1436580171039,-8.671689993598335],[115.0991787645884,-8.637282336810319],[115.1197584150188,-8.610913184695672],[115.1374076146698,-8.608808118200066],[115.1381941833151,-8.618378758273053],[115.1558840557046,-8.600423352056001],[115.1500443430721,-8.580886419672478],[115.1836701175819,-8.495079532993959],[115.176653027815,-8.487153029888344],[115.1802724725966,-8.465205756140719],[115.174598326052,-8.464079899367754],[115.1890195549086,-8.442973069051867],[115.1984358470367,-8.44594028681474],[115.1954318766797,-8.489492044222384],[115.2032481813585,-8.488192940251942],[115.2174114064113,-8.438227968945604],[115.2090379879129,-8.379317676869196],[115.1979956270966,-8.358156659702036],[115.2018695917084,-8.33344197956361],[115.2123481837218,-8.329213557959285],[115.2016485347522,-8.293013242966722],[115.1858290939376,-8.275911957970443],[115.1900672228241,-8.261833244908328],[115.1839281942308,-8.245345153655919],[115.2296557030483,-8.240204232239439]]]]}},{"type":"Feature","properties":{"kode":"51.04","nama":"Kabupaten Gianyar","lat":-8.480973213474085,"lng":115.2874850845969},"geometry":{"type":"MultiPolygon","coordinates":[[[[115.2572546088133,-8.314699769978322],[115.2624778973371,-8.332843308971487],[115.2832314110009,-8.31493447594525],[115.2907328063739,-8.317561124046584],[115.2949350064455,-8.338205709126072],[115.3066514064374,-8.328719578345805],[115.3156339708312,-8.33686045014959],[115.328175755107,-8.33051578437594],[115.3247416174317,-8.366895216441055],[115.3364454152238,-8.369482006589273],[115.3368332208765,-8.384259426331457],[115.3310699407252,-8.413642241696078],[115.3174638933441,-8.433666903404795],[115.3269908812242,-8.464916210414746],[115.3239834673631,-8.49061162102938],[115.3363637468895,-8.52372394200625],[115.3601905479555,-8.524276049300177],[115.3710107123745,-8.567121487266753],[115.3710549734084,-8.57487698968125],[115.2748809926637,-8.650443024625858],[115.2433346440785,-8.609131508112604],[115.2491556076452,-8.566021882603785],[115.2299024248571,-8.525172309154687],[115.2448119810881,-8.477916044589744],[115.2296083654338,-8.444887351569967],[115.2253179490641,-8.391219037728419],[115.2344332821703,-8.357822431160216],[115.2493120447151,-8.338414540698462],[115.2449996767937,-8.321775107035538],[115.2572546088133,-8.314699769978322]]]]}},{"type":"Feature","properties":{"kode":"51.05","nama":"Kabupaten Klungkung","lat":-8.666950263790111,"lng":115.49365804125337},"geometry":{"type":"MultiPolygon","coordinates":[[[[115.5946370235798,-8.81672499006621],[115.594324026233,-8.8166740048014],[115.5944220226582,-8.815418975705107],[115.5946169660002,-8.81548696804904],[115.5946370235798,-8.81672499006621]]],[[[115.5257270257816,-8.804456990897407],[115.5253729752826,-8.804237005033748],[115.5257509738284,-8.80246004359611],[115.5265129667001,-8.803620028741292],[115.5257270257816,-8.804456990897407]]],[[[115.5290050078749,-8.799726007449209],[115.5288240346016,-8.799809014874054],[115.5287200082219,-8.799673001407786],[115.5290370111491,-8.799593959993217],[115.5290050078749,-8.799726007449209]]],[[[115.5274999717464,-8.800556999905567],[115.5267559976912,-8.80009103597244],[115.5273999896178,-8.799360011255501],[115.5280610147041,-8.79976200461277],[115.5274999717464,-8.800556999905567]]],[[[115.5284280208366,-8.799074011556378],[115.5283020312138,-8.799166004107732],[115.5282320028048,-8.799056973000834],[115.5283719939724,-8.798987998597223],[115.5284280208366,-8.799074011556378]]],[[[115.5281220022287,-8.799161955359907],[115.5279820353427,-8.799168006897933],[115.5278810261884,-8.799102973323496],[115.52807398023,-8.798966040750127],[115.5281220022287,-8.799161955359907]]],[[[115.6297661965528,-8.780478699032717],[115.6294000267899,-8.780477037984884],[115.6289960234478,-8.78010796790834],[115.6293269838532,-8.779894992260022],[115.6297661965528,-8.780478699032717]]],[[[115.619831026181,-8.779309965282582],[115.6194779721308,-8.779233002201252],[115.6190280062376,-8.778546964270966],[115.6191979861982,-8.778490989567427],[115.619831026181,-8.779309965282582]]],[[[115.6294012597604,-8.778974025330992],[115.6298219653115,-8.777082998381651],[115.6293150372592,-8.776023014250693],[115.6304820038415,-8.776903040442878],[115.6294012597604,-8.778974025330992]]],[[[115.6230699732008,-8.77419102599502],[115.6253139786573,-8.774468983956378],[115.6291550029012,-8.775084983585106],[115.6257439760037,-8.776754994947016],[115.6230699732008,-8.77419102599502]]],[[[115.4922670349957,-8.773384976235636],[115.4920659762638,-8.773507031324428],[115.4919699646422,-8.773247009441913],[115.4922400301533,-8.773204965236907],[115.4922670349957,-8.773384976235636]]],[[[115.4844079936341,-8.772960979165827],[115.4838130228528,-8.772752016292511],[115.4836489667265,-8.772473005225017],[115.4841240264028,-8.772244023442948],[115.4844079936341,-8.772960979165827]]],[[[115.487280994822,-8.770645967737138],[115.4864849886913,-8.770065011091326],[115.4868080107811,-8.769770957963345],[115.4872179856216,-8.769992008624232],[115.487280994822,-8.770645967737138]]],[[[115.4784644569692,-8.759011588613834],[115.4778519799849,-8.758302965109692],[115.4782440286391,-8.757878021953118],[115.4787399642781,-8.75827995955241],[115.4784644569692,-8.759011588613834]]],[[[115.4731181241023,-8.754433715643444],[115.472751981319,-8.754587005086183],[115.4723280337118,-8.754215003219805],[115.4732590208872,-8.753677972160627],[115.4731181241023,-8.754433715643444]]],[[[115.4517360158045,-8.75043701335743],[115.451531028834,-8.750332030998358],[115.4516480342295,-8.750200974595295],[115.4517999989709,-8.750333040937068],[115.4517360158045,-8.75043701335743]]],[[[115.4547970040785,-8.737825042391805],[115.4546040266546,-8.737843963228258],[115.4545300331346,-8.737814008609561],[115.4547160228262,-8.737672022745606],[115.4547970040785,-8.737825042391805]]],[[[115.4566713908721,-8.715011875297733],[115.4560850212068,-8.715070973346677],[115.4559879699689,-8.714378999890897],[115.4564869713967,-8.714106024173667],[115.4566713908721,-8.715011875297733]]],[[[115.4656700135604,-8.6881519586459],[115.4443910053406,-8.7120570097232],[115.4370989991196,-8.708465002357872],[115.441377987804,-8.700668959404894],[115.4656700135604,-8.6881519586459]]],[[[115.5632359730617,-8.672164956147714],[115.5792079811634,-8.685876957155774],[115.584854031988,-8.70568697767185],[115.6210919863062,-8.748695025654811],[115.6285830331804,-8.76995700341288],[115.616044036803,-8.778368956062437],[115.6059949753879,-8.791219965029278],[115.6073969932767,-8.807936044312985],[115.5989160302506,-8.808340037762523],[115.5882380252647,-8.819457964113724],[115.5470729939236,-8.800135019115789],[115.5287410370693,-8.79941597156975],[115.5216149953359,-8.784642970196881],[115.4850850257534,-8.768953043448207],[115.4753730122547,-8.751908994004847],[115.4512519701024,-8.748330022312683],[115.4553929659127,-8.736435006170566],[115.4466939631559,-8.733227980586804],[115.4479069813222,-8.721813011760986],[115.4903710114131,-8.67370299559676],[115.5632359730617,-8.672164956147714]]],[[[115.4668587302462,-8.665998325562256],[115.4720460207073,-8.675347021048179],[115.4508490072759,-8.693816993259578],[115.4290890083511,-8.691149978188921],[115.4272710063519,-8.682973998651082],[115.4454660270356,-8.679258955936024],[115.4506270168235,-8.663281997965804],[115.4668587302462,-8.665998325562256]]],[[[115.3972063717767,-8.461528796117062],[115.3906474191432,-8.483038807794667],[115.4144041828068,-8.474416176365445],[115.4096655002627,-8.486998017344565],[115.4151572364174,-8.508542082750896],[115.4052630058831,-8.514172647249811],[115.409776015251,-8.530127386569557],[115.4628353720549,-8.503699666106694],[115.4763404912208,-8.519976558771152],[115.4791841502285,-8.550722181583374],[115.4334311123561,-8.575025534300966],[115.3710549734084,-8.57487698968125],[115.3533983930215,-8.509842907124447],[115.3753665247453,-8.461148169752146],[115.3857120099014,-8.466963408234633],[115.3972063717767,-8.461528796117062]]]]}},{"type":"Feature","properties":{"kode":"51.06","nama":"Kabupaten Bangli","lat":-8.293123651618542,"lng":115.34729260142302},"geometry":{"type":"MultiPolygon","coordinates":[[[[115.3249357280015,-8.147861835555208],[115.3290248239365,-8.161657519378966],[115.3380038081293,-8.148108525887725],[115.348089336154,-8.15763388599498],[115.3548504590815,-8.151222897918302],[115.3585169204196,-8.164479475047663],[115.3761688486136,-8.163536341628834],[115.3974026659003,-8.176782604433601],[115.4110396103898,-8.171608044775418],[115.4184256263417,-8.17568996861711],[115.4152252854186,-8.185157094924005],[115.4343761352505,-8.180646922917116],[115.4484525550414,-8.189637734993465],[115.4537440391561,-8.198485008975958],[115.4381037495884,-8.217445929186233],[115.44800553173,-8.245479820837058],[115.4589700490287,-8.24322297665903],[115.4299059138269,-8.26744660177921],[115.4193187664479,-8.32194222355474],[115.409002153127,-8.322544023787586],[115.4105225253943,-8.3381994246637],[115.3986101037733,-8.344228887952791],[115.3965723812105,-8.363901779843257],[115.4162425247728,-8.403448524329864],[115.4115534623224,-8.44263032842683],[115.4029672399462,-8.462126654621365],[115.3940591645988,-8.458840164042307],[115.3857120099014,-8.466963408234633],[115.3752256549401,-8.461305665324197],[115.3581512938472,-8.492706660983611],[115.3576262138787,-8.520943172589295],[115.3468153691339,-8.525350698675798],[115.3289515588674,-8.513108974999177],[115.3174638933441,-8.433666903404795],[115.3310699407252,-8.413642241696078],[115.3368051800151,-8.384849504800744],[115.3364454152238,-8.369482006589273],[115.3247416174317,-8.366895216441055],[115.328175755107,-8.33051578437594],[115.3156339708312,-8.33686045014959],[115.3066514064374,-8.328719578345805],[115.2949350064455,-8.338205709126072],[115.2907328063739,-8.317561124046584],[115.2832314110009,-8.31493447594525],[115.2624778973371,-8.332843308971487],[115.264282298889,-8.322056890712908],[115.2510393743677,-8.314460981988674],[115.2430661029184,-8.296746512241686],[115.2500641711246,-8.256676197748263],[115.2323201613465,-8.240274023227538],[115.2425350901223,-8.215318093655082],[115.2454816990213,-8.175878876608849],[115.25491690659,-8.17834784117986],[115.2795560050057,-8.160660277349834],[115.2847857866348,-8.170357530275734],[115.3029488840838,-8.172695025654857],[115.3199032603273,-8.154146247651166],[115.3158923469544,-8.144758491910835],[115.3249357280015,-8.147861835555208]]]]}},{"type":"Feature","properties":{"kode":"51.07","nama":"Kabupaten Karangasem","lat":-8.374266195326205,"lng":115.52989196239412},"geometry":{"type":"MultiPolygon","coordinates":[[[[115.5846429925802,-8.5335279651434],[115.5842100292695,-8.533225958411244],[115.5847350345943,-8.531009981225584],[115.5859940000231,-8.532546990950856],[115.5846429925802,-8.5335279651434]]],[[[115.5752389672047,-8.527620003860008],[115.5749580091049,-8.527597998348906],[115.5750490016102,-8.52731897109365],[115.5752790059214,-8.52732596422177],[115.5752389672047,-8.527620003860008]]],[[[115.5758050193862,-8.526344980136695],[115.5756630182337,-8.526380983595487],[115.5755889842443,-8.52614601322788],[115.5758220345594,-8.52611902277463],[115.5758050193862,-8.526344980136695]]],[[[115.5767800130871,-8.525744992937039],[115.5765609832029,-8.525647001907526],[115.576527987077,-8.52545503532152],[115.5769200078521,-8.525421032854368],[115.5767800130871,-8.525744992937039]]],[[[115.5772617358405,-8.525423722726604],[115.5772065327554,-8.52541896441366],[115.5772046288906,-8.525319026351923],[115.5772722057477,-8.5253504351744],[115.5772617358405,-8.525423722726604]]],[[[115.6146389693131,-8.508075027040789],[115.6155109987336,-8.508650967268299],[115.6142610193307,-8.509865956748435],[115.6138200349667,-8.509106031418217],[115.6146389693131,-8.508075027040789]]],[[[115.7118285238673,-8.400720769048213],[115.7109520347087,-8.400347021597714],[115.7113690170665,-8.399702022430304],[115.7124110210518,-8.400336967177218],[115.7118285238673,-8.400720769048213]]],[[[115.457604474367,-8.167684743356212],[115.560508966016,-8.233446988987296],[115.6184519769772,-8.3003190268016],[115.6289250012879,-8.32367404442154],[115.6978020065573,-8.358348995909441],[115.71152798303,-8.390076958984398],[115.6880830296082,-8.432235001044468],[115.6342265290312,-8.461961834970637],[115.6162310121515,-8.485466023138404],[115.6121150291854,-8.50578400772573],[115.5810210269989,-8.517241999218843],[115.537850027257,-8.500581027692249],[115.520959003755,-8.503936003443773],[115.5081590214218,-8.513016993239635],[115.5148060086904,-8.529300978857073],[115.5091790001108,-8.540357025556293],[115.4791841502285,-8.550722181583374],[115.4763404912208,-8.519976558771152],[115.4652974586109,-8.50512975093725],[115.409776015251,-8.530127386569557],[115.4052630058831,-8.514172647249811],[115.4151572364174,-8.508542082750896],[115.4143248832868,-8.474162768097209],[115.3899954331428,-8.481873165913871],[115.4131184571511,-8.438685769732484],[115.4160219273701,-8.408830113319059],[115.3957615992185,-8.357220228930355],[115.3986101037733,-8.344228887952791],[115.4105225253943,-8.3381994246637],[115.409002153127,-8.322544023787586],[115.4193187664479,-8.32194222355474],[115.4299059138269,-8.26744660177921],[115.4582751662659,-8.247734424803781],[115.4582196250358,-8.241656826201531],[115.44800553173,-8.245479820837058],[115.4381037495884,-8.217445929186233],[115.4537440391561,-8.198485008975958],[115.4342821408082,-8.180561246304379],[115.457604474367,-8.167684743356212]]]]}},{"type":"Feature","properties":{"kode":"51.08","nama":"Kabupaten Buleleng","lat":-8.200953233765482,"lng":114.96090883720582},"geometry":{"type":"MultiPolygon","coordinates":[[[[114.6089743072186,-8.121334450424538],[114.6092106670387,-8.12288062424134],[114.6097613237262,-8.123226694156553],[114.609134524139,-8.123128087990832],[114.6089743072186,-8.121334450424538]]],[[[114.5148702690477,-8.091936818729177],[114.5283732343373,-8.095246173671882],[114.5177435112542,-8.100449348858323],[114.5012440040076,-8.095620304233613],[114.5148702690477,-8.091936818729177]]],[[[115.1837583122963,-8.061683489301501],[115.2937701136998,-8.10462101155041],[115.3390057967802,-8.111743847200685],[115.3575634762735,-8.128369433102804],[115.457186396635,-8.16659926704249],[115.4174901371601,-8.185711563837543],[115.4117944851275,-8.1718585041666],[115.3974026659003,-8.176782604433601],[115.3761688486136,-8.163536341628834],[115.3585169204196,-8.164479475047663],[115.3548504590815,-8.151222897918302],[115.348089336154,-8.15763388599498],[115.3380038081293,-8.148108525887725],[115.3287172279178,-8.161528321874538],[115.3199987260604,-8.14176563087912],[115.3195880992115,-8.15473075482041],[115.3029488840838,-8.172695025654857],[115.2847857866348,-8.170357530275734],[115.2795560050057,-8.160660277349834],[115.25491690659,-8.17834784117986],[115.2454816990213,-8.175878876608849],[115.2425350901223,-8.215318093655082],[115.2323411973884,-8.239880044628283],[115.1745279972694,-8.245893261664676],[115.1385773880361,-8.271052699722219],[115.125802402359,-8.308379356222222],[115.1059226888811,-8.298272884785778],[115.1023954812665,-8.308506247865015],[115.082041237813,-8.314033705091433],[115.0329052058106,-8.301578198175257],[115.0267079488128,-8.31086702129598],[115.0128978146824,-8.3125118561372],[114.9812632785775,-8.289258648068092],[114.9834408861879,-8.29656171595035],[114.9617582847171,-8.3144531381018],[114.9500501090253,-8.360547608984952],[114.934376539146,-8.358906127715553],[114.9274620062666,-8.382813249931491],[114.9016990187947,-8.371314232265963],[114.8963681371798,-8.35738483274378],[114.8702619702138,-8.337357803120042],[114.8583490054023,-8.342070202078116],[114.8239492959233,-8.333088474053767],[114.8116108105905,-8.251111359301682],[114.7719586565667,-8.25795762734261],[114.7517421613717,-8.223447231104757],[114.7312482154328,-8.222375687088217],[114.701540201619,-8.2010781033717],[114.6842651028522,-8.23165586772408],[114.6698567927568,-8.22201159565859],[114.6549190886451,-8.227472296209442],[114.6321631759898,-8.214229731416971],[114.6108211495765,-8.183113765987464],[114.5973222923899,-8.176579881955952],[114.5530871743337,-8.197903100847341],[114.5477443362322,-8.19042244473998],[114.5321777272204,-8.192902274020657],[114.5044412251824,-8.209731236207478],[114.4911828709928,-8.191841857315811],[114.4599307428095,-8.195019080266324],[114.4558529873255,-8.177470591194762],[114.470559153782,-8.166048389121876],[114.4449346592072,-8.157619247730068],[114.4441012700577,-8.135790042376527],[114.432246263854,-8.119094338133142],[114.4388121961261,-8.094735239139954],[114.4890507304069,-8.093754543737113],[114.5226040051708,-8.133781330144245],[114.5164769519498,-8.14502642423001],[114.5221955618757,-8.154581715573688],[114.555079125901,-8.13110968266571],[114.5625168888434,-8.14343481756275],[114.5684367589494,-8.141166035783858],[114.5617693300906,-8.132009586573101],[114.5799006445991,-8.120884357726847],[114.594772124434,-8.123709064421707],[114.5865128955537,-8.12948564104941],[114.5950019219013,-8.139634394111965],[114.6180214312441,-8.122912104110274],[114.6387343899802,-8.137893597111727],[114.6452837405522,-8.130916690852512],[114.6574425836084,-8.14417977727489],[114.6937584452961,-8.144340573358715],[114.8232610483587,-8.192162946762576],[114.8320939880472,-8.187233989257141],[114.8357730866587,-8.193884780658038],[114.8678596508023,-8.196251049846008],[114.9064642852986,-8.182520723352642],[115.0012852621052,-8.175615478671343],[115.0480472673676,-8.144134848944056],[115.0771183318455,-8.10983134893755],[115.1163532642917,-8.08125164344851],[115.1837583122963,-8.061683489301501]]]]}},{"type":"Feature","properties":{"kode":"51.71","nama":"Kota Denpasar","lat":-8.668356081702875,"lng":115.22081629211112},"geometry":{"type":"MultiPolygon","coordinates":[[[[115.2139568577229,-8.735726739697185],[115.2117670283258,-8.7467070382991],[115.207869874695,-8.738045968046908],[115.2005399341707,-8.741422978987217],[115.2172309970129,-8.72902617711631],[115.2139568577229,-8.735726739697185]]],[[[115.2338960019989,-8.72337403068693],[115.2325929679912,-8.724296026440452],[115.231597035375,-8.72376096309793],[115.2337140277803,-8.72312803912763],[115.2338960019989,-8.72337403068693]]],[[[115.2395137250784,-8.721402429878182],[115.2448080258698,-8.729052396850605],[115.2364204259619,-8.7369997966033],[115.2475563027812,-8.728305246389905],[115.25065436111,-8.731082076776335],[115.2369986351789,-8.743866920821723],[115.2294039774117,-8.734930012310187],[115.234730096217,-8.746779858203872],[115.2298522013181,-8.752062260964504],[115.2183713022938,-8.748183740387265],[115.2219101552296,-8.731689910560885],[115.2395137250784,-8.721402429878182]]],[[[115.2350164448532,-8.59153955840382],[115.2555746680367,-8.63217007678763],[115.2748809926637,-8.650443024625858],[115.2614549895562,-8.665629045044358],[115.264594022796,-8.704308967185064],[115.1887638128997,-8.739038056061403],[115.187561988595,-8.70696608341797],[115.1725084374145,-8.682325727750122],[115.1797517993062,-8.674896548836646],[115.1734298683938,-8.661854480699631],[115.1805350359632,-8.660080290073306],[115.180192976125,-8.61619746074414],[115.1973996967386,-8.611896874840834],[115.196754355829,-8.60502057124231],[115.2117242673611,-8.596174214568268],[115.2350164448532,-8.59153955840382]]]]}}]}