{"type":"FeatureCollection","features":[{"type":"Feature","properties":{"kode":"62.01","nama":"Kabupaten Kotawaringin Barat","lat":-2.5721683851678607,"lng":111.77416564275947},"geometry":{"type":"MultiPolygon","coordinates":[[[[111.4143048921572,-2.910630487007351],[111.4129991350022,-2.90959109465321],[111.415781406287,-2.907607522968794],[111.416178556795,-2.909318197177038],[111.4143048921572,-2.910630487007351]]],[[[111.9326390936193,-1.666269112829236],[111.9559632078359,-1.761879921021483],[111.9527424190274,-1.794459124788686],[111.9338809179701,-1.84170658678944],[111.9371328601934,-1.868852923123912],[111.9684500165551,-1.904127967032013],[112.0576224001537,-1.95001149743266],[112.0744444438561,-1.971999999700172],[112.0640913297511,-1.981882635275303],[112.05809107914,-2.012259471297531],[112.0564012341297,-2.067355174701538],[112.0456978026116,-2.096162765698997],[112.0275367457243,-2.099805838368665],[112.0180335853818,-2.125369676369429],[112.0248298807944,-2.232007492152002],[112.042264557963,-2.250937731990701],[112.0373503367487,-2.267875051692217],[112.0638569070706,-2.314039472743426],[112.0729531322813,-2.347353677130462],[112.0399557176823,-2.345502376833133],[112.0400322571829,-2.392987395651749],[112.0621680648044,-2.39348627836902],[112.0613507303519,-2.427763266361607],[112.0502267497648,-2.427513423006003],[112.0499792617336,-2.451680796431591],[112.02417040524,-2.448400232384776],[112.0109519287886,-2.461996848575668],[112.0153163728523,-2.482454824330629],[112.0235704351276,-2.482666783745005],[112.0228609392811,-2.520205576825843],[112.0340686692338,-2.520285916861534],[112.0328361079002,-2.556935564624554],[112.0416225778198,-2.557607291643096],[112.0367744109105,-2.591837506795416],[112.0618069213524,-2.649239642095738],[112.0419999999001,-2.688311111068822],[112.1294827102589,-2.765670404065881],[112.1398075946448,-2.803368241351192],[112.0989147053494,-2.98799949358173],[112.0969459347072,-3.053845189104168],[112.1319999999001,-3.139819444112016],[112.1314492451866,-3.158972461309942],[112.1185105028574,-3.181615258137585],[111.7946984593665,-3.525744225915231],[111.7686757243053,-3.503744797784128],[111.7750328663738,-3.506905598214763],[111.7962431789796,-3.472404979406265],[111.8166127513774,-3.404979256887122],[111.8188078615936,-3.32194462934117],[111.7978272268451,-3.197158897565069],[111.8253519259506,-3.052714403147119],[111.8140294020353,-3.001186973100259],[111.7696161435702,-2.934982385128906],[111.7518512047693,-2.889822883619145],[111.7269013303322,-2.866899610728415],[111.73181979185,-2.855701497226251],[111.71232942906,-2.849300158875126],[111.6692008188628,-2.894526560052649],[111.6883588057144,-2.920050373725738],[111.6980700745744,-2.919590651986928],[111.7034367339182,-2.908714680138294],[111.7068439063213,-2.904946320216498],[111.6903251769654,-2.941978694261296],[111.6362885134042,-2.957348011801189],[111.5992571537947,-2.988047386977291],[111.5596881061212,-3.00666857839216],[111.5484406279327,-3.02319828217488],[111.5262935131351,-2.979169090880854],[111.4570287498769,-2.924939052395262],[111.4255766916111,-2.91806959713419],[111.4120985772875,-2.903452519318231],[111.3879035236288,-2.920344956554446],[111.3614742563319,-2.908628442348673],[111.3799454642119,-2.876816059913237],[111.3826562187096,-2.817476079857142],[111.3824276524143,-2.760037566980047],[111.3622671256274,-2.759832738290216],[111.3998230651824,-2.653390393751634],[111.3437490783574,-2.625743707905739],[111.3083164813206,-2.584221121407529],[111.2799048321424,-2.583313720751581],[111.2255169923155,-2.561995908584239],[111.2175550586191,-2.505137588828601],[111.2551513678414,-2.500412831386958],[111.2872252236652,-2.518029490868281],[111.2751651063846,-2.429929857277083],[111.2955466541548,-2.408343455386122],[111.2841203907435,-2.400208530799011],[111.2836396041844,-2.372771956260758],[111.2649545779915,-2.372564506946409],[111.2659994400222,-2.347012113718064],[111.2748147763809,-2.336029297913703],[111.3163628046997,-2.33249241359397],[111.3168692669032,-2.305167499780206],[111.3468839648232,-2.306171332940623],[111.3524887961211,-2.299745695807223],[111.3483624763473,-2.285913511199469],[111.368786823753,-2.275264288116377],[111.3737739188313,-2.284113662015821],[111.4189499246993,-2.289862608772333],[111.419011621789,-2.306212529984267],[111.4604254280911,-2.314402278142571],[111.5400691061044,-2.304418610030792],[111.5848601580698,-2.307143938042236],[111.5852838017062,-2.295502275309749],[111.5973032570398,-2.295362603401399],[111.5966495182608,-2.246982921024967],[111.6051598756278,-2.243500341367602],[111.6089892131817,-2.224639906906114],[111.5942637850457,-2.223742822373323],[111.6026841130814,-2.202049490191785],[111.6122351443366,-2.191529730812361],[111.6241205521218,-2.196469491873534],[111.6602991700706,-2.180578036047434],[111.6493822700757,-2.150252659232768],[111.66149882611,-2.136507767319598],[111.675061753697,-2.135651161272081],[111.6805560870938,-2.121490025344366],[111.7230971486146,-2.113626382151759],[111.7451620869608,-2.121831119310682],[111.7392446441251,-2.079809327238616],[111.7703583000955,-2.072216378183247],[111.7765071286012,-2.033162853382889],[111.8037204257571,-2.00301356472419],[111.8224453323862,-1.999432644201152],[111.8243848381898,-1.956731595087005],[111.8105088152297,-1.940183669240961],[111.8099036848073,-1.927095432608075],[111.8343282697339,-1.915231516820961],[111.8349250247702,-1.903570611294628],[111.8268168397255,-1.900715921202758],[111.8296554229595,-1.880098119732379],[111.8166339331096,-1.880912401885817],[111.8354060226699,-1.844221263900161],[111.823421623809,-1.842703771262036],[111.827213259984,-1.822944941955454],[111.8113717830813,-1.813037437427736],[111.820628212622,-1.77855782138632],[111.8320872653151,-1.776119213430929],[111.8318493091983,-1.759076148745267],[111.8436841292192,-1.752573309310693],[111.8451026649561,-1.720904068367959],[111.8388122193085,-1.696680980143109],[111.8160171879429,-1.682090041122455],[111.8052993879565,-1.683612928793623],[111.7883485739276,-1.654387936354132],[111.7923611105769,-1.625661110771562],[111.8066182284486,-1.6223405943429],[111.8176660679347,-1.60143927620158],[111.8049812473867,-1.561657108988326],[111.7978450999715,-1.551268988772827],[111.7754653116749,-1.544408536624678],[111.7499999998002,-1.483161110696665],[111.8719999997003,-1.544430555625611],[111.9170455678987,-1.618013849859226],[111.9326390936193,-1.666269112829236]]]]}},{"type":"Feature","properties":{"kode":"62.02","nama":"Kabupaten Kotawaringin Timur","lat":-2.0858136187846665,"lng":112.71518831453749},"geometry":{"type":"MultiPolygon","coordinates":[[[[113.1530086995918,-3.062884382907852],[113.1526782976654,-3.062852391324691],[113.1526161787937,-3.062725739801023],[113.1531730677829,-3.062774848180608],[113.1530086995918,-3.062884382907852]]],[[[113.1499274082234,-3.061499212019017],[113.1506615823662,-3.062153144152171],[113.152218621792,-3.062594918120867],[113.1503536302159,-3.06284266695547],[113.1485546848509,-3.061011613994749],[113.1499274082234,-3.061499212019017]]],[[[113.0001266794028,-3.043772762403021],[112.9997296350146,-3.043847160617899],[112.9999016123697,-3.043401559134631],[113.0001567878056,-3.043398047281956],[113.0001266794028,-3.043772762403021]]],[[[112.9985475238492,-3.04393086231938],[112.9989778863204,-3.044374739802416],[112.9982888428559,-3.044346828443325],[112.9983223596891,-3.043319914182588],[112.9985475238492,-3.04393086231938]]],[[[112.9997477986221,-3.043074344405364],[112.9998802300886,-3.043127541103077],[112.999833772011,-3.043254266371223],[112.9996514470567,-3.043172222120274],[112.9997477986221,-3.043074344405364]]],[[[113.0002487317936,-3.043150167146427],[113.0001101138908,-3.043141137053754],[113.000131256952,-3.042915062779874],[113.0003346746056,-3.042988996045251],[113.0002487317936,-3.043150167146427]]],[[[112.9999256197716,-3.042826547906843],[112.9995796505805,-3.04291374887036],[112.9994952725888,-3.042771581343365],[112.9998766525855,-3.042612281731374],[112.9999256197716,-3.042826547906843]]],[[[112.5407936716907,-1.193206350592549],[112.6319566236993,-1.207704411229551],[112.6749275188899,-1.255785222809694],[112.6695846753926,-1.272356575095815],[112.6911889782888,-1.306486918736274],[112.7363725771328,-1.321855416993836],[112.7495170052057,-1.333460408970646],[112.7459644537966,-1.378104097126334],[112.7634736829641,-1.389661500577757],[112.7913595507028,-1.392978381047419],[112.7936630049438,-1.407528429693253],[112.806659904631,-1.410206058562727],[112.815630551209,-1.423868611247395],[112.8392606813354,-1.423895354387097],[112.8382655742969,-1.504915236149243],[112.8515125673512,-1.514019870020958],[112.8519133798987,-1.524549290817026],[112.8622888889212,-1.524714652758943],[112.8638011331158,-1.591714886232934],[112.8989219271053,-1.594192279250242],[112.8965964079979,-1.64006836326436],[112.9299084630052,-1.640973824981964],[112.9286880982771,-1.704806418681207],[112.9814650877437,-1.705789063814203],[112.9811216726271,-1.715828678750489],[113.0001096831154,-1.716425585772166],[112.9992123476718,-1.748938301761152],[113.0175487013116,-1.749586570863551],[113.0171687692234,-1.765627332135614],[113.0337226207024,-1.765603392182749],[113.0339301167816,-1.778858433270061],[113.0438532227481,-1.778949445560476],[113.0434174580494,-1.797025019189194],[113.0617569080549,-1.813293298147103],[113.1341652848001,-1.815203021102521],[113.1333815759991,-1.845441436173337],[113.1425061127669,-1.845620834733699],[113.142325849958,-1.899350190958485],[113.1556533880935,-1.899560812181702],[113.1618010681648,-1.92244425679691],[113.20362351921,-1.952355699056232],[113.2034167246022,-1.975704240658141],[113.2173736343858,-1.975744782995273],[113.2201249995692,-1.990980555707969],[113.2696555596563,-2.024438889942795],[113.2297533563323,-2.164573774659909],[113.17220000003,-2.323049999757634],[113.2130805596201,-2.450461109792348],[113.1356829321216,-2.608332116334092],[113.0947257763736,-2.675277271728651],[113.0978805603396,-2.800019440344828],[113.2221895713917,-3.084237373855705],[113.2345447913091,-3.152110124182864],[113.1917816260213,-3.109902000676781],[113.1906740209894,-3.093923260250245],[113.1742608801356,-3.073599055052314],[113.1327911656798,-3.057214090857554],[113.0876103772172,-3.03367484621713],[113.0577904068019,-3.006335392164575],[113.0469945897285,-2.974001264446782],[113.0328652502312,-2.974921808694456],[113.0140317090961,-3.02943682434991],[112.9838282686598,-3.048411707434331],[112.9453869213694,-3.102304191685048],[112.9421581537759,-3.117680041900408],[112.9632920401956,-3.144855634979551],[112.9965104101273,-3.156540420204193],[113.0151695969994,-3.154262430266888],[113.0418734812762,-3.130088564635505],[112.9669717629366,-3.201409768945565],[112.9189808116153,-3.241138386927014],[112.8126369572299,-3.29959074421742],[112.8140681167503,-3.050157326599281],[112.8449999999501,-2.997980556357563],[112.843788962091,-2.845750450223042],[112.8219532069749,-2.805718247199332],[112.7447590420961,-2.754803636778361],[112.6363493280591,-2.728686606901379],[112.6090546377614,-2.704424667064734],[112.6042022431391,-2.66681865595613],[112.5118383229804,-2.628982231344848],[112.4953879223149,-2.545328359416191],[112.5209205583371,-2.547324240121521],[112.5248735211961,-2.545395436250322],[112.5050567323824,-2.544135998677335],[112.5052124383035,-2.537485906049655],[112.4927840630342,-2.542988360324541],[112.4954066488977,-2.535389151987724],[112.48900000005,-2.534430555625613],[112.4867512839446,-2.518209412834052],[112.4788979029159,-2.518205117671959],[112.4742811207771,-2.496549324091982],[112.4504833714105,-2.490993869171712],[112.4520789126118,-2.432898929442009],[112.4437441307871,-2.432511584242183],[112.4432732853339,-2.429437048580921],[112.4483649742642,-2.428208791402556],[112.4480309498685,-2.426853444730595],[112.4423725162787,-2.429196021279337],[112.4446586522751,-2.434869615640237],[112.4348305812664,-2.434964898810923],[112.4361944436188,-2.362027778259248],[112.4307500001125,-2.331277778446664],[112.4086666670331,-2.331027777709751],[112.4082218389667,-2.267035110981544],[112.3734507751333,-2.267135048143912],[112.3736854037584,-2.196714926752444],[112.3361511954214,-2.182202985978934],[112.313971402858,-2.156421457184512],[112.3058380071184,-2.062229539961249],[112.3107979120941,-2.052250518646462],[112.3311519010394,-2.052254643836696],[112.3408389250763,-2.012668800424747],[112.3121111111389,-1.995944443780997],[112.3126666673329,-1.984055555619404],[112.3384722224153,-1.956916666570832],[112.3474444437062,-1.938277778296785],[112.3446388889736,-1.926972221890447],[112.3181758035705,-1.901700300228606],[112.2516122736876,-1.860112898691282],[112.250979773298,-1.831361755440655],[112.2367563287416,-1.827374969978804],[112.227897275439,-1.809886846100975],[112.2187006732975,-1.809881850367015],[112.2185282867511,-1.796954352261507],[112.2009535878378,-1.78954471022015],[112.1921250233512,-1.75800353813276],[112.0911660188968,-1.644323213245594],[112.0669999998502,-1.594711110729088],[112.0691314083878,-1.567557210196993],[112.107762395718,-1.500349842171447],[112.1267180512971,-1.447856570824049],[112.132765930903,-1.412237701708532],[112.1269999995505,-1.312830555685521],[112.1514733088462,-1.302125923572442],[112.1739782144231,-1.312946061011891],[112.2019697309184,-1.302732940772591],[112.224062263163,-1.316907242774937],[112.2579227013716,-1.320727484585651],[112.2790850801124,-1.303722004366906],[112.3167343603025,-1.303807451652508],[112.3285899303811,-1.290621485692947],[112.3234253019362,-1.275253569296789],[112.3369939276277,-1.257866621847084],[112.3338690326298,-1.245978017871144],[112.3502515857422,-1.231458937380017],[112.3755754513461,-1.231039318209939],[112.3922285645966,-1.239622213993899],[112.4267985211348,-1.206293226551105],[112.4617723434189,-1.197950392196814],[112.5109831162778,-1.208006158057698],[112.5154158953274,-1.199140601757323],[112.5407936716907,-1.193206350592549]]]]}},{"type":"Feature","properties":{"kode":"62.03","nama":"Kabupaten Kapuas","lat":-1.7633755450583595,"lng":114.3027283555589},"geometry":{"type":"MultiPolygon","coordinates":[[[[114.2592673088393,-3.377639781250855],[114.260009700987,-3.379481483983218],[114.2562266857131,-3.381920325762414],[114.2567403209091,-3.378639154673182],[114.2592673088393,-3.377639781250855]]],[[[113.9891146785996,-0.384031589186476],[114.0095185574355,-0.422251681669719],[114.0038375940299,-0.44646269829485],[114.0147831140495,-0.454374404854788],[114.0148723438837,-0.479210030318614],[114.0470961949335,-0.509726617389441],[114.0518551167202,-0.533140512724442],[114.0783147226464,-0.552081022820941],[114.0630000002499,-0.577269444229403],[114.0957499996629,-0.629222222127781],[114.1210000003498,-0.729527778284281],[114.1529722219904,-0.795722221902986],[114.1734444439061,-0.811638889323232],[114.2189999996503,-0.8087499998126],[114.2178611108017,-0.83794444408081],[114.2342499996378,-0.859972222440122],[114.2758333326423,-0.864750000312211],[114.3637222218032,-0.855722221603175],[114.3932221999446,-0.835888887961714],[114.4683333326172,-0.834416667195439],[114.5280833333792,-0.849694443643648],[114.6360000003998,-0.86269722219903],[114.5697375581418,-0.875313386703416],[114.5510229721325,-0.917167707023994],[114.5215599759122,-0.903444377256138],[114.5179999997002,-0.918333332717117],[114.4995769082478,-0.92763714663702],[114.504458571306,-0.950375417291641],[114.4725973790659,-0.965197458695746],[114.4829950716653,-0.978633803107501],[114.4544626120599,-1.024402705920105],[114.4831923442514,-1.043315205732112],[114.478154492336,-1.064837573195446],[114.4889338320308,-1.081736297591965],[114.5235894247122,-1.094541668663032],[114.5114805057208,-1.105893402558403],[114.5100587639009,-1.125951390444227],[114.536979750815,-1.129732934427333],[114.547063866904,-1.145399327716737],[114.5624601506155,-1.14215800468809],[114.5807709913882,-1.159037968327572],[114.6117102508275,-1.1580044719288],[114.6267105423577,-1.170998561234596],[114.6525281105839,-1.171447602624712],[114.6771912173009,-1.155945841027675],[114.697378765118,-1.164277210824574],[114.6858434076472,-1.196554510382322],[114.6835675140296,-1.242831024731997],[114.6618102283594,-1.265375171327035],[114.6582430162023,-1.291782432213465],[114.6680805552735,-1.319308330115268],[114.6618888893608,-1.408166666858149],[114.6137711714025,-1.551513104346183],[114.6241648359384,-1.604052937193304],[114.5968053629772,-1.669898602138778],[114.6204681933525,-1.907636554183581],[114.6168370151162,-2.016664110560187],[114.6506143469746,-2.088159158318417],[114.6940833325798,-2.155083333429067],[114.6938333327422,-2.198333333216665],[114.681663437018,-2.23219375703623],[114.6805387583571,-2.324531380119035],[114.6443363281591,-2.40476558716203],[114.7368518982966,-2.439356826156549],[114.726816934654,-2.462650876037101],[114.7588425769235,-2.457760959001012],[114.7697611361676,-2.493164320876653],[114.7173444780652,-2.567492008249486],[114.7794788073012,-2.606204617149357],[114.7867577445743,-2.584855715418913],[114.7973013890479,-2.591546111164059],[114.7918689730747,-2.664279002873629],[114.761790173278,-2.720599076586064],[114.7180343893755,-2.740820305812422],[114.6916620086949,-2.735607783972041],[114.676297455763,-2.741128305626786],[114.6705545110818,-2.756222277735867],[114.6793971076904,-2.778811687209595],[114.6643722898493,-2.800558227779939],[114.5976813727972,-2.815599380007308],[114.6152899977353,-2.884460003226577],[114.5988899986745,-2.890839998866815],[114.567239996029,-2.863969998116891],[114.5611034099944,-2.877530546097764],[114.5963245503378,-2.89646048106629],[114.5899852957848,-2.909725334656413],[114.5538142312419,-2.891851692101868],[114.5383900037957,-2.927310002554487],[114.5168699970528,-2.919609997303477],[114.5442256883649,-2.949001358925488],[114.5361048624495,-2.959482859346421],[114.5259121118545,-2.952717006884312],[114.5301500024207,-2.969800000569547],[114.5052199976049,-2.999699999855101],[114.5225829772227,-3.004298432226873],[114.5190599973211,-3.009800001568744],[114.5330300003343,-3.034560002142308],[114.528059995972,-3.044859999589258],[114.5458100042284,-3.06782999855553],[114.5335300018082,-3.081329996082419],[114.5241399977627,-3.072470002088926],[114.5182300013136,-3.077750000961712],[114.5261099995768,-3.086670001319439],[114.4236600019076,-3.179919998309247],[114.4494900041604,-3.20956000179258],[114.4359299975714,-3.242609995255011],[114.3747871439116,-3.287009464415183],[114.3599399970333,-3.316440002304224],[114.3621499973245,-3.329879998862831],[114.3495500026306,-3.348769995838621],[114.3604600030268,-3.359120003685215],[114.3514700003403,-3.368369998576506],[114.3628299990053,-3.387119997190061],[114.3470977600537,-3.420092761371832],[114.3475911685977,-3.436623626179339],[114.3546299985757,-3.441510000785877],[114.3520466995956,-3.463548333588642],[114.3116838185534,-3.449237578351541],[114.2546273826476,-3.403391766416844],[114.2475089743598,-3.38815246566371],[114.2599423057929,-3.380650181760439],[114.2626366260795,-3.373754121855191],[114.2454854709778,-3.363232144747633],[114.1831937558872,-3.393385534314922],[114.1528673313623,-3.384031013920088],[114.1719888003429,-3.334041997440165],[114.1414194437524,-3.266888889110911],[114.146688889081,-3.187469443559879],[114.1664194437025,-3.17458055604776],[114.2259226767902,-3.191853259920022],[114.281143297825,-3.044332129024488],[114.2122833329096,-2.937419443552416],[114.2837194435976,-2.865333332567202],[114.2914227718435,-2.829623947587015],[114.2814955622705,-2.814686825336635],[114.284692198886,-2.803667565405801],[114.3487499999127,-2.744188889205804],[114.348254037294,-2.729388165331484],[114.3380583414194,-2.717436001770038],[114.3252656651784,-2.373292483860981],[114.2624262962367,-2.377906131862487],[114.261899456295,-2.231630844387913],[114.2278039586859,-2.229292035998645],[114.184406094166,-2.188722723674699],[114.1711487454183,-2.143368634954504],[114.1711111105893,-2.090488888951006],[114.0814093500616,-1.974296567832281],[114.072919444177,-1.93813888879866],[114.031968524328,-1.906700180069246],[113.9859029243806,-1.80263088021089],[113.9744166671954,-1.734538888658735],[113.9863346232443,-1.7073844440368],[113.981492399055,-1.667085380685743],[114.0234097105897,-1.612374031336453],[114.0309388887187,-1.587199999979985],[114.0190200657236,-1.572109313993655],[113.9984424270764,-1.563106596692057],[113.9831111112888,-1.532119443857185],[113.9951915433551,-1.522648855160449],[114.0080000458655,-1.473529824841505],[114.0000297826485,-1.393687922759382],[114.0047944016404,-1.290349231231927],[113.9700000003998,-1.111689999893509],[113.9854480670747,-1.066484680623494],[113.9279999998002,-0.999732999977956],[113.8089999997502,-0.958728000296885],[113.7839999998003,-0.930595999805542],[113.7479999998002,-0.842138889298274],[113.7320932788817,-0.826888519689353],[113.7039246256211,-0.817350917111062],[113.6819287057452,-0.787836390636867],[113.6871346373537,-0.771106210882857],[113.6796351017786,-0.757782570409196],[113.6992617900996,-0.702280582083217],[113.6782294497294,-0.675414693932888],[113.6916589772799,-0.657717019025108],[113.6963893815648,-0.634199811372119],[113.7360000003998,-0.600581000312841],[113.7280056047749,-0.591473904097375],[113.7271080552925,-0.567539218560034],[113.7355849219067,-0.550086843632849],[113.7549999997502,-0.545433999579339],[113.7603760210366,-0.47866576781084],[113.7877807523798,-0.461039565623425],[113.8146189800819,-0.462716194196913],[113.8229975660849,-0.449307342959473],[113.8523244229339,-0.444667394284773],[113.88093744111,-0.451508344634346],[113.9000326157127,-0.467569705777196],[113.922102117219,-0.466915354559985],[113.9168117824379,-0.441077381615765],[113.9284711411303,-0.434367302409003],[113.9276621236082,-0.411762422797571],[113.9378967799126,-0.39456070421309],[113.9603231998559,-0.398159639056031],[113.9891146785996,-0.384031589186476]]]]}},{"type":"Feature","properties":{"kode":"62.04","nama":"Kabupaten Barito Selatan","lat":-1.774328008842425,"lng":114.91107759092297},"geometry":{"type":"MultiPolygon","coordinates":[[[[115.4022617200024,-1.252287075887784],[115.413223374759,-1.27670114594112],[115.4009973019839,-1.355315699160167],[115.4227126297841,-1.377767139142152],[115.4136032340021,-1.400586634765302],[115.4475897067996,-1.40429550723187],[115.437710926618,-1.444845414883991],[115.4545457487874,-1.461578910438346],[115.4335763537658,-1.452169987354937],[115.4286130268699,-1.473137905689706],[115.435420781444,-1.496410867367606],[115.390994049336,-1.520490110829867],[115.3593503698238,-1.587940339874796],[115.362063630732,-1.620426973725822],[115.3319768215731,-1.609257617844742],[115.3144866742207,-1.644661618239043],[115.1571303595784,-1.640330756659106],[115.0824372776583,-1.679117642365282],[115.0686282038285,-1.649495196346232],[115.0586110764401,-1.651525538172985],[115.0254499942219,-1.687537666430108],[115.0316105939538,-1.694034189026608],[114.9711174339224,-1.796401870849598],[114.9595999846516,-1.852383262577442],[114.9366585148787,-1.842531548392204],[114.9413226364307,-1.983581720819741],[114.9337212589291,-1.9882801775881],[114.9395555558444,-1.999788889045886],[114.9251666666084,-2.089330555860405],[114.9338696236842,-2.114909259654565],[114.9133982291451,-2.168370854431314],[114.932034891597,-2.192148408622144],[114.9171013513464,-2.226852612358135],[114.945202419656,-2.220536949720378],[114.9142761113535,-2.241438889293226],[114.9259166670206,-2.251319443837188],[114.9796730559669,-2.368762777679992],[115.0013643601771,-2.395722855425378],[114.8825771406226,-2.488648027184651],[114.8331643548512,-2.562463467015322],[114.7973013890479,-2.591546111164059],[114.7867577445743,-2.584855715418913],[114.7794788073012,-2.606204617149357],[114.7173444780652,-2.567492008249486],[114.7697611361676,-2.493164320876653],[114.7588425769235,-2.457760959001012],[114.726816934654,-2.462650876037101],[114.7368518982966,-2.439356826156549],[114.6443363281591,-2.40476558716203],[114.6805387583571,-2.324531380119035],[114.681663437018,-2.23219375703623],[114.6938333327422,-2.198333333216665],[114.6940833325798,-2.155083333429067],[114.6506143469746,-2.088159158318417],[114.6168370151162,-2.016664110560187],[114.6204681933525,-1.907636554183581],[114.5968053629772,-1.669898602138778],[114.6241648359384,-1.604052937193304],[114.6137711714025,-1.551513104346183],[114.6618888893608,-1.408166666858149],[114.6680805552735,-1.319308330115268],[114.7482022256523,-1.341095448096377],[114.7670154367131,-1.337922503220915],[114.7908358840689,-1.347097574693271],[114.8338717462841,-1.341807041162005],[114.8471013023833,-1.353550181595578],[114.8946198542229,-1.353554831090589],[114.9910408193784,-1.318602945969152],[115.0377167981917,-1.320013031676018],[115.0538104917609,-1.327445520094608],[115.0731855740551,-1.320725981818585],[115.0842617349912,-1.305716884126864],[115.1276892789372,-1.313728928946903],[115.1456335272655,-1.29672855777663],[115.1772885858995,-1.291184499964595],[115.1894975050059,-1.296139660117104],[115.1912988533595,-1.313833353726215],[115.2443056852591,-1.320410781132589],[115.2415706445696,-1.367513517035126],[115.3007670721428,-1.334275648002661],[115.3077853948802,-1.296758780393395],[115.3208798332378,-1.286118469591615],[115.3522617875515,-1.271105511110429],[115.3649843571425,-1.255920559086457],[115.4022617200024,-1.252287075887784]]]]}},{"type":"Feature","properties":{"kode":"62.05","nama":"Kabupaten Barito Utara","lat":-0.9283801974030739,"lng":115.13762095229056},"geometry":{"type":"MultiPolygon","coordinates":[[[[115.2757301748078,-0.045893512775377],[115.2947938128842,-0.051263124593495],[115.2873255719177,-0.058711161390937],[115.2912584870895,-0.078069564858454],[115.3089666193141,-0.080457717249852],[115.3165307828694,-0.097065784358355],[115.3086864328327,-0.119216775233946],[115.2871229681505,-0.128077077694913],[115.2877659366488,-0.143831355432658],[115.2709428973968,-0.142688737095467],[115.2570388200855,-0.160684298041838],[115.2411773746363,-0.164572738141347],[115.2560130812388,-0.18232977909596],[115.2868309825638,-0.193395483614614],[115.2984713781516,-0.210432073181613],[115.2748368548371,-0.228116537048509],[115.2732410033697,-0.243334609304727],[115.2578867260915,-0.239639466787958],[115.2465090737348,-0.252308390020131],[115.2541504099136,-0.27043614771001],[115.2532375422788,-0.302626999936065],[115.2249045927727,-0.311739870698416],[115.232811111144,-0.323233008596427],[115.2293484757517,-0.335862805923684],[115.2372117196452,-0.34166023333311],[115.2327154412646,-0.361834069186864],[115.2463883028779,-0.367437443583166],[115.2460382390735,-0.379134687116059],[115.2626180054167,-0.400908817987469],[115.2478974686933,-0.409844482736579],[115.2673059491103,-0.43195048322813],[115.2688332722378,-0.449088902131114],[115.2845359639637,-0.458651656048994],[115.2985475929971,-0.455886205683756],[115.2974945768133,-0.478837812614932],[115.307102001856,-0.486022468562089],[115.2974746397428,-0.494144442911606],[115.3071064274198,-0.511031905997664],[115.2936072239943,-0.516474450135698],[115.2828799793276,-0.548772467375416],[115.2904428496579,-0.555449161949253],[115.3059787881906,-0.545985365831905],[115.336741418082,-0.54352845667294],[115.3566733354062,-0.549200027559118],[115.3809333470964,-0.572243785322327],[115.3741255106839,-0.598407836252582],[115.3565197518851,-0.6133814727767],[115.3697738873551,-0.632531502426817],[115.3777376376819,-0.629488798269387],[115.3727014279287,-0.653686277399748],[115.3570677546732,-0.67045536812074],[115.3256496314254,-0.671523109803632],[115.336183404041,-0.678502464017486],[115.3330389092183,-0.685514242388299],[115.3419377818033,-0.686230669309909],[115.3372777287842,-0.693051833675165],[115.3465862857285,-0.720445202084344],[115.3226915642643,-0.726626372009401],[115.3007996078157,-0.74497949171011],[115.3009218688492,-0.761200273873522],[115.2859646503485,-0.771298115415656],[115.2894649061806,-0.799423210912378],[115.2999910165722,-0.797235175662772],[115.3086034631793,-0.815386090895379],[115.3211248787103,-0.816747422555489],[115.3254097201825,-0.832209933241737],[115.3417169793552,-0.839082569405017],[115.3367847447203,-0.841331891653477],[115.3484278211871,-0.863158352276086],[115.3499414890086,-0.891193535353343],[115.3602515471711,-0.876602560359776],[115.357248980656,-0.863574125945091],[115.375308520272,-0.877157667792064],[115.3815863709143,-0.851803212648131],[115.3976608423741,-0.864879642081709],[115.3992033037894,-0.845259403698487],[115.4160591673967,-0.864714900672039],[115.4079552001724,-0.86868622678791],[115.413651105814,-0.873548235162927],[115.4464329340327,-0.878425834184851],[115.4738890175641,-0.872512625357372],[115.4775985986965,-0.881958380175066],[115.4868266411367,-0.871393259890921],[115.4929353859593,-0.87496546418471],[115.5472581076756,-0.85442082256291],[115.5913943686553,-0.934955279062846],[115.6308919795813,-0.976322242377561],[115.6246201588933,-1.016595815344504],[115.6792387998308,-1.008946560635218],[115.6999311910716,-1.029714360928915],[115.7109378712857,-1.074963240660923],[115.749599428371,-1.104897016683973],[115.7564692370657,-1.133512611417833],[115.766438206658,-1.137696479708763],[115.8197502459772,-1.088581222045695],[115.8419937078434,-1.096339781255809],[115.8493588298462,-1.171768565267042],[115.8248759616564,-1.178614918743451],[115.7772179582422,-1.231157129397944],[115.7609186661635,-1.27461421427453],[115.7668179777676,-1.294310886038444],[115.7587587347278,-1.312579536016736],[115.7092823111298,-1.338947525308035],[115.6676028972559,-1.334786562749615],[115.6412672206057,-1.35122382162203],[115.625597721058,-1.350664714904573],[115.5979263614125,-1.379872263194295],[115.5760283741102,-1.380931062918192],[115.5645282511779,-1.399350228829979],[115.5566833759372,-1.397964197289772],[115.5241094089222,-1.429583299229778],[115.5125377602095,-1.45201244501825],[115.4883466410847,-1.449197352975398],[115.4713780663448,-1.429614717944874],[115.4553635508873,-1.461577274571527],[115.437710926618,-1.444845414883991],[115.4475897067996,-1.40429550723187],[115.4136032340021,-1.400586634765302],[115.4227126297841,-1.377767139142152],[115.4009973019839,-1.355315699160167],[115.4130973671498,-1.270619959043787],[115.397877301996,-1.250894317418785],[115.3649843571425,-1.255920559086457],[115.3522617875515,-1.271105511110429],[115.3194396733023,-1.28715207930499],[115.3077853948802,-1.296758780393395],[115.3007670721428,-1.334275648002661],[115.2415706445696,-1.367513517035126],[115.2443056852591,-1.320410781132589],[115.1912988533595,-1.313833353726215],[115.1894975050059,-1.296139660117104],[115.1772885858995,-1.291184499964595],[115.1456335272655,-1.29672855777663],[115.1276892789372,-1.313728928946903],[115.0842617349912,-1.305716884126864],[115.0731855740551,-1.320725981818585],[115.0538104917609,-1.327445520094608],[115.0377167981917,-1.320013031676018],[114.9910408193784,-1.318602945969152],[114.8946198542229,-1.353554831090589],[114.8471013023833,-1.353550181595578],[114.8338717462841,-1.341807041162005],[114.7908358840689,-1.347097574693271],[114.7670154367131,-1.337922503220915],[114.7482022256523,-1.341095448096377],[114.6680805552735,-1.319308330115268],[114.6582430162023,-1.291782432213465],[114.6618102283594,-1.265375171327035],[114.6835675140296,-1.242831024731997],[114.6858434076472,-1.196554510382322],[114.697378765118,-1.164277210824574],[114.6771912173009,-1.155945841027675],[114.6525281105839,-1.171447602624712],[114.6267105423577,-1.170998561234596],[114.6117102508275,-1.1580044719288],[114.5807709913882,-1.159037968327572],[114.5624601506155,-1.14215800468809],[114.547063866904,-1.145399327716737],[114.536979750815,-1.129732934427333],[114.5100587639009,-1.125951390444227],[114.5114805057208,-1.105893402558403],[114.5235894247122,-1.094541668663032],[114.4889338320308,-1.081736297591965],[114.478154492336,-1.064837573195446],[114.4831923442514,-1.043315205732112],[114.4536277687066,-1.018593199716358],[114.4829950716653,-0.978633803107501],[114.4725973790659,-0.965197458695746],[114.504458571306,-0.950375417291641],[114.4995769082478,-0.92763714663702],[114.5179999997002,-0.918333332717117],[114.5215599759122,-0.903444377256138],[114.5554301951475,-0.91559369918979],[114.5580716074188,-0.889435328377688],[114.5697375581418,-0.875313386703416],[114.6534300505565,-0.859865572737897],[114.7310614802033,-0.784710307634542],[114.7365281702389,-0.768333822248016],[114.7648798337374,-0.758389977915089],[114.7782328109955,-0.768967078967433],[114.7920504041029,-0.763793927647585],[114.789803967779,-0.750625991296408],[114.8301524452792,-0.743313161273276],[114.8560964851647,-0.71812306083048],[114.8729220569074,-0.712585240716271],[114.8886413330312,-0.676299911911363],[114.928353506909,-0.637168461755058],[114.9230176943112,-0.617232076598986],[114.9477995331221,-0.61302589432948],[114.977703608135,-0.588804325059547],[114.9824273295577,-0.565231184071793],[114.9997105941686,-0.556841797211119],[115.009928123784,-0.526451196165725],[115.0002345697697,-0.516888637400628],[115.0188357143968,-0.501169360377654],[115.0111070693358,-0.463181110419855],[115.0211694658982,-0.413228547959113],[115.0132029726392,-0.402661897028869],[115.0202766468499,-0.392182378713793],[115.0080942091805,-0.364149669671468],[115.0387467971271,-0.338081871381204],[115.0130262036964,-0.266186823163286],[115.039208468596,-0.240005734576945],[115.0206761670715,-0.210305534972369],[115.0280602476823,-0.202385384677742],[115.0377053606139,-0.207674532353755],[115.0464797589338,-0.202514696396053],[115.0397097992679,-0.199154395758663],[115.0558425458968,-0.177765631578611],[115.0502301180257,-0.161687927056134],[115.0597627068835,-0.151800821850381],[115.0731740870146,-0.147715335794077],[115.0871090092733,-0.154386220747396],[115.1056949598545,-0.144772567000276],[115.1200438886147,-0.149145119351671],[115.1263855380622,-0.136400501082237],[115.1336968931971,-0.142618682606058],[115.1504022588572,-0.139024762382769],[115.1462655627056,-0.121097470771561],[115.1645525201827,-0.08781230459414],[115.181425856718,-0.094650187356196],[115.1837008698994,-0.081113627891563],[115.2284168653461,-0.072359804261504],[115.2401637883282,-0.05710941216959],[115.2757301748078,-0.045893512775377]]]]}},{"type":"Feature","properties":{"kode":"62.06","nama":"Kabupaten Katingan","lat":-1.6858743275561845,"lng":113.07082915071172},"geometry":{"type":"MultiPolygon","coordinates":[[[[113.4207845079988,-3.360325363224861],[113.4205537005929,-3.360115969576308],[113.4204632809557,-3.359573452652656],[113.4206464998361,-3.359597247814675],[113.4207845079988,-3.360325363224861]]],[[[113.434265824808,-3.34851073028595],[113.434001704715,-3.348315614274158],[113.4344109726883,-3.347466147044978],[113.4345836892858,-3.347613438009736],[113.434265824808,-3.34851073028595]]],[[[113.364995812207,-3.296619194420261],[113.3647728307017,-3.296480691630579],[113.3649009301339,-3.29633512286758],[113.3651309704181,-3.296482228571998],[113.364995812207,-3.296619194420261]]],[[[113.3649452163487,-3.294031082268559],[113.3647909556381,-3.294005619763476],[113.3648162427754,-3.293881194061823],[113.364949285781,-3.293940668027309],[113.3649452163487,-3.294031082268559]]],[[[113.3633108927835,-3.288209785053445],[113.3631559935543,-3.288114488392837],[113.3631913423067,-3.287967914187886],[113.3634265608871,-3.288066011337312],[113.3633108927835,-3.288209785053445]]],[[[113.3630374674052,-3.287701171671722],[113.3628573727695,-3.287618371090931],[113.3629127476252,-3.287487653732127],[113.3631328297164,-3.287574665838092],[113.3630374674052,-3.287701171671722]]],[[[113.3621559771167,-3.286740345890207],[113.3619573528496,-3.286670503640801],[113.3620153438332,-3.286437895792263],[113.3622453787214,-3.286507665196561],[113.3621559771167,-3.286740345890207]]],[[[113.3622368756313,-3.286340946177704],[113.3620655592782,-3.286347332263498],[113.362011662908,-3.28619678575304],[113.3622329042253,-3.286169951781817],[113.3622368756313,-3.286340946177704]]],[[[113.3619213898603,-3.2861601689566],[113.3618142473297,-3.286134594036197],[113.3617625677884,-3.286015611930873],[113.3619738419193,-3.286000759627308],[113.3619213898603,-3.2861601689566]]],[[[113.3611152438734,-3.285005046445713],[113.3609420587291,-3.285026504269675],[113.360867436583,-3.284865961794628],[113.3611205013101,-3.284811786634537],[113.3611152438734,-3.285005046445713]]],[[[113.3304569937953,-3.26655156060596],[113.3300178260619,-3.266264496109519],[113.3298716763369,-3.265890954603792],[113.3303450605762,-3.266162256682817],[113.3304569937953,-3.26655156060596]]],[[[113.4051768863043,-3.265369096906204],[113.4045995197521,-3.266126227143642],[113.4041399158246,-3.26597426959683],[113.4041850339122,-3.265429091579255],[113.4051768863043,-3.265369096906204]]],[[[113.40202041521,-3.259217045230381],[113.4053031960857,-3.270187408122352],[113.3839773062077,-3.294877747210181],[113.3663133459841,-3.301741497172353],[113.3652134706253,-3.287117378564089],[113.3593929396324,-3.277293210613122],[113.3960032375594,-3.249727045566678],[113.40202041521,-3.259217045230381]]],[[[113.4406641000683,-3.204525171599373],[113.4406259589209,-3.204494652206405],[113.4406467872195,-3.204448685158637],[113.4407039454308,-3.204471507254228],[113.4406641000683,-3.204525171599373]]],[[[113.4406941194381,-3.204341431112104],[113.4406559692976,-3.204307084204475],[113.4406596079546,-3.204236285975773],[113.4407300662396,-3.204249509607118],[113.4406941194381,-3.204341431112104]]],[[[113.4410922169324,-3.203908090086285],[113.4410239260135,-3.203956084205897],[113.4407830471001,-3.203965628710728],[113.4409401838425,-3.203758984289687],[113.4410922169324,-3.203908090086285]]],[[[113.4408091112515,-3.203669615060603],[113.4404725507677,-3.203464152348692],[113.4405698529165,-3.203108179998518],[113.441031665579,-3.203456834565158],[113.4408091112515,-3.203669615060603]]],[[[113.4416408168703,-3.203480486735069],[113.4414226539323,-3.20303558762223],[113.441980655383,-3.202558936145897],[113.4420884085532,-3.202848650045079],[113.4416408168703,-3.203480486735069]]],[[[113.1539053740338,-0.478568373931212],[113.1670261283532,-0.478226315891719],[113.1694511079824,-0.489057416966146],[113.1921686483645,-0.503548322596961],[113.2111555553846,-0.506133330288863],[113.1940679670631,-0.508137982082138],[113.1844897502019,-0.526476760294228],[113.1583248673987,-0.544581926114931],[113.1575595911023,-0.559185306356794],[113.1753875867677,-0.590804001803205],[113.1726273776515,-0.60200720816608],[113.1922735785629,-0.613535144431301],[113.1926794929644,-0.627985657012411],[113.2203791713618,-0.659768126198015],[113.2269101397911,-0.680814667762666],[113.2238166859913,-0.704420625911053],[113.1846951085925,-0.744154998654237],[113.1978823650792,-0.784128866254166],[113.190134853141,-0.802261343586144],[113.2005616765801,-0.835416618881782],[113.2130567671561,-0.852384123428498],[113.2342067901113,-0.862567468014122],[113.2195845519856,-0.892856389011135],[113.2298678751024,-0.94244795011276],[113.2863043777449,-1.064407142375659],[113.248869382616,-1.107781649703357],[113.2386919312877,-1.15457846772207],[113.2036591206719,-1.16769617603765],[113.1837274605539,-1.216501242238513],[113.1911134639153,-1.241834073183925],[113.1857395047744,-1.251702120856082],[113.1991629376195,-1.283528666714576],[113.3389835155768,-1.479877342365368],[113.3612895396806,-1.525516623193537],[113.3998172362765,-1.541074378379806],[113.4337367266687,-1.577440111971542],[113.4900558848713,-1.617820723147803],[113.5020294540961,-1.644479320264372],[113.4756896603496,-1.680572419881246],[113.4893814895641,-1.786471150323246],[113.5569196003594,-1.903271289938038],[113.566602633205,-1.907836901551699],[113.5634014747983,-1.916450376983272],[113.6946902636448,-2.086529314276378],[113.699671130918,-2.157046310638647],[113.6899168501825,-2.243241539865151],[113.7619999997003,-2.401880555743022],[113.7509500000425,-2.521650000447087],[113.665027776211,-2.61828888572351],[113.5841194436574,-2.737788889045925],[113.6277915060732,-2.810806953977687],[113.6603432796187,-2.91388536371853],[113.7083789848024,-2.963263943775887],[113.7135978702456,-3.02161923813731],[113.6639024824138,-3.054245358636345],[113.6577534146884,-3.069453889984944],[113.66565654981,-3.085373260767346],[113.6461037327011,-3.088019123783495],[113.6315491361837,-3.141319492600461],[113.6144697730616,-3.141506066851443],[113.6011182482087,-3.167150099197682],[113.5437150553056,-3.161913791188445],[113.4724783539929,-3.180612469989422],[113.4495356017867,-3.191099233243014],[113.4279265729531,-3.236286114612399],[113.3931739910869,-3.246883834421402],[113.3668493805945,-3.271193083094273],[113.3527891054329,-3.26814617100897],[113.3445434599128,-3.28063077818779],[113.2345447913091,-3.152110124182864],[113.2221895713917,-3.084237373855705],[113.0972580873909,-2.797540954651348],[113.0947257763736,-2.675277271728651],[113.1356829321216,-2.608332116334092],[113.2130805596201,-2.450461109792348],[113.17220000003,-2.323049999757634],[113.2297533563323,-2.164573774659909],[113.2696555596563,-2.024438889942795],[113.2201249995692,-1.990980555707969],[113.2173736343858,-1.975744782995273],[113.2034167246022,-1.975704240658141],[113.20362351921,-1.952355699056232],[113.1618010681648,-1.92244425679691],[113.1556533880935,-1.899560812181702],[113.142325849958,-1.899350190958485],[113.1425061127669,-1.845620834733699],[113.1333815759991,-1.845441436173337],[113.1341652848001,-1.815203021102521],[113.0617569080549,-1.813293298147103],[113.0434174580494,-1.797025019189194],[113.0438532227481,-1.778949445560476],[113.0339301167816,-1.778858433270061],[113.0337226207024,-1.765603392182749],[113.0171687692234,-1.765627332135614],[113.0175487013116,-1.749586570863551],[112.9992123476718,-1.748938301761152],[113.0001096831154,-1.716425585772166],[112.9811216726271,-1.715828678750489],[112.9814650877437,-1.705789063814203],[112.9286880982771,-1.704806418681207],[112.9299084630052,-1.640973824981964],[112.8965964079979,-1.64006836326436],[112.8989219271053,-1.594192279250242],[112.8638011331158,-1.591714886232934],[112.8622888889212,-1.524714652758943],[112.8519133798987,-1.524549290817026],[112.8515125673512,-1.514019870020958],[112.8382655742969,-1.504915236149243],[112.8392606813354,-1.423895354387097],[112.815630551209,-1.423868611247395],[112.806659904631,-1.410206058562727],[112.7936630049438,-1.407528429693253],[112.7913595507028,-1.392978381047419],[112.7634736829641,-1.389661500577757],[112.7459644537966,-1.378104097126334],[112.7495170052057,-1.333460408970646],[112.7363725771328,-1.321855416993836],[112.6911889782888,-1.306486918736274],[112.6695846753926,-1.272356575095815],[112.6749275188899,-1.255785222809694],[112.6319566236993,-1.207704411229551],[112.5398424371788,-1.192943585777842],[112.5154158953274,-1.199140601757323],[112.5109831162778,-1.208006158057698],[112.4617723434189,-1.197950392196814],[112.4267985211348,-1.206293226551105],[112.3922285645966,-1.239622213993899],[112.3755754513461,-1.231039318209939],[112.3502515857422,-1.231458937380017],[112.3338690326298,-1.245978017871144],[112.3369939276277,-1.257866621847084],[112.3234253019362,-1.275253569296789],[112.3285899303811,-1.290621485692947],[112.3229444973908,-1.299593430892079],[112.2790850801124,-1.303722004366906],[112.2579227013716,-1.320727484585651],[112.224062263163,-1.316907242774937],[112.2019697309184,-1.302732940772591],[112.1739782144231,-1.312946061011891],[112.1514733088462,-1.302125923572442],[112.1269999995505,-1.312830555685521],[112.1260979471627,-1.23313070601723],[112.0963400056868,-1.211437756047554],[112.1085229146009,-1.200668295405441],[112.1186856979866,-1.13979246035372],[112.1380429889928,-1.12831060085348],[112.1622304667627,-1.087132532940041],[112.1580090194007,-1.039110012716884],[112.1169345920579,-1.045185622018765],[112.1001777150296,-1.020755157324585],[112.1139551722935,-0.988500948759777],[112.1132233948439,-0.929778487287328],[112.1312050630632,-0.900271541198608],[112.1723120791391,-0.866313917753095],[112.1465464638483,-0.830152954395283],[112.1942242199718,-0.765442387655993],[112.1635422340869,-0.688192895585596],[112.174424166642,-0.684175746313612],[112.1760529081153,-0.643615850790782],[112.20531821986,-0.63176386001407],[112.2095063959035,-0.615032714388233],[112.2327634449771,-0.612947993255267],[112.2444676015986,-0.630558645265269],[112.2599906987118,-0.631756551223786],[112.3151162389233,-0.723339096322187],[112.3486580464318,-0.703558294779397],[112.3564173790588,-0.715008297594791],[112.3856810873124,-0.713637412436599],[112.4342818913963,-0.673622406249022],[112.4609579803266,-0.669256620396633],[112.4786771742123,-0.690230675705086],[112.4967421646193,-0.684659770431997],[112.5028552360803,-0.700162506894111],[112.5222895477246,-0.69179150487402],[112.5324629628955,-0.69839442895965],[112.5612732833354,-0.69616529109531],[112.5763887771204,-0.681665530739631],[112.5932906392517,-0.69006587134284],[112.6087645038787,-0.683996104936194],[112.6163735454029,-0.668745261384698],[112.6381794421276,-0.657331096552818],[112.688095546972,-0.659100108882862],[112.7023819332796,-0.638629993179654],[112.7046549058993,-0.620098858075815],[112.734390414686,-0.630759728278798],[112.7295133471634,-0.588056636804327],[112.7445961496926,-0.571887142077879],[112.7774001677835,-0.573840674607398],[112.7874521465993,-0.585818885233349],[112.8323632373735,-0.577597391906062],[112.8658408566703,-0.547830385264072],[112.8892793889327,-0.538567994117647],[112.9116397518732,-0.54054789656808],[112.9230427120516,-0.522020526925784],[112.9756807931342,-0.511139196017021],[112.9914631522028,-0.49279124472015],[112.9980843451164,-0.503441670196894],[113.0300000002999,-0.502499999975006],[113.0376596089039,-0.495924141885576],[113.0546010277153,-0.513846096919826],[113.0969253202473,-0.489481557927521],[113.1307862638751,-0.452164488200493],[113.1539053740338,-0.478568373931212]]]]}},{"type":"Feature","properties":{"kode":"62.07","nama":"Kabupaten Seruyan","lat":-2.257238224208013,"lng":112.19865002889901},"geometry":{"type":"MultiPolygon","coordinates":[[[[112.0979434618214,-0.699991820965698],[112.1022873347928,-0.709845678235402],[112.1138610330603,-0.708278406323329],[112.146848089268,-0.730551582689356],[112.1754311069601,-0.725573373812052],[112.1922581661814,-0.748792374368515],[112.1942242199718,-0.765442387655993],[112.1465464638483,-0.830152954395283],[112.1723120791391,-0.866313917753095],[112.1312050630632,-0.900271541198608],[112.1132233948439,-0.929778487287328],[112.1139551722935,-0.988500948759777],[112.1001777150296,-1.020755157324585],[112.1169345920579,-1.045185622018765],[112.1580090194007,-1.039110012716884],[112.1622304667627,-1.087132532940041],[112.1380429889928,-1.12831060085348],[112.1186856979866,-1.13979246035372],[112.1085229146009,-1.200668295405441],[112.0963400056868,-1.211437756047554],[112.1260979471627,-1.23313070601723],[112.132765930903,-1.412237701708532],[112.1147275046707,-1.485675435273118],[112.0691314083878,-1.567557210196993],[112.0669999998502,-1.594711110729088],[112.0911660188968,-1.644323213245594],[112.1921250233512,-1.75800353813276],[112.2009535878378,-1.78954471022015],[112.2185282867511,-1.796954352261507],[112.2187006732975,-1.809881850367015],[112.227897275439,-1.809886846100975],[112.2367563287416,-1.827374969978804],[112.250979773298,-1.831361755440655],[112.2516122736876,-1.860112898691282],[112.3181758035705,-1.901700300228606],[112.3446388889736,-1.926972221890447],[112.3474444437062,-1.938277778296785],[112.3384722224153,-1.956916666570832],[112.3126666673329,-1.984055555619404],[112.3121111111389,-1.995944443780997],[112.3408389250763,-2.012668800424747],[112.3311519010394,-2.052254643836696],[112.3107979120941,-2.052250518646462],[112.3058380071184,-2.062229539961249],[112.313971402858,-2.156421457184512],[112.3361511954214,-2.182202985978934],[112.3736854037584,-2.196714926752444],[112.3734507751333,-2.267135048143912],[112.4082218389667,-2.267035110981544],[112.4086666670331,-2.331027777709751],[112.4307500001125,-2.331277778446664],[112.4361944436188,-2.362027778259248],[112.4348305812664,-2.434964898810923],[112.4446586522751,-2.434869615640237],[112.442726355437,-2.432519372371081],[112.4423725162787,-2.429196021279337],[112.4480309498685,-2.426853444730595],[112.4437441307871,-2.432511584242183],[112.4520789126118,-2.432898929442009],[112.4504833714105,-2.490993869171712],[112.4742811207771,-2.496549324091982],[112.4788979029159,-2.518205117671959],[112.4867512839446,-2.518209412834052],[112.48900000005,-2.534430555625613],[112.4954066488977,-2.535389151987724],[112.4927840630342,-2.542988360324541],[112.5052124383035,-2.537485906049655],[112.5050567323824,-2.544135998677335],[112.5248735211961,-2.545395436250322],[112.4953879223149,-2.545328359416191],[112.5118383229804,-2.628982231344848],[112.6042022431391,-2.66681865595613],[112.6090546377614,-2.704424667064734],[112.6363493280591,-2.728686606901379],[112.7447590420961,-2.754803636778361],[112.8219532069749,-2.805718247199332],[112.843788962091,-2.845750450223042],[112.8449999999501,-2.997980556357563],[112.8140681167503,-3.050157326599281],[112.8096626312255,-3.29984772639145],[112.8165583826633,-3.298742851701222],[112.6845886559418,-3.362217862364394],[112.6369219569827,-3.40640309322813],[112.5681116490335,-3.430328290917808],[112.5632315768759,-3.446816291338697],[112.539310961232,-3.442973760730419],[112.4798827010258,-3.410972626785183],[112.4312711473457,-3.374041285277032],[112.4208773353208,-3.352781241960725],[112.3809355033709,-3.331974509116245],[112.3089739143147,-3.310668823407406],[112.2617257886143,-3.312765850863267],[112.195239409771,-3.335374480647671],[112.0816395193484,-3.403661467702504],[111.9920416080338,-3.465778806946298],[111.9067086272014,-3.538014211686471],[111.8540447760456,-3.541372162395342],[111.7946984593665,-3.525744225915231],[112.1185105028574,-3.181615258137585],[112.1314492451866,-3.158972461309942],[112.1319999999001,-3.139819444112016],[112.0969459347072,-3.053845189104168],[112.0989147053494,-2.98799949358173],[112.1398075946448,-2.803368241351192],[112.1294827102589,-2.765670404065881],[112.0419999999001,-2.688311111068822],[112.0618069213524,-2.649239642095738],[112.0367744109105,-2.591837506795416],[112.0416225778198,-2.557607291643096],[112.0328361079002,-2.556935564624554],[112.0340686692338,-2.520285916861534],[112.0228609392811,-2.520205576825843],[112.0235704351276,-2.482666783745005],[112.0153163728523,-2.482454824330629],[112.0109519287886,-2.461996848575668],[112.02417040524,-2.448400232384776],[112.0499792617336,-2.451680796431591],[112.0502267497648,-2.427513423006003],[112.0613507303519,-2.427763266361607],[112.0621680648044,-2.39348627836902],[112.0400322571829,-2.392987395651749],[112.0399557176823,-2.345502376833133],[112.0729531322813,-2.347353677130462],[112.0638569070706,-2.314039472743426],[112.0373503367487,-2.267875051692217],[112.042264557963,-2.250937731990701],[112.0248298807944,-2.232007492152002],[112.0180335853818,-2.125369676369429],[112.0275367457243,-2.099805838368665],[112.0456978026116,-2.096162765698997],[112.0564012341297,-2.067355174701538],[112.05809107914,-2.012259471297531],[112.0640913297511,-1.981882635275303],[112.0744444438561,-1.971999999700172],[112.0576224001537,-1.95001149743266],[111.9684500165551,-1.904127967032013],[111.9371328601934,-1.868852923123912],[111.9338809179701,-1.84170658678944],[111.9527424190274,-1.794459124788686],[111.9554178337661,-1.750478068807817],[111.9170455678987,-1.618013849859226],[111.8719999997003,-1.544430555625611],[111.703432052947,-1.454200732078073],[111.6778525001928,-1.420992761007048],[111.6448329892511,-1.419325108566818],[111.6387092671191,-1.401210301114444],[111.6102944442333,-1.392244444325533],[111.6091289219622,-1.377735465019628],[111.589614590441,-1.347482850553019],[111.5687173354367,-1.334319721078161],[111.5771901362158,-1.313957792018419],[111.56058572665,-1.311047138014912],[111.5442040332896,-1.285723464865976],[111.5160849956261,-1.269675983859544],[111.5040428647865,-1.253545105122436],[111.4877884452806,-1.258870956829108],[111.4632349479346,-1.25292440743541],[111.4524546747435,-1.259744443151492],[111.445983329567,-1.245263887818096],[111.4865647215847,-1.231151069765948],[111.526017004881,-1.202667963155937],[111.5493907346947,-1.207265427857143],[111.568689159677,-1.184704781400539],[111.5773923613684,-1.167556198359845],[111.5570897425976,-1.152707751061824],[111.5611737771481,-1.129849069279112],[111.5433601400585,-1.115393754318264],[111.5443092269893,-1.098521308111858],[111.5582453642322,-1.101275278631134],[111.5712520926101,-1.058104867945245],[111.5846722528222,-1.06524325107509],[111.6161496953522,-1.056265262431813],[111.6246495270541,-1.036958123018897],[111.6161264874475,-1.026053537440744],[111.6252276022721,-1.011183840062094],[111.625086342161,-0.991061056022849],[111.6395665521548,-0.967992181094226],[111.6555962769467,-0.969334405758174],[111.7016391141539,-0.952969505438242],[111.7052542008208,-0.941066172365959],[111.7239063549943,-0.94261824123876],[111.7481313758624,-0.911564168051873],[111.8381790920915,-0.906449616556484],[111.8430959672052,-0.891890651132579],[111.8855224434061,-0.85816360126916],[111.8869343025761,-0.841700819637106],[111.9172505719564,-0.841093957120423],[111.9226032450438,-0.793306413560105],[111.9517437102041,-0.792600059045492],[111.9643059198823,-0.811265762404981],[111.9767555317425,-0.813258202304182],[111.9843907273503,-0.79935570959824],[112.0229519326856,-0.790906594263843],[112.0272475867068,-0.779440294833725],[112.0548772960504,-0.770577488660143],[112.054040648657,-0.751591751657957],[112.0742660669255,-0.73404322661357],[112.0723187945767,-0.720682586232327],[112.0836563803378,-0.700512596778838],[112.0979434618214,-0.699991820965698]]]]}},{"type":"Feature","properties":{"kode":"62.08","nama":"Kabupaten Sukamara","lat":-2.604348754025812,"lng":111.15957390977695},"geometry":{"type":"MultiPolygon","coordinates":[[[[111.156081901059,-2.019411687799069],[111.1560734069622,-2.02838425263108],[111.1715601157068,-2.035754346086163],[111.2052353340435,-2.037628892059631],[111.1939334954345,-2.055985876147284],[111.2045486351115,-2.064246488184798],[111.2499999999001,-2.062980555707997],[111.2675909315763,-2.072722032795562],[111.2698597996901,-2.083771709596663],[111.2599683489602,-2.085578795624857],[111.2684680313746,-2.098076960982878],[111.2647930381682,-2.140359739910005],[111.2939629777093,-2.149373515275402],[111.3552483901012,-2.152312886430499],[111.3669443314158,-2.192157224676164],[111.3578055907554,-2.214716004140252],[111.3894310023389,-2.214784305850939],[111.3903824032253,-2.266979556261431],[111.3819999996003,-2.282088888791092],[111.3737739188313,-2.284113662015821],[111.368786823753,-2.275264288116377],[111.3556785619161,-2.281725202056409],[111.3483624763473,-2.285913511199469],[111.3524887961211,-2.299745695807223],[111.3468839648232,-2.306171332940623],[111.3168692669032,-2.305167499780206],[111.3163628046997,-2.33249241359397],[111.2748147763809,-2.336029297913703],[111.2659994400222,-2.347012113718064],[111.2649545779915,-2.372564506946409],[111.2836396041844,-2.372771956260758],[111.2841203907435,-2.400208530799011],[111.2955466541548,-2.408343455386122],[111.2751651063846,-2.429929857277083],[111.2872252236652,-2.518029490868281],[111.2551513678414,-2.500412831386958],[111.2175550586191,-2.505137588828601],[111.2255169923155,-2.561995908584239],[111.2799048321424,-2.583313720751581],[111.3083164813206,-2.584221121407529],[111.3437490783574,-2.625743707905739],[111.3775621762535,-2.645584064353004],[111.3977215222306,-2.648111789727261],[111.3622671256274,-2.759832738290216],[111.3824276524143,-2.760037566980047],[111.3799454642119,-2.876816059913237],[111.3614742563319,-2.908628442348673],[111.3405169850708,-2.908762534863099],[111.3000829100983,-2.926930773736183],[111.1337356224011,-3.018228311087581],[111.0477649637821,-3.051494517757794],[110.9826901491311,-3.065425467711139],[110.9511500553308,-3.06278850618458],[110.8496876220862,-2.99643981984177],[110.8104836227211,-2.978996705233763],[110.7709412858118,-2.978069943972697],[110.7332124992575,-2.996447116041503],[110.7531928333826,-2.944988477835933],[110.7933973456111,-2.91244015768706],[110.8274034326224,-2.905407460186085],[110.8464781440512,-2.886046419906288],[110.8613130349686,-2.888915671820749],[110.8945013513564,-2.869617143416361],[110.9696307987224,-2.85595310774969],[110.9755209165571,-2.842606710830944],[110.9993151189976,-2.825524430308215],[111.0117530378724,-2.795206289438637],[111.1013081882224,-2.76863295794463],[111.1471711196515,-2.741816599956051],[111.1703639220574,-2.70695482780299],[111.1759414382469,-2.688397324576799],[111.1596766225781,-2.661189057329041],[111.156531562082,-2.636665873431257],[111.1316184303463,-2.598848613372764],[111.1272915770447,-2.562103361381032],[111.1425629817962,-2.560727475092841],[111.1469640156768,-2.541756763064098],[111.1258825588331,-2.538888674872355],[111.113183532594,-2.522727551934947],[111.0991275382054,-2.465738921314101],[111.0998403804292,-2.450651112258997],[111.1135839116683,-2.44558728432567],[111.1172081444404,-2.431960380766876],[111.1065506925604,-2.411827909230604],[111.1163955161402,-2.372625322700442],[111.1062774866168,-2.372669360702398],[111.1066844999897,-2.352279419559514],[111.115582680996,-2.327479683340597],[111.1024664718503,-2.303375117667519],[111.0841426592563,-2.295357321683047],[111.0564681160109,-2.252750944200679],[111.0419785980339,-2.250841893038904],[111.0390460959006,-2.237425491093495],[111.022915377243,-2.223963071738291],[111.0294263006833,-2.206094781948556],[111.0400671222999,-2.205752618688342],[111.036473175097,-2.168362527608528],[111.0503212866981,-2.161420289314789],[111.0695300168968,-2.114542315575354],[111.0583865569941,-2.059280646784403],[111.1103061687947,-2.02492663455647],[111.156081901059,-2.019411687799069]]]]}},{"type":"Feature","properties":{"kode":"62.09","nama":"Kabupaten Lamandau","lat":-1.7713846569869693,"lng":111.41784811878006},"geometry":{"type":"MultiPolygon","coordinates":[[[[111.4500949912909,-1.251389813289252],[111.4524546747435,-1.259744443151492],[111.4632349479346,-1.25292440743541],[111.4877884452806,-1.258870956829108],[111.5040428647865,-1.253545105122436],[111.5160849956261,-1.269675983859544],[111.5442040332896,-1.285723464865976],[111.56058572665,-1.311047138014912],[111.5771901362158,-1.313957792018419],[111.5687173354367,-1.334319721078161],[111.589614590441,-1.347482850553019],[111.6091289219622,-1.377735465019628],[111.6102944442333,-1.392244444325533],[111.6387092671191,-1.401210301114444],[111.6448329892511,-1.419325108566818],[111.6778525001928,-1.420992761007048],[111.692277690563,-1.44559062910419],[111.732882479343,-1.465419941876769],[111.7499999998002,-1.483161110696665],[111.7754653116749,-1.544408536624678],[111.7978450999715,-1.551268988772827],[111.8049812473867,-1.561657108988326],[111.8176660679347,-1.60143927620158],[111.8066182284486,-1.6223405943429],[111.7923611105769,-1.625661110771562],[111.7883485739276,-1.654387936354132],[111.8052993879565,-1.683612928793623],[111.8160171879429,-1.682090041122455],[111.8388122193085,-1.696680980143109],[111.8460570893632,-1.728131586903173],[111.8436841292192,-1.752573309310693],[111.8318493091983,-1.759076148745267],[111.8320872653151,-1.776119213430929],[111.820628212622,-1.77855782138632],[111.8113717830813,-1.813037437427736],[111.827213259984,-1.822944941955454],[111.823421623809,-1.842703771262036],[111.8354060226699,-1.844221263900161],[111.8166339331096,-1.880912401885817],[111.8296554229595,-1.880098119732379],[111.8268168397255,-1.900715921202758],[111.8349250247702,-1.903570611294628],[111.8343282697339,-1.915231516820961],[111.8099036848073,-1.927095432608075],[111.8105088152297,-1.940183669240961],[111.8243848381898,-1.956731595087005],[111.8224453323862,-1.999432644201152],[111.8037204257571,-2.00301356472419],[111.7765071286012,-2.033162853382889],[111.7703583000955,-2.072216378183247],[111.7392446441251,-2.079809327238616],[111.7451620869608,-2.121831119310682],[111.7230971486146,-2.113626382151759],[111.6805560870938,-2.121490025344366],[111.675061753697,-2.135651161272081],[111.66149882611,-2.136507767319598],[111.6493822700757,-2.150252659232768],[111.6602991700706,-2.180578036047434],[111.6241205521218,-2.196469491873534],[111.6122351443366,-2.191529730812361],[111.6026841130814,-2.202049490191785],[111.5942637850457,-2.223742822373323],[111.6089892131817,-2.224639906906114],[111.6051598756278,-2.243500341367602],[111.5966495182608,-2.246982921024967],[111.5973032570398,-2.295362603401399],[111.5852838017062,-2.295502275309749],[111.5848601580698,-2.307143938042236],[111.5400691061044,-2.304418610030792],[111.4604254280911,-2.314402278142571],[111.419011621789,-2.306212529984267],[111.4189499246993,-2.289862608772333],[111.3819999996003,-2.282088888791092],[111.3903824032253,-2.266979556261431],[111.3894310023389,-2.214784305850939],[111.3578055907554,-2.214716004140252],[111.3669529451224,-2.192385942956834],[111.3554796957315,-2.152513845337614],[111.2939629777093,-2.149373515275402],[111.2647930381682,-2.140359739910005],[111.2684680313746,-2.098076960982878],[111.2599683489602,-2.085578795624857],[111.2698597996901,-2.083771709596663],[111.2675909315763,-2.072722032795562],[111.2499999999001,-2.062980555707997],[111.2045486351115,-2.064246488184798],[111.1939334954345,-2.055985876147284],[111.2052353340435,-2.037628892059631],[111.1715601157068,-2.035754346086163],[111.1560734069622,-2.02838425263108],[111.1568881918367,-2.015654286116389],[111.1103061687947,-2.02492663455647],[111.087114997759,-2.040994639890739],[111.0788619220401,-2.009443423275384],[111.1014465183422,-1.98862103233475],[111.0981746894104,-1.980602199431905],[111.0891934506173,-1.982098798120971],[111.0934595097486,-1.973920106227903],[111.086891696095,-1.9657424521524],[111.0550374061514,-1.957174241398077],[111.0106619389974,-1.969744625014316],[110.9999699441577,-1.947364122656106],[110.9885144626724,-1.95480863231248],[110.9877193019043,-1.940374776075052],[110.9647241569943,-1.909805885333318],[110.9641287446459,-1.894772450188389],[110.9504333217405,-1.887948051861057],[110.9498702112414,-1.852408885161852],[110.9778304610071,-1.828499806920528],[110.9709552923529,-1.810989425721379],[110.9919791278345,-1.798482302216422],[110.9951014786504,-1.787919893388315],[111.0140715917306,-1.781817146144318],[111.0262915392233,-1.752244875100908],[111.020577362955,-1.730013465049376],[111.0258027424027,-1.719862014919984],[111.0148382898553,-1.709756396940135],[111.0101401910171,-1.715710886448177],[110.9943607916173,-1.706945987667188],[110.984464544803,-1.689124762997343],[110.9975775487649,-1.683685022046058],[110.9943089933654,-1.650086337814185],[110.9399526936619,-1.657304952161789],[110.9169651264395,-1.693036369632653],[110.9031279308094,-1.68744844828719],[110.8928921980165,-1.656822961410478],[110.8733366937335,-1.665496067289565],[110.8708450689448,-1.636123156158733],[110.863136041695,-1.62867954492503],[110.887006294405,-1.598639494217283],[110.9037781388501,-1.601648942344783],[110.9350421893456,-1.557309300583734],[110.952644998368,-1.549190348855481],[110.9697012875845,-1.552024025388368],[110.966192954941,-1.544244265560371],[111.0063065142343,-1.503625790897514],[111.0248822350271,-1.504828805005312],[111.0228486574396,-1.513733601424486],[111.0349439418095,-1.528814100790024],[111.0497754728598,-1.516505482841682],[111.0673759571348,-1.527592507588141],[111.079649366625,-1.525042738031937],[111.0838089676099,-1.501879370436557],[111.0959533819431,-1.49843550209672],[111.0987094865536,-1.486978852392065],[111.1195836685515,-1.486831818633474],[111.1192498743823,-1.47184694957703],[111.1110674547992,-1.465767242963858],[111.156047500192,-1.43181755693467],[111.1761443396896,-1.444739965776767],[111.1807267668268,-1.476768352777194],[111.200014476387,-1.474869988259256],[111.2037715642063,-1.442799143365717],[111.2275604840292,-1.435334834235194],[111.2542185694315,-1.43812625162523],[111.2617793560325,-1.413852938062535],[111.2821079697071,-1.400148012021043],[111.2841055708155,-1.383489893144032],[111.3057300877734,-1.389451810152911],[111.3110187875871,-1.373493556282559],[111.3267045900449,-1.367115576022984],[111.3318798358857,-1.33370614961901],[111.3436425941305,-1.317008390424837],[111.3647652084477,-1.309565415911143],[111.3715478395613,-1.290328265337129],[111.383857614937,-1.296363833224293],[111.3804039367924,-1.283077782613498],[111.3908237086473,-1.252859572611145],[111.4022523804431,-1.252531993656516],[111.4000979807373,-1.262904375736332],[111.4067409291506,-1.265858002045109],[111.4133447930278,-1.259449203817622],[111.4235083642197,-1.267389605046157],[111.4282077751688,-1.252636488583006],[111.4448837240047,-1.24327712803696],[111.4500949912909,-1.251389813289252]]]]}},{"type":"Feature","properties":{"kode":"62.10","nama":"Kabupaten Gunung Mas","lat":-1.0251023761625409,"lng":113.558773173565},"geometry":{"type":"MultiPolygon","coordinates":[[[[113.453192192166,-0.300782149576476],[113.4548655247243,-0.308889066577114],[113.4915287558474,-0.312883004347134],[113.4787624630173,-0.360968807164655],[113.4674633673405,-0.360838931571353],[113.468242614605,-0.380579880556978],[113.4936980492256,-0.384346246681913],[113.5001917830244,-0.378761635740846],[113.5145458577052,-0.38642142870591],[113.5401931788722,-0.375904393372986],[113.5820128213347,-0.391359478357137],[113.582921943293,-0.372008154352768],[113.632187058586,-0.345188743165961],[113.6447650108966,-0.360679836105573],[113.6806428865601,-0.368634658862346],[113.6965525329731,-0.382433841948229],[113.70872847394,-0.37649627228509],[113.7325762705785,-0.402513560152576],[113.7175865289951,-0.418583580867507],[113.7557581075508,-0.46538277309647],[113.7560073987225,-0.539126143056981],[113.7506438294492,-0.550984394014511],[113.7355849219067,-0.550086843632849],[113.7271080552925,-0.567539218560034],[113.7342415443119,-0.603906060116513],[113.6963893815648,-0.634199811372119],[113.6916589772799,-0.657717019025108],[113.6782294497294,-0.675414693932888],[113.6992617900996,-0.702280582083217],[113.6796351017786,-0.757782570409196],[113.6871346373537,-0.771106210882857],[113.683464421346,-0.796266827052319],[113.6917188901147,-0.79708267582477],[113.7039246256211,-0.817350917111062],[113.7320932788817,-0.826888519689353],[113.7479999998002,-0.842138889298274],[113.7839999998003,-0.930595999805542],[113.8089999997502,-0.958728000296885],[113.9279999998002,-0.999732999977956],[113.9709999997502,-1.043299999994909],[113.9854480670747,-1.066484680623494],[113.9700000003998,-1.111689999893509],[114.0047944016404,-1.290349231231927],[114.0000297826485,-1.393687922759382],[114.0080000458655,-1.473529824841505],[113.9951915433551,-1.522648855160449],[113.9831111112888,-1.532119443857185],[113.973566746708,-1.520599213882592],[113.9226900004432,-1.537909996848866],[113.8916682057232,-1.538077005449415],[113.8647389630327,-1.527357352859473],[113.8443310138653,-1.582953371600729],[113.7979846392798,-1.604060756798445],[113.7495012129107,-1.60574999476635],[113.7298900549821,-1.59046110809358],[113.6481676839914,-1.584719239001656],[113.6161040138891,-1.626435645588556],[113.5638341862987,-1.653411106237515],[113.5310563546671,-1.654980555408228],[113.5020294540961,-1.644479320264372],[113.477614150173,-1.605026302222059],[113.4337367266687,-1.577440111971542],[113.3998172362765,-1.541074378379806],[113.3612895396806,-1.525516623193537],[113.3389835155768,-1.479877342365368],[113.1991629376195,-1.283528666714576],[113.1857395047744,-1.251702120856082],[113.1911134639153,-1.241834073183925],[113.1837274605539,-1.216501242238513],[113.2036591206719,-1.16769617603765],[113.2386919312877,-1.15457846772207],[113.248869382616,-1.107781649703357],[113.2863043777449,-1.064407142375659],[113.2298678751024,-0.94244795011276],[113.2195845519856,-0.892856389011135],[113.2342067901113,-0.862567468014122],[113.2130567671561,-0.852384123428498],[113.2005616765801,-0.835416618881782],[113.190134853141,-0.802261343586144],[113.1978823650792,-0.784128866254166],[113.1846951085925,-0.744154998654237],[113.2238166859913,-0.704420625911053],[113.2269101397911,-0.680814667762666],[113.2203791713618,-0.659768126198015],[113.1926794929644,-0.627985657012411],[113.1922735785629,-0.613535144431301],[113.1726273776515,-0.60200720816608],[113.1753875867677,-0.590804001803205],[113.1575595911023,-0.559185306356794],[113.1583248673987,-0.544581926114931],[113.1844897502019,-0.526476760294228],[113.1940679670631,-0.508137982082138],[113.2181643623955,-0.506165731962918],[113.2464920436729,-0.450184441858495],[113.2609410292052,-0.449266707992171],[113.2547271671251,-0.435114933107597],[113.2659582227938,-0.436257073904825],[113.264221216436,-0.423388949040751],[113.271102617392,-0.424545366575371],[113.257283596161,-0.405516711227241],[113.2623614948872,-0.389636833273224],[113.2558566670516,-0.384228610861628],[113.333004128338,-0.395866128618907],[113.3608492558886,-0.377579777284856],[113.3739007282361,-0.378066719703332],[113.4047988418931,-0.350461946761429],[113.4185028901963,-0.300595735404821],[113.429423079012,-0.303395369000972],[113.4437612410885,-0.29082350060399],[113.453192192166,-0.300782149576476]]]]}},{"type":"Feature","properties":{"kode":"62.11","nama":"Kabupaten Pulang Pisau","lat":-2.6908594381064606,"lng":113.96757574005372},"geometry":{"type":"MultiPolygon","coordinates":[[[[113.973566746708,-1.520599213882592],[113.9984424270764,-1.563106596692057],[114.0190200657236,-1.572109313993655],[114.0309388887187,-1.587199999979985],[114.0234097105897,-1.612374031336453],[113.981492399055,-1.667085380685743],[113.9863346232443,-1.7073844440368],[113.9744166671954,-1.734538888658735],[113.9859029243806,-1.80263088021089],[114.0061611112464,-1.859849999877541],[114.031968524328,-1.906700180069246],[114.072919444177,-1.93813888879866],[114.0814093500616,-1.974296567832281],[114.1711111105893,-2.090488888951006],[114.1711487454183,-2.143368634954504],[114.184406094166,-2.188722723674699],[114.2278039586859,-2.229292035998645],[114.261899456295,-2.231630844387913],[114.2624262962367,-2.377906131862487],[114.3252656651784,-2.373292483860981],[114.3380583414194,-2.717436001770038],[114.348254037294,-2.729388165331484],[114.3487499999127,-2.744188889205804],[114.284692198886,-2.803667565405801],[114.2814955622705,-2.814686825336635],[114.2914227718435,-2.829623947587015],[114.2837194435976,-2.865333332567202],[114.2122833329096,-2.937419443552416],[114.281143297825,-3.044332129024488],[114.2259226767902,-3.191853259920022],[114.1664194437025,-3.17458055604776],[114.146688889081,-3.187469443559879],[114.1414194437524,-3.266888889110911],[114.1719888003429,-3.334041997440165],[114.1518394035657,-3.384411728418415],[114.1329160183597,-3.381884859198861],[114.0774479353739,-3.351232523062444],[114.068883255358,-3.321677238413725],[114.0534631575987,-3.310881921363576],[114.0391866296593,-3.349632156998419],[113.9496689270794,-3.370390574665263],[113.8205591209067,-3.449849281918807],[113.7391802028042,-3.466601220769652],[113.6297249963116,-3.465430525598181],[113.5813267591227,-3.441902414564682],[113.611715332197,-3.396168857806517],[113.6322821043356,-3.321040306165182],[113.6274607902833,-3.249402066552046],[113.6011182482087,-3.167150099197682],[113.6144697730616,-3.141506066851443],[113.6315491361837,-3.141319492600461],[113.6461037327011,-3.088019123783495],[113.66565654981,-3.085373260767346],[113.6577534146884,-3.069453889984944],[113.6639024824138,-3.054245358636345],[113.7135978702456,-3.02161923813731],[113.7149073847681,-3.011962146235961],[113.7083789848024,-2.963263943775887],[113.6603432796187,-2.91388536371853],[113.6277915060732,-2.810806953977687],[113.5841194436574,-2.737788889045925],[113.665027776211,-2.61828888572351],[113.7509500000425,-2.521650000447087],[113.7619999997003,-2.401880555743022],[113.9629404428472,-2.40184455408288],[113.9939185197239,-2.394911103964217],[114.0249264738777,-2.403555118573822],[114.0417828482999,-2.310630007968387],[114.056368781694,-2.29837632420791],[114.0670983331216,-2.272188882810669],[114.0849678253049,-2.268849995031166],[114.1082873286973,-2.187888887562009],[114.0091981622654,-2.16213055498107],[113.9357007487906,-2.163437439885898],[113.9275089510772,-2.154608757588042],[113.9335197696217,-2.150239119939348],[113.8847709856925,-2.081811106597245],[113.8260569472703,-2.011399998211319],[113.8323625159175,-1.806450000567031],[113.7979722538166,-1.604061158795369],[113.8443310138653,-1.582953371600729],[113.8647389630327,-1.527357352859473],[113.8916682057232,-1.538077005449415],[113.9244391503466,-1.537813289151904],[113.973566746708,-1.520599213882592]]]]}},{"type":"Feature","properties":{"kode":"62.12","nama":"Kabupaten Murung Raya","lat":-0.03178679507518384,"lng":114.26232837269657},"geometry":{"type":"MultiPolygon","coordinates":[[[[114.925575647698,0.771736807607601],[114.9415978397685,0.774204064366144],[114.9855583309523,0.731657413558848],[115.0135370222158,0.599344750160144],[115.0916212200433,0.480377076241131],[115.0771930870914,0.46982099774093],[115.1086144299121,0.441903577288302],[115.1167351182312,0.448560321301825],[115.1373875319091,0.425491370830164],[115.1293195816334,0.3744141692785],[115.0649308768585,0.32503301716009],[115.0476163868869,0.298281244883578],[115.0395525258284,0.299191590819278],[115.0371346787225,0.314518803899697],[115.0228740211193,0.330350551037137],[115.0016996939857,0.327450078258559],[114.9897963887923,0.334540889050869],[114.9543503513877,0.320078043167202],[114.9495614462038,0.332389860004076],[114.9415914833603,0.333252776594437],[114.9025939449547,0.317721351759046],[114.8848598573966,0.296874260039123],[114.8843019117039,0.278487180139317],[114.8628907328212,0.275090949787613],[114.8449104090882,0.243033224203979],[114.8196424111684,0.236711138608234],[114.8315636686285,0.217232110873253],[114.8297508728046,0.191611268445355],[114.762450335015,0.146373076256554],[114.7583881413997,0.135154476198204],[114.7711091848411,0.119837760004701],[114.7492610181816,0.110171668587641],[114.7469813923774,0.093776458416903],[114.7251894378423,0.079389386710924],[114.7067088023694,0.084438452272837],[114.7183490387772,0.053497089319274],[114.7373395952463,0.03104129481992],[114.7454660473203,0.03468365972312],[114.7952668851586,0.011403134746876],[114.7958481080039,0.000941113641526],[114.8111932103984,-0.007159667284798],[114.8238105512161,-0.036197903810178],[114.8373621977073,-0.046457766312782],[114.8760964406983,-0.015350927203508],[114.8976765949989,-0.031680710796136],[114.9099169391156,-0.060916477113684],[114.9080860426368,-0.09186967334667],[114.9210271789613,-0.10033417158464],[114.9164156884333,-0.136397811210001],[114.9290299868445,-0.165367377302575],[114.9221263690368,-0.181675141894269],[114.9306495237566,-0.192157600093148],[114.9228222752278,-0.192252960605613],[114.9169480915813,-0.204296034834142],[114.9241250016675,-0.217468844611426],[114.920413074204,-0.233377181611585],[114.9536260212239,-0.244830389610742],[114.9710929498798,-0.272621353692484],[115.0130262036964,-0.266186823163286],[115.0382228206267,-0.325768437563292],[115.0387467971271,-0.338081871381204],[115.0080942091805,-0.364149669671468],[115.0202766468499,-0.392182378713793],[115.0132029726392,-0.402661897028869],[115.0211694658982,-0.413228547959113],[115.0111070693358,-0.463181110419855],[115.0198836655987,-0.492916740615071],[115.0002345697697,-0.516888637400628],[115.0100591181339,-0.523831318160786],[114.9997105941686,-0.556841797211119],[114.9824273295577,-0.565231184071793],[114.977703608135,-0.588804325059547],[114.9479840901937,-0.612914738124617],[114.9230176943112,-0.617232076598986],[114.928353506909,-0.637168461755058],[114.8886413330312,-0.676299911911363],[114.8729220569074,-0.712585240716271],[114.8560964851647,-0.71812306083048],[114.8301524452792,-0.743313161273276],[114.789803967779,-0.750625991296408],[114.7920504041029,-0.763793927647585],[114.7782328109955,-0.768967078967433],[114.7648798337374,-0.758389977915089],[114.7365281702389,-0.768333822248016],[114.7310614802033,-0.784710307634542],[114.6534300505565,-0.859865572737897],[114.5280833333792,-0.849694443643648],[114.4683333326172,-0.834416667195439],[114.3932221999446,-0.835888887961714],[114.3637222218032,-0.855722221603175],[114.2758333326423,-0.864750000312211],[114.2342499996378,-0.859972222440122],[114.2178611108017,-0.83794444408081],[114.2189999996503,-0.8087499998126],[114.1734444439061,-0.811638889323232],[114.1529722219904,-0.795722221902986],[114.1210000003498,-0.729527778284281],[114.0957499996629,-0.629222222127781],[114.0630000002499,-0.577269444229403],[114.0783147226464,-0.552081022820941],[114.0518551167202,-0.533140512724442],[114.0470961949335,-0.509726617389441],[114.0148723438837,-0.479210030318614],[114.0147831140495,-0.454374404854788],[114.0038375940299,-0.44646269829485],[114.0095185574355,-0.422251681669719],[113.986854191268,-0.382574168563002],[113.9612281570539,-0.397961228827606],[113.9378967799126,-0.39456070421309],[113.9276621236082,-0.411762422797571],[113.9284711411303,-0.434367302409003],[113.9168117824379,-0.441077381615765],[113.922102117219,-0.466915354559985],[113.9000326157127,-0.467569705777196],[113.88093744111,-0.451508344634346],[113.8523244229339,-0.444667394284773],[113.8229975660849,-0.449307342959473],[113.8146189800819,-0.462716194196913],[113.7877807523798,-0.461039565623425],[113.7600000001001,-0.481661110971457],[113.7510467751886,-0.454389662752666],[113.7175865289951,-0.418583580867507],[113.7333214308394,-0.405245812044511],[113.7218780928997,-0.385843052215032],[113.6499599977558,-0.36327732908539],[113.632187058586,-0.345188743165961],[113.582921943293,-0.372008154352768],[113.5820128213347,-0.391359478357137],[113.5401931788722,-0.375904393372986],[113.5145458577052,-0.38642142870591],[113.5001917830244,-0.378761635740846],[113.4936980492256,-0.384346246681913],[113.468242614605,-0.380579880556978],[113.4674633673405,-0.360838931571353],[113.4787624630173,-0.360968807164655],[113.4915287558474,-0.312883004347134],[113.4548655247243,-0.308889066577114],[113.4437612410885,-0.29082350060399],[113.429423079012,-0.303395369000972],[113.4155332568544,-0.303733405272391],[113.4017857497126,-0.353578939416435],[113.3739007282361,-0.378066719703332],[113.3608492558886,-0.377579777284856],[113.333004128338,-0.395866128618907],[113.2390837272322,-0.37781307761138],[113.2202525423211,-0.334283001059601],[113.2599492370676,-0.293357542816322],[113.2574456818728,-0.281684385825701],[113.3054432782848,-0.254151689049101],[113.2970408062882,-0.239410928371589],[113.3016886177357,-0.230130944687248],[113.2874935512863,-0.223440136153366],[113.2922890224205,-0.205931910629145],[113.3302123764001,-0.151642525881782],[113.3564799599822,-0.136380841002984],[113.3852802107132,-0.13189752814842],[113.400710173136,-0.110524767404099],[113.4224821618224,-0.110469127248416],[113.4199068434261,-0.091664879730383],[113.4437809668183,-0.061287788300726],[113.4415347238484,-0.05406625475384],[113.4156769037663,-0.047781087227319],[113.4295506001802,-0.025459291712851],[113.4327521650804,0.009212429410097],[113.4178418821972,0.012983388372698],[113.395770641402,0.034346511982017],[113.4052007183385,0.064221987654653],[113.3932689109315,0.083300665093608],[113.4039903648635,0.08968134781597],[113.4142130161178,0.115655043745308],[113.3916969697394,0.140628677371632],[113.3094344029754,0.173817716814215],[113.2942835199685,0.207066603441072],[113.2617916673516,0.230049999607848],[113.3176077097281,0.267945288444357],[113.3499616234302,0.266167074251131],[113.359264007428,0.276382383440341],[113.4073117869095,0.258958428888453],[113.4147555339408,0.264695626002373],[113.4422642062282,0.259823134230361],[113.4927484227017,0.302413275352384],[113.5135040596647,0.304495192399232],[113.5439222447159,0.324693098607673],[113.5566376080393,0.351955534720203],[113.5866390337644,0.361749868561587],[113.5815307433492,0.398442703567989],[113.628778490435,0.413133645401428],[113.654915232552,0.439582840775563],[113.6472433769803,0.456574985846922],[113.6557094013678,0.461250021571333],[113.6639590425758,0.494473717288299],[113.6853193198308,0.49947459987296],[113.6929386154248,0.517605523176387],[113.7148365964318,0.526310741147837],[113.7196407280372,0.536210489022901],[113.7377887105806,0.538943438788683],[113.7518359266867,0.553203749253692],[113.7552587805682,0.570005122938186],[113.7974926273829,0.594939890563515],[113.8128125217806,0.576966134579513],[113.8260865844284,0.578510830810261],[113.83822183467,0.601978264585254],[113.8511304101404,0.608343323385727],[113.8215953503452,0.641715263348816],[113.8260777306028,0.648596968275525],[113.8368753283338,0.648350245567395],[113.8460887181199,0.660478612398061],[113.9212907713521,0.644001618779752],[113.9418865268418,0.652829260562024],[113.9617246997352,0.648160031760112],[113.9749962307915,0.660723747802747],[114.0039368288217,0.641074998212707],[114.0234163889553,0.667219527559235],[114.0459547232319,0.667921166029048],[114.0694477777928,0.682890194427019],[114.0694477777928,0.690166805153966],[114.0814296117873,0.689305848186381],[114.0908616672323,0.698275054949901],[114.123086665817,0.695364416234876],[114.1580006337223,0.67774338065256],[114.1642973269601,0.648526421856952],[114.1779721670818,0.636668323784148],[114.1766550002281,0.610369361057225],[114.1465019443093,0.59467741712915],[114.1472027428124,0.586398446331257],[114.1946841769333,0.582350503373094],[114.2030802781324,0.540071472820289],[114.2438433718742,0.522580049329877],[114.2546086110986,0.531683111186718],[114.2665705790691,0.527772426356441],[114.2919392785749,0.536603462180116],[114.3641036260815,0.53023601927695],[114.3587052521457,0.547992698704133],[114.3708766920058,0.55873901889065],[114.4303074999912,0.541624443713149],[114.4599433450094,0.55617955734075],[114.4633797417818,0.565073762444188],[114.4889505828033,0.570026217435979],[114.524457776805,0.562794833614719],[114.5456511407875,0.585186794235179],[114.5405976145882,0.620359333416529],[114.5458686418244,0.630559650007909],[114.5668123576042,0.624451067063189],[114.5978788702137,0.631781367316295],[114.6379337262605,0.660578975839085],[114.6394333340812,0.671419444252061],[114.6519834685623,0.674715983855576],[114.6623680616368,0.702728205442346],[114.6897694232204,0.707527806263306],[114.7161235989251,0.70124469098973],[114.760978056692,0.731700343595973],[114.7868086399069,0.730391363270863],[114.7935753871945,0.741343399778158],[114.8299076624088,0.755187754011663],[114.8527618340915,0.740391142737115],[114.872247221832,0.74106788887198],[114.9108128914019,0.770358952703562],[114.908504006155,0.790647674250808],[114.925575647698,0.771736807607601]]]]}},{"type":"Feature","properties":{"kode":"62.13","nama":"Kabupaten Barito Timur","lat":-1.9823283309237707,"lng":115.14395498149636},"geometry":{"type":"MultiPolygon","coordinates":[[[[115.3678124821604,-1.644391222676747],[115.3741421976044,-1.652694583987804],[115.3468789548,-1.674602818165452],[115.3437366938933,-1.70276140891186],[115.3340811146518,-1.715757429961398],[115.3344478455916,-1.747997436432483],[115.3104838889204,-1.799739596704944],[115.313509296417,-1.825434387686789],[115.2999357235549,-1.824381555864088],[115.3183456273489,-1.859875849990436],[115.3195394422915,-1.892080213630878],[115.379061473908,-1.889116644417557],[115.3918305312541,-1.890523449397621],[115.3965868351144,-1.899758389637965],[115.3995044183943,-1.886442509414257],[115.4091726133255,-1.899709925172901],[115.4202439152246,-1.892028293970574],[115.4169976693071,-1.912069582345291],[115.4309784084269,-1.924869388411457],[115.4212912620821,-1.9332725798656],[115.4327615023416,-1.933106869886084],[115.4317376898425,-1.946044866677157],[115.443292247839,-1.946698226841617],[115.4338853878005,-1.969860195991194],[115.4200569560637,-1.973957641232074],[115.4161111113388,-2.012777777572319],[115.3969444451301,-2.013055555669288],[115.3968789843778,-2.039088203957443],[115.4085827497941,-2.058281286851907],[115.3962412301487,-2.046718234758663],[115.3775020063126,-2.050868350593829],[115.3636111121632,-2.044166666558381],[115.3548888889112,-2.064861110951524],[115.3550174811719,-2.094501343761992],[115.3358194466102,-2.095754957325349],[115.2972751863009,-2.143721279813152],[115.3023506172871,-2.182639829864266],[115.2902716457199,-2.22394071998824],[115.2713333326673,-2.218583332654658],[115.2647087906783,-2.226327384900875],[115.243706039802,-2.191961680587065],[115.2405833328546,-2.198916666770659],[115.254151999915,-2.209390998695573],[115.1072584564128,-2.304929841339101],[115.0889841272158,-2.348757526938241],[115.0736147880921,-2.350742745281378],[115.0013643601771,-2.395722855425378],[114.9796730559669,-2.368762777679992],[114.9259166670206,-2.251319443837188],[114.9142761113535,-2.241438889293226],[114.945202419656,-2.220536949720378],[114.9171013513464,-2.226852612358135],[114.932034891597,-2.192148408622144],[114.9133982291451,-2.168370854431314],[114.9338696236842,-2.114909259654565],[114.9251666666084,-2.089330555860405],[114.9395555558444,-1.999788889045886],[114.9337212589291,-1.9882801775881],[114.9413226364307,-1.983581720819741],[114.9366585148787,-1.842531548392204],[114.9595999846516,-1.852383262577442],[114.9711174339224,-1.796401870849598],[115.0316105939538,-1.694034189026608],[115.0254499942219,-1.687537666430108],[115.0586110764401,-1.651525538172985],[115.0686282038285,-1.649495196346232],[115.0824371913234,-1.679117649559794],[115.1571303595784,-1.640330756659106],[115.3144866742207,-1.644661618239043],[115.3319768215731,-1.609257617844742],[115.362063630732,-1.620426973725822],[115.3678124821604,-1.644391222676747]]]]}},{"type":"Feature","properties":{"kode":"62.71","nama":"Kota Palangkaraya","lat":-2.0074642796321776,"lng":113.76747426266772},"geometry":{"type":"MultiPolygon","coordinates":[[[[113.7298900549821,-1.59046110809358],[113.7495012129107,-1.60574999476635],[113.7979722538166,-1.604061158795369],[113.8059180096085,-1.636138885301255],[113.8323625159175,-1.806450000567031],[113.8260569472703,-2.011399998211319],[113.8847709856925,-2.081811106597245],[113.9335197696217,-2.150239119939348],[113.9275089510772,-2.154608757588042],[113.9357007487906,-2.163437439885898],[114.0091981622654,-2.16213055498107],[114.1082873286973,-2.187888887562009],[114.0849678253049,-2.268849995031166],[114.0670983331216,-2.272188882810669],[114.056368781694,-2.29837632420791],[114.0417828482999,-2.310630007968387],[114.0249264738777,-2.403555118573822],[113.9939185197239,-2.394911103964217],[113.9629404428472,-2.40184455408288],[113.7619999997003,-2.401880555743022],[113.6899168501825,-2.243241539865151],[113.699671130918,-2.157046310638647],[113.6946902636448,-2.086529314276378],[113.5634014747983,-1.916450376983272],[113.566602633205,-1.907836901551699],[113.5569196003594,-1.903271289938038],[113.4893814895641,-1.786471150323246],[113.4756896603496,-1.680572419881246],[113.5020294540961,-1.644479320264372],[113.5310563546671,-1.654980555408228],[113.5638341862987,-1.653411106237515],[113.6161040138891,-1.626435645588556],[113.6481676839914,-1.584719239001656],[113.7298900549821,-1.59046110809358]]]]}}]}