{"type":"FeatureCollection","features":[{"type":"Feature","properties":{"kode":"63.01","nama":"Kabupaten Tanah Laut","lat":-3.8192252913431495,"lng":114.90532554996983},"geometry":{"type":"MultiPolygon","coordinates":[[[[114.616521886376,-4.061638220927113],[114.6178557743245,-4.063208127852727],[114.6145839381983,-4.064019517786457],[114.6151213550665,-4.06220958360535],[114.616521886376,-4.061638220927113]]],[[[114.9742737431388,-4.034934857357689],[114.9739816990962,-4.034813501941484],[114.9764993187886,-4.033635349591671],[114.9763885438963,-4.033792098726321],[114.9742737431388,-4.034934857357689]]],[[[114.6037853683001,-3.879802573330052],[114.6039523256394,-3.879827445879849],[114.6039132213182,-3.880061244430857],[114.6037562041855,-3.880010567633521],[114.6037853683001,-3.879802573330052]]],[[[114.7384365621977,-3.510664624972451],[114.7731527835741,-3.523264395735184],[114.8085987220535,-3.524298256359407],[114.811878564844,-3.539535118151152],[114.8473190750153,-3.550278779042307],[114.8445140122119,-3.557866190072525],[114.8575830402253,-3.559534918101884],[114.8567704577905,-3.569210544131243],[114.8688724358143,-3.554280450981986],[114.8821299761175,-3.556968174741451],[114.8942184463243,-3.543246219137666],[114.8847933498333,-3.556107242954878],[114.8940417538239,-3.566573084380289],[114.9054542504134,-3.562104595050977],[114.9107671941507,-3.567570003552747],[114.9348074672908,-3.612566170192524],[114.9320150075866,-3.623255374435955],[114.95617760831,-3.625814860267587],[114.9630594778128,-3.634130297675034],[114.9602671080406,-3.650922560327865],[114.9268347372334,-3.704269191170154],[114.9305121028514,-3.712161613567558],[114.9235921542546,-3.721810152916197],[114.9311070205726,-3.72875332740408],[114.9504326734292,-3.726402817935684],[114.9925702163425,-3.70114820642449],[115.0271851488756,-3.693061659967592],[115.0316256090347,-3.702330152114788],[115.0423221481486,-3.701748143262121],[115.089609614692,-3.673586680980526],[115.111285008996,-3.638450392571515],[115.1597854541354,-3.626967882861434],[115.1967274130397,-3.604698599660574],[115.2155111200422,-3.60437406041452],[115.2282905007061,-3.597065540841962],[115.2360192141155,-3.578208513911799],[115.2612723444433,-3.561829702878397],[115.2500000035974,-3.590833332592139],[115.2694444416078,-3.650000004296741],[115.2619444446805,-3.666666664934651],[115.2833333347656,-3.700000004196793],[115.3041666650596,-3.69499999665244],[115.3243611070795,-3.705527780682496],[115.3250000043468,-3.754999997251998],[115.3445861071632,-3.766647221392175],[115.353647230935,-3.813356669374704],[115.3669023385721,-3.817257286294742],[115.3716730342831,-3.827891496095573],[115.3665395070926,-3.853717517049729],[115.3772801399665,-3.858931652273936],[115.0202398915579,-4.006754610037147],[114.7091192903231,-4.169547041362856],[114.6700508475686,-4.177939975149661],[114.6283280989627,-4.169404973660543],[114.6192084032453,-4.160693714942967],[114.6301710823296,-4.1476637130099],[114.6243985085844,-4.06553899612774],[114.6352321952097,-4.060518332954624],[114.6378496018776,-4.028835809924638],[114.6023394778847,-3.808699379972394],[114.6098295579877,-3.794342080322702],[114.6113814299091,-3.741517836878641],[114.6231074139761,-3.711393859638859],[114.6206967281715,-3.672313421726939],[114.604352007739,-3.622488484755662],[114.5720653039707,-3.57104356211069],[114.5570781587301,-3.556284109923682],[114.513718486619,-3.542855664257408],[114.6054249124298,-3.534968502894101],[114.6929719441,-3.512611111313715],[114.7384365621977,-3.510664624972451]]]]}},{"type":"Feature","properties":{"kode":"63.02","nama":"Kabupaten Kotabaru","lat":-2.9847146871995758,"lng":116.06317722619141},"geometry":{"type":"MultiPolygon","coordinates":[[[[115.6499853150703,-4.941112562194919],[115.6513027121505,-4.941466237676709],[115.650167241625,-4.942744078076691],[115.6488105918354,-4.941316624662464],[115.6499853150703,-4.941112562194919]]],[[[115.6776121348922,-4.894222865792555],[115.6612377683085,-4.92656193528507],[115.6341253364152,-4.937643922928617],[115.6532353021676,-4.91226407272867],[115.6776121348922,-4.894222865792555]]],[[[115.8417648969325,-4.777604337969768],[115.8407214009719,-4.77737499106288],[115.8426520403594,-4.776308691892586],[115.8428548275883,-4.777219366980104],[115.8417648969325,-4.777604337969768]]],[[[115.8622867947,-4.777936247160033],[115.862482872087,-4.775686257614689],[115.864022184976,-4.775463636737401],[115.8637642117491,-4.776363295129896],[115.8622867947,-4.777936247160033]]],[[[115.8568303893111,-4.755036848571661],[115.8342066599094,-4.777228441139572],[115.8397121242152,-4.784030283570731],[115.8537235158277,-4.782184157073102],[115.8471576249245,-4.792560754275302],[115.8028504783669,-4.824391589000568],[115.765002842807,-4.837404225924205],[115.7926781172014,-4.797182928749136],[115.8568303893111,-4.755036848571661]]],[[[115.8796479675797,-4.75144036078399],[115.8774080108711,-4.751458256393429],[115.8771944839383,-4.750739961579933],[115.8801161159661,-4.749588820367714],[115.8796479675797,-4.75144036078399]]],[[[115.7526374155844,-4.690785196879313],[115.7406526902694,-4.708560194597291],[115.7111049203559,-4.726796746872333],[115.7074237649948,-4.719681341420737],[115.7188097180941,-4.706204273908002],[115.7526374155844,-4.690785196879313]]],[[[116.1712720978292,-4.405281998165636],[116.1701002128546,-4.405835223316837],[116.1693774520079,-4.40589768393094],[116.1710103573422,-4.404603851786318],[116.1712720978292,-4.405281998165636]]],[[[116.1725369241398,-4.403348447672675],[116.1712912758718,-4.403480507719218],[116.1722014203594,-4.401942186782451],[116.1724798171899,-4.402349075149628],[116.1725369241398,-4.403348447672675]]],[[[115.8363397285957,-4.381994803817138],[115.8374680809872,-4.385545168075014],[115.8365090664403,-4.385912219173507],[115.8340128910821,-4.380325043365987],[115.8363397285957,-4.381994803817138]]],[[[115.8086561894316,-4.363521097620529],[115.8146008970138,-4.369024970126281],[115.8094994693251,-4.376063945794398],[115.7957584660805,-4.369323318416354],[115.8086561894316,-4.363521097620529]]],[[[115.8222241658127,-4.33100197486114],[115.8217565003623,-4.333832907562554],[115.8131590346618,-4.335784797930023],[115.8187515362545,-4.328857289632174],[115.8222241658127,-4.33100197486114]]],[[[116.1250425235936,-4.224851212113714],[116.1241752102178,-4.228377572566869],[116.1211271200207,-4.229580390622425],[116.1202264939576,-4.233550998179927],[116.1190534200794,-4.229091412138944],[116.1250425235936,-4.224851212113714]]],[[[116.2476655513242,-4.089457073884864],[116.2474160263286,-4.089265130681222],[116.2480446362511,-4.088991613571993],[116.2480302417024,-4.0892939215772],[116.2476655513242,-4.089457073884864]]],[[[116.2084619539561,-4.085294726370472],[116.2136088117972,-4.096256019599556],[116.2064956222751,-4.1021221138444],[116.1997491484045,-4.0886178328466],[116.2084619539561,-4.085294726370472]]],[[[116.196447738972,-4.097665788745156],[116.1828901425661,-4.099130180913038],[116.1922091469346,-4.082053823325252],[116.1971243079405,-4.088939693911689],[116.196447738972,-4.097665788745156]]],[[[116.0594442963173,-4.077286355281087],[116.059348629136,-4.078726781415812],[116.057451627091,-4.078793151382756],[116.0578464708381,-4.077258756886051],[116.0594442963173,-4.077286355281087]]],[[[116.0455627479225,-4.076674184066301],[116.0491414588114,-4.088876124433563],[116.0442108816269,-4.09807310608892],[116.0412893773029,-4.087096617015254],[116.0455627479225,-4.076674184066301]]],[[[116.0488394934479,-4.068754042764835],[116.0494217262317,-4.071245833028739],[116.0457842842174,-4.075024625086312],[116.0482340923296,-4.063806624875779],[116.0488394934479,-4.068754042764835]]],[[[116.1784106230518,-4.043823507348934],[116.1786240591531,-4.050314813877501],[116.1633407275926,-4.057032615562742],[116.1671999649066,-4.048127591614994],[116.1784106230518,-4.043823507348934]]],[[[116.1437272853859,-4.039836415218348],[116.1428436960798,-4.039269748799848],[116.1434336441474,-4.038532423432597],[116.1438548883924,-4.038882496230103],[116.1437272853859,-4.039836415218348]]],[[[116.1379576263434,-4.038228920228429],[116.13699254497,-4.038266038846563],[116.1375213616216,-4.036582584418705],[116.1374242501291,-4.037707579641017],[116.1379576263434,-4.038228920228429]]],[[[116.1293071887758,-4.035190659621238],[116.1290028896717,-4.034399246328116],[116.1305794749628,-4.034382709594267],[116.130564669424,-4.034641529083308],[116.1293071887758,-4.035190659621238]]],[[[116.1986474159455,-4.025701922605565],[116.2086040027725,-4.026383094304345],[116.215072586131,-4.030310797005646],[116.2062996833837,-4.037719895856442],[116.1986474159455,-4.025701922605565]]],[[[116.1829536356019,-4.011643885856556],[116.1827359151305,-4.011518964628438],[116.1831428025984,-4.011251275126229],[116.1831356646793,-4.011511825810102],[116.1829536356019,-4.011643885856556]]],[[[116.2926575693914,-3.92180530157338],[116.2905154157539,-3.921173624063437],[116.2904195920905,-3.920678475331288],[116.2914826977684,-3.919963177058941],[116.2926575693914,-3.92180530157338]]],[[[116.0523743488972,-3.909642582439135],[116.0524278873372,-3.909901347968761],[116.0518954823907,-3.909966782640842],[116.0520204036189,-3.909675298875895],[116.0523743488972,-3.909642582439135]]],[[[116.310126346154,-3.883143877587861],[116.308832222629,-3.88250894812934],[116.3078280234446,-3.881376240321169],[116.3099965658888,-3.88250940858226],[116.310126346154,-3.883143877587861]]],[[[116.3112926265535,-3.882314554273217],[116.3105783660987,-3.882014323702057],[116.3104518836476,-3.88134798811908],[116.3114714153736,-3.881405830714504],[116.3112926265535,-3.882314554273217]]],[[[116.2961011706326,-3.84674476116176],[116.2946443156827,-3.845627946172739],[116.2957425263966,-3.844078596849767],[116.2965022961441,-3.844547684128299],[116.2961011706326,-3.84674476116176]]],[[[116.321334423245,-3.815827159195953],[116.3142494400597,-3.844221296775421],[116.2972658295545,-3.8464028083429],[116.3095712018495,-3.825157165870488],[116.321334423245,-3.815827159195953]]],[[[116.3153331060381,-3.785677178958638],[116.3133288769263,-3.784144995894748],[116.3139996704485,-3.782516579976106],[116.3164255278159,-3.783716556174069],[116.3153331060381,-3.785677178958638]]],[[[116.3375933321666,-3.723852376585837],[116.3363769217576,-3.723375000255993],[116.3365724082901,-3.72230005860075],[116.3382575237658,-3.72244182413082],[116.3375933321666,-3.723852376585837]]],[[[116.3442781997791,-3.703217586922028],[116.3484346504388,-3.707422442691557],[116.3454783000835,-3.711404331344761],[116.3417813229498,-3.703794173762079],[116.3442781997791,-3.703217586922028]]],[[[116.3472977679777,-3.702463231093203],[116.3469702897471,-3.701313705962741],[116.3488346616904,-3.700652652098116],[116.3486635602751,-3.701313555775945],[116.3472977679777,-3.702463231093203]]],[[[116.3038375786413,-3.682586434116589],[116.3035787366695,-3.682554625995119],[116.3035344972193,-3.682457429966382],[116.3036966171053,-3.68241307270514],[116.3038375786413,-3.682586434116589]]],[[[116.3036120205784,-3.682220070100131],[116.3034532155935,-3.682196102268234],[116.3034696965694,-3.682002406285958],[116.303687853212,-3.682047280657466],[116.3036120205784,-3.682220070100131]]],[[[116.3802643547162,-3.66940312925095],[116.3820233665851,-3.671358437042185],[116.3797271869602,-3.673131134793975],[116.3794832917206,-3.668711287096185],[116.3802643547162,-3.66940312925095]]],[[[116.383456982154,-3.664462837589857],[116.3833751285594,-3.664384791724709],[116.3834893433585,-3.664285806045056],[116.383536931884,-3.664403827674414],[116.383456982154,-3.664462837589857]]],[[[116.6067105693374,-3.658589338327259],[116.604320685751,-3.660992658684206],[116.6034481868844,-3.655620940653817],[116.6063745808222,-3.656798769247763],[116.6067105693374,-3.658589338327259]]],[[[116.385452518419,-3.658446998130385],[116.3831122684166,-3.657040525899527],[116.3847826493998,-3.654018611369805],[116.3866957358196,-3.65561760776634],[116.385452518419,-3.658446998130385]]],[[[116.6156089670802,-3.658376014641343],[116.6132678546279,-3.655847880974841],[116.6155005780893,-3.653701011292545],[116.6174948615986,-3.655552856578995],[116.6156089670802,-3.658376014641343]]],[[[116.3083713812344,-3.593495914005176],[116.307669439693,-3.593460221711878],[116.3075504665808,-3.592710691645065],[116.3081810244348,-3.593067610981374],[116.3083713812344,-3.593495914005176]]],[[[116.3349022368488,-3.593767880683155],[116.3505924028172,-3.60334759131822],[116.3388997323368,-3.618480962726236],[116.3345453184118,-3.614169379013601],[116.3349022368488,-3.593767880683155]]],[[[116.3074195963373,-3.590914198731257],[116.3081096398481,-3.591152144955492],[116.3063012498029,-3.59216341640847],[116.306420222915,-3.590188462927182],[116.3074195963373,-3.590914198731257]]],[[[116.4034642419813,-3.585283468757064],[116.403419507904,-3.585284421139059],[116.4033700146146,-3.585215892799168],[116.403453772074,-3.585213036552373],[116.4034642419813,-3.585283468757064]]],[[[116.403447416565,-3.58500099799757],[116.4034848931134,-3.585037879194688],[116.4034200528933,-3.585051560581023],[116.403411725171,-3.58500218690139],[116.403447416565,-3.58500099799757]]],[[[116.4033772226807,-3.584802649822352],[116.4033429594101,-3.584795511003927],[116.4033508113909,-3.584765530304937],[116.4033986382366,-3.584786944961474],[116.4033772226807,-3.584802649822352]]],[[[116.4035220836774,-3.584532486285211],[116.4034868680247,-3.584522967860584],[116.4034868680247,-3.58449822211522],[116.4035268428895,-3.584514401818131],[116.4035220836774,-3.584532486285211]]],[[[117.4570475517033,-3.508414185765998],[117.4580999518515,-3.509531677944524],[117.4567476799615,-3.511343119389368],[117.4559553196823,-3.510493651260996],[117.4570475517033,-3.508414185765998]]],[[[116.299281579881,-3.507441425981009],[116.2961852860221,-3.507332909286268],[116.2949681759406,-3.506747327427176],[116.3023206157039,-3.506582508675729],[116.299281579881,-3.507441425981009]]],[[[116.3712868103381,-3.371177054277632],[116.3689097286012,-3.369474548611498],[116.3700911311009,-3.366911870186653],[116.3721541237139,-3.369363905020142],[116.3712868103381,-3.371177054277632]]],[[[116.4099055219224,-3.361392958318346],[116.4313834529841,-3.367549604630485],[116.4346717350127,-3.421640017972363],[116.4063018296657,-3.534741391701759],[116.3987887907701,-3.627143074393294],[116.3868534148532,-3.627209698868475],[116.3818572114412,-3.650569621390856],[116.3614448861726,-3.652987430725288],[116.3430675819035,-3.568200555111536],[116.3126242140363,-3.554842839325525],[116.3452389122461,-3.451592698644104],[116.3909874247299,-3.412501835791007],[116.4099055219224,-3.361392958318346]]],[[[116.1859608561086,-3.234944307233947],[116.1860941059584,-3.240578871018032],[116.1829650201197,-3.243150717131885],[116.1830246011045,-3.236176867668197],[116.1859608561086,-3.234944307233947]]],[[[116.2597548668937,-3.212041430067883],[116.2695428659106,-3.221102719314997],[116.2803333032394,-3.214233416039283],[116.2813355419018,-3.222679045601387],[116.2723375343499,-3.238497727388159],[116.273854633085,-3.283214559204486],[116.2493655496804,-3.375209572064078],[116.259382495406,-3.397628465581162],[116.3008787362647,-3.438393458691083],[116.3141269452024,-3.475270818393453],[116.3133269110082,-3.504520435169914],[116.2928942259878,-3.506906701682924],[116.2735815953144,-3.524045288759028],[116.2714930907337,-3.546895394606755],[116.3061537232159,-3.590159910351501],[116.2893692720743,-3.614238098009784],[116.3009418443906,-3.640064394156431],[116.2950794121852,-3.670842576024016],[116.3050676884231,-3.682133161416237],[116.3005192322768,-3.713136447189205],[116.3146952879572,-3.728583146894662],[116.3391388063108,-3.728398169839656],[116.3147972458962,-3.77300419888458],[116.2762197205637,-3.797614697959853],[116.2711946606052,-3.816420443748461],[116.2859318860478,-3.842105787352137],[116.2984703752077,-3.848216978330823],[116.2948241018509,-3.862941720284121],[116.3055953071778,-3.870026865347478],[116.3167015909057,-3.862620409604192],[116.3039952999432,-3.885948025780708],[116.3102104723354,-3.916489013257321],[116.2901253635947,-3.919148381392626],[116.2865318408718,-3.909177332567795],[116.27337214321,-3.906967938419628],[116.2435040707564,-3.94226444015178],[116.2074885475585,-3.951536364111854],[116.2022805636971,-3.970289485171532],[116.2099858623577,-3.985325602094816],[116.1935804637675,-3.984569211999458],[116.1724418469138,-3.9969317119289],[116.1433207081842,-4.034992154064623],[116.1213488406765,-4.027134692811776],[116.1158620660815,-4.039270458364877],[116.1090747782785,-4.034843874744956],[116.0981679210127,-4.076185087771547],[116.0910107771257,-4.085667855087463],[116.0947216272014,-4.070941105847295],[116.0836938695764,-4.070818049813132],[116.0968996341108,-4.055398507834765],[116.0849500938718,-4.057096577145261],[116.0870442066249,-4.050208788304912],[116.0722072724478,-4.048395559007803],[116.0687359091349,-4.037029192243383],[116.055758429408,-4.042313864892913],[116.054889856082,-4.0525345025652],[116.0483344530726,-4.062141478846096],[116.0494712033334,-4.035490659066612],[116.0388891569091,-4.022759593580341],[116.0433599494022,-4.010934829778526],[116.0482138126174,-4.014561481726966],[116.0559688707668,-4.006604429550789],[116.050020201671,-3.989353804934106],[116.0650247308068,-3.963559359177074],[116.0685412041133,-3.937305319384945],[116.0774682569546,-3.931067315903894],[116.0726061991169,-3.907682715085128],[116.0569730753471,-3.903759374995078],[116.0651388637676,-3.894859565316702],[116.0622028911506,-3.849252544069584],[116.073964043206,-3.848565506093207],[116.0813659843527,-3.82506304282513],[116.0529410422953,-3.760786166048627],[116.024223206336,-3.729567196768604],[116.0211153795711,-3.707117660651507],[116.0057488391377,-3.681789991814613],[116.0117453063009,-3.643313809284868],[116.0023596621688,-3.637984557241472],[116.0106263032614,-3.627841596712214],[116.0099751491339,-3.612059474165344],[116.0366140870706,-3.582101661062767],[116.0411731741027,-3.563075798109574],[116.0356817554087,-3.557816803802341],[116.047058965299,-3.543621535905109],[116.0393192873553,-3.480974165025666],[116.0694832664396,-3.439423783180986],[116.1037831889431,-3.355015541933673],[116.0981246006699,-3.348793136294129],[116.1142373104036,-3.307532674293403],[116.1234147156167,-3.298726859057213],[116.1391987842965,-3.301724426241195],[116.2597548668937,-3.212041430067883]],[[116.224018540923,-3.239126248277627],[116.2240107069286,-3.239137220905944],[116.2240111988579,-3.239136562602221],[116.224018540923,-3.239126248277627]]],[[[116.2634987670546,-3.090196523650571],[116.2659496120851,-3.093622947840727],[116.2654261302118,-3.097858388653643],[116.2597868081148,-3.094884061750028],[116.2634987670546,-3.090196523650571]]],[[[116.2755559723303,-3.079018649391132],[116.2823802663363,-3.082711573280486],[116.2783446998481,-3.093428664601186],[116.2718059405918,-3.089688152186445],[116.2755559723303,-3.079018649391132]]],[[[116.2783185259792,-3.06886311004442],[116.2831131400594,-3.069101056268655],[116.2836842095587,-3.07048114329003],[116.281423722227,-3.072289534234576],[116.2783185259792,-3.06886311004442]]],[[[116.1741242005715,-3.036633374730416],[116.186454723307,-3.043126699337664],[116.1746906682398,-3.060615736926644],[116.1674523470482,-3.041813235892013],[116.1741242005715,-3.036633374730416]]],[[[116.1053425827941,-2.995081499111832],[116.1118096310097,-3.000121800780489],[116.1095493855957,-3.003155316564568],[116.1082336279796,-3.009096523985358],[116.0997974799698,-2.999526381237485],[116.0979917483207,-2.998895650713676],[116.0948746540421,-2.999514309637588],[116.0938514863571,-2.99883616415755],[116.1053425827941,-2.995081499111832]]],[[[116.1266911068092,-2.993470603785278],[116.1323304298055,-2.995026771768019],[116.1311882881091,-3.00069464823938],[116.1430665579753,-3.011687756784534],[116.1096874791939,-3.006933594209984],[116.1153006274221,-2.995212369355363],[116.1266911068092,-2.993470603785278]]],[[[116.0984605019506,-2.989787074214048],[116.1021977201487,-2.986431564265215],[116.1066934373523,-2.9862178817498],[116.1042123948862,-2.988409077217094],[116.0984605019506,-2.989787074214048]]],[[[116.0971708336671,-2.985858583706571],[116.0986723669363,-2.982970988320391],[116.1023818536397,-2.982717695165407],[116.1017393986544,-2.984345245936273],[116.0971708336671,-2.985858583706571]]],[[[116.1469495886527,-2.989329810322408],[116.1767798338224,-2.998219131207927],[116.1695224775804,-3.038136969245711],[116.1554503457569,-3.029956381581725],[116.1598190364194,-3.013124074816156],[116.1338353220425,-2.997805104921605],[116.1385609320414,-2.989510304257051],[116.1364799610814,-2.9769328177953],[116.1469495886527,-2.989329810322408]]],[[[116.1340480629679,-2.98580459470619],[116.1349903303395,-2.993628263033868],[116.1233833193847,-2.988417243960642],[116.1345288027622,-2.974838892101131],[116.1340480629679,-2.98580459470619]]],[[[116.1305434040549,-2.833691941829633],[116.1300104046566,-2.832920997106283],[116.1302340741432,-2.831912105259418],[116.1313143487782,-2.833016175056427],[116.1305434040549,-2.833691941829633]]],[[[116.1289063348595,-2.831598016135464],[116.12856369316,-2.83132199891101],[116.1290586197596,-2.831103087737288],[116.129125245134,-2.831469524598853],[116.1289063348595,-2.831598016135464]]],[[[116.1263550769253,-2.828485205327949],[116.1225860110357,-2.828142562729033],[116.1226716705612,-2.823845255753879],[116.1263979071377,-2.827571492330419],[116.1263550769253,-2.828485205327949]]],[[[116.1901139433039,-2.307866596366262],[116.2358251671977,-2.309114117022817],[116.236310000706,-2.32788999992353],[116.2551699998957,-2.335139999711158],[116.3276577903748,-2.340760079913709],[116.4626400013351,-2.387220000202797],[116.5467966347569,-2.408711163889057],[116.5471231219347,-2.402307688748786],[116.5556552267074,-2.411701725354279],[116.5462429491529,-2.459228356703205],[116.5232298222985,-2.515539501946387],[116.5309171327195,-2.537102058313303],[116.512104299374,-2.562052895025049],[116.4804893217249,-2.571256642280131],[116.478164588625,-2.516835988889701],[116.448847743029,-2.502286132698808],[116.418185597987,-2.500875310447162],[116.3982344360704,-2.52864969462763],[116.361297140151,-2.52495063556333],[116.3532664586802,-2.517633793664567],[116.335610857655,-2.534349506924174],[116.3016797444247,-2.519727719358736],[116.2889972171479,-2.533445312351271],[116.3173683239891,-2.542328484571835],[116.3230314412481,-2.58072852420195],[116.3321328789293,-2.580639294367851],[116.3575153038882,-2.549588754617263],[116.3595521217331,-2.563275415428093],[116.3782261321304,-2.567748801565875],[116.3914178636436,-2.587298453061118],[116.4149079027776,-2.578066145136473],[116.3803581288247,-2.631556428286499],[116.3670902553111,-2.66833337688375],[116.3587954537472,-2.765396350960783],[116.3719158015731,-2.804429028576719],[116.358681238948,-2.86481499121887],[116.3639159389695,-2.877865035442964],[116.3444488902041,-2.893731470331032],[116.3155981632248,-2.947336301928763],[116.2699955549509,-3.002534704313112],[116.2205360790769,-3.007840902235762],[116.210290120093,-2.99664791666803],[116.2071016421271,-2.938455818681065],[116.1811179178577,-2.950384280610033],[116.1487762942907,-2.934862832853449],[116.1444742281031,-2.916207858405853],[116.148129080093,-2.899485006327909],[116.1553245701729,-2.900151255575947],[116.155911503713,-2.870996512778826],[116.1349496899762,-2.826424592321056],[116.1441296510626,-2.792407817766465],[116.1177461871369,-2.824687585963284],[116.1339784527435,-2.848893129314403],[116.1326459551468,-2.864764133657774],[116.121010390717,-2.871831528801996],[116.1309089487891,-2.876323951788853],[116.131632304987,-2.885784689311846],[116.1034023800159,-2.916984181075025],[116.1009467757732,-2.933621372728082],[116.1049252353113,-2.948907029935446],[116.1225142100629,-2.961699012799171],[116.117983716975,-2.967923682931575],[116.1117752067604,-2.963643527826479],[116.1137382622111,-2.973310087790251],[116.0886963700415,-2.987677359122712],[116.0925391281782,-2.999609252864646],[116.1026058657682,-3.008533206642097],[116.1079147292814,-3.010089944795061],[116.1184938124395,-3.009697334064645],[116.1217132225872,-3.015224821868026],[116.1580518757935,-3.01500686397558],[116.1535594528065,-3.031834412428205],[116.1729568194017,-3.062044049193416],[116.2123235052257,-3.077917220003615],[116.2183846156575,-3.093016550273544],[116.2367005232107,-3.094025467301423],[116.2679218217347,-3.11011535673831],[116.2743035359795,-3.125491433582697],[116.2112637270394,-3.127609279444668],[116.1808124963997,-3.161021294996738],[116.1711090543395,-3.15663862527227],[116.167303502055,-3.17446078793491],[116.1836575376654,-3.228929029850816],[116.176559326352,-3.250880033086981],[116.0922241712086,-3.283008428296322],[116.0844221540592,-3.277535273034429],[116.0815515747454,-3.257360669159473],[116.0704399994065,-3.265040005291977],[116.0604606282555,-3.256880811600096],[116.0413099996568,-3.261489999863512],[115.9900402847315,-3.219950134690899],[115.9739420846596,-3.223733890106908],[115.9639103990457,-3.246911054201787],[115.9468110053238,-3.253910040615862],[115.9280807756073,-3.227272538896456],[115.9513096776996,-3.193333000817303],[115.9341800002069,-3.152380001735613],[115.8405330235803,-3.170245369628047],[115.8289078400249,-3.186577774744473],[115.7922799999221,-3.181799999570314],[115.7688136741118,-3.195165775979694],[115.7484043813572,-3.159023312575718],[115.740933195111,-3.159294238738111],[115.7305476712381,-3.11840238096506],[115.7108839560297,-3.114070797229454],[115.71661725818,-3.097701831973934],[115.70619220011,-3.09607375509964],[115.711200785388,-3.088340608032583],[115.7031424704487,-3.078566952302955],[115.6878099999316,-3.080410001320447],[115.6818362451466,-3.072091374916999],[115.6782844590606,-3.085655650587762],[115.6649626037413,-3.06489834088566],[115.651111885905,-3.071090838671234],[115.637039998697,-3.056540004017874],[115.6227800011962,-3.069470002238786],[115.5916000301173,-3.03586329155763],[115.584502796367,-3.004957167639136],[115.5767756882475,-3.020453485639754],[115.5668910921503,-3.012560588400406],[115.5178550908398,-3.026989533440164],[115.5121092053757,-3.008366250202224],[115.5260477662914,-2.998394526885908],[115.5328998142751,-2.979966750864874],[115.5572587828666,-2.984619261269897],[115.5542129607596,-2.944475078262235],[115.5771962876786,-2.930856978166998],[115.5958119707459,-2.891637121056226],[115.5772556420343,-2.88348307958042],[115.5715831403498,-2.851649153885274],[115.5556388889237,-2.834611111013954],[115.5895749574185,-2.760169769119505],[115.666749277857,-2.765979930929044],[115.6608138368891,-2.748058523581934],[115.6687317838448,-2.739215938664577],[115.6652296448323,-2.721120430663307],[115.7076669947361,-2.702173733231186],[115.7155482205739,-2.691572547435042],[115.7094217689995,-2.67675063823132],[115.7165512056737,-2.664561780301858],[115.7151638593246,-2.676707072373466],[115.7320317882366,-2.684559266297073],[115.746895467352,-2.666666311700874],[115.7341387352145,-2.657569923712957],[115.7271677932591,-2.638789831985092],[115.676716143935,-2.613095165109749],[115.6896252509047,-2.590388348243591],[115.711590638797,-2.590040655052109],[115.744498997131,-2.616815535408604],[115.7569440521264,-2.600226405324316],[115.756944000865,-2.616665998836678],[115.8090408465579,-2.616669059229684],[115.8195773090456,-2.601397876610692],[115.818672484048,-2.561897348283962],[115.7960176363049,-2.567896936094696],[115.7812411347707,-2.545802096189734],[115.7708286393303,-2.554434889958104],[115.7593668149266,-2.552522508606872],[115.750583025886,-2.532390555979338],[115.7820319338268,-2.514086259573192],[115.7946818831624,-2.478632094095781],[115.7907009576831,-2.435293249383877],[115.8124271771726,-2.404857477190772],[115.8264303094113,-2.392550023864517],[115.8572819838765,-2.386044466678763],[115.8739739028734,-2.370679098061926],[115.8875130361977,-2.374272083889542],[115.889827122224,-2.337127309877454],[115.9116093937585,-2.336123494703449],[115.9260249730741,-2.325267301644621],[115.9459632908732,-2.329932604006471],[116.0039536016774,-2.315308034837907],[116.0139781241911,-2.322203747604837],[116.0330410050384,-2.307385592171299],[116.0451449786578,-2.328722149807374],[116.0630685623644,-2.325729679081403],[116.079665129842,-2.336413026040221],[116.1048790002657,-2.326984999558038],[116.1136097517887,-2.337747652332281],[116.1496946639776,-2.324131338290572],[116.1544934985762,-2.308166531060499],[116.1901139433039,-2.307866596366262]]]]}},{"type":"Feature","properties":{"kode":"63.03","nama":"Kabupaten Banjar","lat":-3.3204891607980764,"lng":115.07991110674344},"geometry":{"type":"MultiPolygon","coordinates":[[[[115.5868953437451,-2.88612704682574],[115.5958119707459,-2.891637121056226],[115.5771962876786,-2.930856978166998],[115.5542129607596,-2.944475078262235],[115.5572587828666,-2.984619261269897],[115.5422352951229,-2.977289468234348],[115.5275604349662,-2.984152568885959],[115.5260477662914,-2.998394526885908],[115.5109041264244,-3.012384665719717],[115.5194184866739,-3.02028579895042],[115.5190734509791,-3.033295085000168],[115.4994566893748,-3.042366523995879],[115.495934739197,-3.058875823060772],[115.4834344271571,-3.062819362823246],[115.48031754332,-3.075494429324424],[115.4903722659674,-3.092212865731161],[115.4838631906337,-3.099122110596822],[115.4787321113979,-3.095162552110045],[115.4713372497143,-3.112829442324896],[115.4604436529523,-3.108249510806241],[115.445418270337,-3.122829565332166],[115.4344153304032,-3.119235412184443],[115.4323438239084,-3.136623646563999],[115.4235854614,-3.141927051192431],[115.4183428410494,-3.181910518155886],[115.4244740032727,-3.201344461077918],[115.4147352079635,-3.222251979145499],[115.4205924079133,-3.227966132930662],[115.4456716048607,-3.224992559658871],[115.4474948463102,-3.240824700699266],[115.4365114027791,-3.259874062038273],[115.4245726858808,-3.259596777669119],[115.4022337807644,-3.236282114427949],[115.392056809674,-3.250351659801234],[115.4288786866022,-3.29599372043379],[115.4158721093105,-3.315850751211149],[115.416633685796,-3.336905367788459],[115.4031879587574,-3.340962149283724],[115.3960969591074,-3.362374499983181],[115.3907296756341,-3.437426072355334],[115.4115081122096,-3.451669131125426],[115.3515975761673,-3.503392758169158],[115.3049628816317,-3.516692852593087],[115.2705680069081,-3.558217551598622],[115.2360192141155,-3.578208513911799],[115.2256201824256,-3.599013537144982],[115.1869615337479,-3.60814237626961],[115.1218899098915,-3.640669854630099],[115.111285008996,-3.638450392571515],[115.089609614692,-3.673586680980526],[115.0413913309452,-3.702198162215423],[115.0316256090347,-3.702330152114788],[115.0271851488756,-3.693061659967592],[114.9925702163425,-3.70114820642449],[114.9504326734292,-3.726402817935684],[114.9311070205726,-3.72875332740408],[114.9235921542546,-3.721810152916197],[114.9305121028514,-3.712161613567558],[114.9268347372334,-3.704269191170154],[114.9602671080406,-3.650922560327865],[114.9630594778128,-3.634130297675034],[114.95617760831,-3.625814860267587],[114.9320150075866,-3.623255374435955],[114.9348074672908,-3.612566170192524],[114.9107671941507,-3.567570003552747],[114.9054542504134,-3.562104595050977],[114.8940417538239,-3.566573084380289],[114.8847933498333,-3.556107242954878],[114.9052380003335,-3.532147999630444],[114.9064444435564,-3.497333333066857],[114.890833334291,-3.472222221877955],[114.9013888893858,-3.475000000149889],[114.9048346507985,-3.454455584257746],[114.8737339999242,-3.439163999618769],[114.8650040002345,-3.445764000008536],[114.845063986314,-3.437542404158547],[114.8399689483084,-3.425486242096357],[114.8294490000713,-3.430512999974924],[114.7838142599202,-3.421200312444375],[114.7476199730833,-3.391058257932203],[114.7391608887641,-3.389686163185848],[114.7358055559817,-3.398416665596551],[114.7365699383521,-3.384139359743601],[114.719252948265,-3.377498234256018],[114.6745789997211,-3.460816999904617],[114.6820953049544,-3.517774489700878],[114.6054249124298,-3.534968502894101],[114.513718486619,-3.542855664257408],[114.4988191098141,-3.518871935091708],[114.5127199108953,-3.513178748999993],[114.515132113856,-3.501720788083842],[114.5197587237861,-3.432788434038939],[114.5067537859585,-3.387968921228682],[114.5222812861525,-3.363419451046815],[114.5490207736898,-3.374026486033513],[114.5698706452142,-3.366780096124502],[114.5666202678112,-3.373580343158247],[114.5861500209068,-3.382140004057879],[114.5957299626677,-3.36678997607647],[114.6159498537029,-3.368429495924444],[114.6329400688292,-3.346482852601509],[114.6570197529593,-3.348350049315288],[114.6595890746761,-3.335597362328338],[114.6283235573864,-3.313124573340323],[114.6386111109141,-3.275611110564183],[114.767159449649,-3.226951220122645],[114.7803719087367,-3.230544155588325],[114.7890839426699,-3.202769998936253],[114.7984323692585,-3.210093899613733],[114.8219361311476,-3.200656335821142],[114.8255555561441,-3.165138888648736],[114.8690555557694,-3.136555556193946],[114.8692222217282,-3.064027778259318],[114.8305555555946,-3.094499999974934],[114.8283611108766,-3.015333333166728],[115.0257499999626,-3.134250000237307],[115.031277778247,-3.144805556231381],[115.0251388890486,-3.16288888921086],[115.054666667033,-3.172361111076397],[115.0645833329545,-3.167805555681793],[115.1230555562689,-3.196111110938984],[115.1485555558943,-3.185444443706034],[115.1656757392441,-3.188159405232296],[115.1752296789066,-3.162479292984946],[115.1899266776741,-3.162897009189594],[115.1985743777055,-3.175166387019049],[115.2376388886239,-3.16677777807193],[115.2443611113763,-3.155666666783199],[115.2419444441808,-3.135805555781682],[115.2114444442058,-3.125416666645789],[115.1811666667083,-3.130694444193141],[115.1679722219405,-3.114666667332758],[115.1969166672704,-3.085527777784661],[115.2163333333167,-3.047305555706783],[115.2385555558942,-3.04786111100144],[115.2829166671705,-2.993805556281329],[115.3396051742394,-2.964968752605815],[115.3521174382692,-2.975515499740469],[115.3500139662716,-2.981637689427766],[115.3874999997253,-2.979027777709733],[115.398611111014,-2.995861110601686],[115.4124999996753,-2.982250000037448],[115.4350000003497,-2.97694444423067],[115.4464789910126,-2.957069981894092],[115.4653333325673,-2.941111111088881],[115.477727944589,-2.940267736766591],[115.4853888886863,-2.917277778246843],[115.5465793947233,-2.83049954371897],[115.5557413882546,-2.831135043347535],[115.5715831403498,-2.851649153885274],[115.5772556420343,-2.88348307958042],[115.5868953437451,-2.88612704682574]]]]}},{"type":"Feature","properties":{"kode":"63.04","nama":"Kabupaten Barito Kuala","lat":-3.091203780019246,"lng":114.6302205750246},"geometry":{"type":"MultiPolygon","coordinates":[[[[114.8597426946697,-2.526632715827118],[114.8043422254134,-2.742284381419038],[114.8114583287389,-2.806774250031621],[114.8394194553437,-2.869968606565878],[114.7991581644178,-2.956758386590222],[114.8149329997582,-2.992208999745552],[114.8266262080332,-2.992831720007841],[114.8305555555946,-3.094499999974934],[114.8692222217282,-3.064027778259318],[114.8690555557694,-3.136555556193946],[114.8255555561441,-3.165138888648736],[114.8219361311476,-3.200656335821142],[114.7984323692585,-3.210093899613733],[114.7890839426699,-3.202769998936253],[114.7803719087367,-3.230544155588325],[114.767159449649,-3.226951220122645],[114.6251210508958,-3.285062921416662],[114.607889194231,-3.279878191325361],[114.6019269957343,-3.288921599352326],[114.5688553403017,-3.267411271113277],[114.5617554085853,-3.315206586614641],[114.5067537859585,-3.387968921228682],[114.5197587237861,-3.432788434038939],[114.5127199108953,-3.513178748999993],[114.4988191098141,-3.518871935091708],[114.4851550201881,-3.499405658843971],[114.4293338687632,-3.499659657067491],[114.3705169110267,-3.472256924017783],[114.3651568931762,-3.46153243757186],[114.3530062699235,-3.464373648624955],[114.3470977600537,-3.420092761371832],[114.3628299990053,-3.387119997190061],[114.3514700003403,-3.368369998576506],[114.3604600030268,-3.359120003685215],[114.3495500026306,-3.348769995838621],[114.3621499973245,-3.329879998862831],[114.3599399970333,-3.316440002304224],[114.3747871439116,-3.287009464415183],[114.4359299975714,-3.242609995255011],[114.4494900041604,-3.20956000179258],[114.4236600019076,-3.179919998309247],[114.5261099995768,-3.086670001319439],[114.5182300013136,-3.077750000961712],[114.5241399977627,-3.072470002088926],[114.5335300018082,-3.081329996082419],[114.5458100042284,-3.06782999855553],[114.528059995972,-3.044859999589258],[114.5330300003343,-3.034560002142308],[114.5190599973211,-3.009800001568744],[114.5225829772227,-3.004298432226873],[114.5052199976049,-2.999699999855101],[114.5301500024207,-2.969800000569547],[114.5259121118545,-2.952717006884312],[114.5361048624495,-2.959482859346421],[114.5442256883649,-2.949001358925488],[114.5168699970528,-2.919609997303477],[114.5383900037957,-2.927310002554487],[114.5538142312419,-2.891851692101868],[114.5899852957848,-2.909725334656413],[114.5963245503378,-2.89646048106629],[114.5611034099944,-2.877530546097764],[114.567239996029,-2.863969998116891],[114.5988899986745,-2.890839998866815],[114.6152899977353,-2.884460003226577],[114.5976813727972,-2.815599380007308],[114.666672157594,-2.798619325421539],[114.6793971076904,-2.778811687209595],[114.6705001263798,-2.754649278941004],[114.6793497287071,-2.738585071443802],[114.7180343893755,-2.740820305812422],[114.7620201596028,-2.720391581406359],[114.7907574622872,-2.669882032829454],[114.7964850780241,-2.592766856305298],[114.8331643548512,-2.562463467015322],[114.8597426946697,-2.526632715827118]]]]}},{"type":"Feature","properties":{"kode":"63.05","nama":"Kabupaten Tapin","lat":-2.921620499819032,"lng":115.04512934910362},"geometry":{"type":"MultiPolygon","coordinates":[[[[115.0046566432896,-2.763434272173873],[115.0322926254044,-2.782177726420867],[115.0741293316034,-2.786424234290921],[115.0628090002352,-2.834002000192084],[115.0680180003306,-2.844773999620356],[115.0855040000097,-2.840957999911689],[115.0943959999755,-2.828866999912075],[115.1760091339145,-2.856106762317159],[115.1885825095752,-2.870331518984395],[115.2173473602925,-2.875379230167299],[115.2316799996323,-2.868319999967975],[115.2659968572692,-2.930280537017074],[115.2956960001703,-2.932909999996427],[115.302157999592,-2.922113000314644],[115.3510334314477,-2.936052642215595],[115.3812461618809,-2.91588488667818],[115.3845650604293,-2.904350201000907],[115.3752189729774,-2.895564598927061],[115.3824058205722,-2.881720331927776],[115.4118557208649,-2.892343003426825],[115.4374145046757,-2.883922794101659],[115.4429686618742,-2.889148680766931],[115.4620118979308,-2.872127153944939],[115.506108889114,-2.886665277580461],[115.477727944589,-2.940267736766591],[115.4653333325673,-2.941111111088881],[115.4464789910126,-2.957069981894092],[115.4350000003497,-2.97694444423067],[115.4124999996753,-2.982250000037448],[115.398611111014,-2.995861110601686],[115.3874999997253,-2.979027777709733],[115.3536111105643,-2.983361110626761],[115.3450555559693,-2.965305555906619],[115.3225277779346,-2.968888890210033],[115.3128333326922,-2.981805555981579],[115.277805555582,-2.997888889360725],[115.2603611108766,-3.028555556193949],[115.2385555558942,-3.04786111100144],[115.2163333333167,-3.047305555706783],[115.1969166672704,-3.085527777784661],[115.1679722219405,-3.114666667332758],[115.1811666667083,-3.130694444193141],[115.2114444442058,-3.125416666645789],[115.2419444441808,-3.135805555781682],[115.2443611113763,-3.155666666783199],[115.2376388886239,-3.16677777807193],[115.1985743777055,-3.175166387019049],[115.1899266776741,-3.162897009189594],[115.1752296789066,-3.162479292984946],[115.1656757392441,-3.188159405232296],[115.1113055558068,-3.193638889023445],[115.0645833329545,-3.167805555681793],[115.054666667033,-3.172361111076397],[115.0251388890486,-3.16288888921086],[115.031277778247,-3.144805556231381],[115.0257499999626,-3.134250000237307],[114.8283611108766,-3.015333333166728],[114.8266262080332,-2.992831720007841],[114.8149329997582,-2.992208999745552],[114.8057241470518,-2.977058076269115],[114.7991581644178,-2.956758386590222],[114.8394194553437,-2.869968606565878],[114.8114583287389,-2.806774250031621],[114.8043422254134,-2.742284381419038],[114.8608627562113,-2.526520082935393],[114.9806062159042,-2.733731229812333],[115.0046566432896,-2.763434272173873]]]]}},{"type":"Feature","properties":{"kode":"63.06","nama":"Kabupaten Hulu Sungai Selatan","lat":-2.729216762845836,"lng":115.20550739193718},"geometry":{"type":"MultiPolygon","coordinates":[[[[115.0259203936114,-2.509115297432965],[115.1751510952468,-2.557611314310629],[115.1567538296256,-2.567974636620177],[115.1704006360805,-2.600529285298217],[115.1581476322075,-2.611407504552668],[115.172011170779,-2.635737167835986],[115.18850893424,-2.632122579393473],[115.2313008328672,-2.682508055702185],[115.2913908502077,-2.690514238741029],[115.2950094163515,-2.700304531928557],[115.3270242208912,-2.696636029129332],[115.3782361426839,-2.746035281902673],[115.3994890166049,-2.751761528871446],[115.4085444701512,-2.766080693669062],[115.4385435567397,-2.781811639395551],[115.4824816089391,-2.729224584946602],[115.4919166672205,-2.735444443706017],[115.5023333328171,-2.727583333004338],[115.5477975992799,-2.729160948019318],[115.573676996796,-2.712062164936915],[115.5880737281201,-2.713589556412879],[115.5979427119867,-2.7212644840686],[115.5921451946452,-2.754418842955245],[115.5694606036241,-2.814782071635216],[115.5557420636454,-2.831134692611917],[115.5429943436142,-2.83355352177759],[115.5123230848426,-2.885057513693281],[115.4620118979308,-2.872127153944939],[115.4429686618742,-2.889148680766931],[115.4374145046757,-2.883922794101659],[115.4118557208649,-2.892343003426825],[115.3824058205722,-2.881720331927776],[115.3752189729774,-2.895564598927061],[115.3845650604293,-2.904350201000907],[115.3812461618809,-2.91588488667818],[115.3444340632815,-2.937227510241394],[115.302157999592,-2.922113000314644],[115.2956960001703,-2.932909999996427],[115.2659968572692,-2.930280537017074],[115.2316799996323,-2.868319999967975],[115.2173473602925,-2.875379230167299],[115.1885825095752,-2.870331518984395],[115.1760091339145,-2.856106762317159],[115.0943959999755,-2.828866999912075],[115.0855040000097,-2.840957999911689],[115.0687899999585,-2.845222999641697],[115.0628090002352,-2.834002000192084],[115.0741293316034,-2.786424234290921],[115.0245988002945,-2.779587615076265],[114.9980939917444,-2.757146772705335],[114.864554483103,-2.528243950198108],[114.9164333304339,-2.523124968642312],[114.9250907521367,-2.503828764985519],[114.9547495289677,-2.509654592085722],[114.9984625501067,-2.499073321776349],[115.0259203936114,-2.509115297432965]]]]}},{"type":"Feature","properties":{"kode":"63.07","nama":"Kabupaten Hulu Sungai Tengah","lat":-2.6093699170403744,"lng":115.47865770818876},"geometry":{"type":"MultiPolygon","coordinates":[[[[115.4169156844114,-2.458914901601331],[115.4384693689662,-2.465886052199531],[115.4426368668979,-2.454387254867887],[115.4956373990468,-2.467471652294842],[115.5285573181658,-2.48355300536687],[115.530608761685,-2.498668088161685],[115.545331011617,-2.48058708442638],[115.5715596311721,-2.482279972742488],[115.5708050172379,-2.489948736445038],[115.5896648221738,-2.478916911186404],[115.6034151316031,-2.503640993736836],[115.750583025886,-2.532390555979338],[115.7593668149266,-2.552522508606872],[115.7708286393303,-2.554434889958104],[115.7812411347707,-2.545802096189734],[115.7960176363049,-2.567896936094696],[115.818672484048,-2.561897348283962],[115.8195773090456,-2.601397876610692],[115.8090408465579,-2.616669059229684],[115.756944000865,-2.616665998836678],[115.7569440521264,-2.600226405324316],[115.744498997131,-2.616815535408604],[115.711590638797,-2.590040655052109],[115.6896252509047,-2.590388348243591],[115.676716143935,-2.613095165109749],[115.7271677932591,-2.638789831985092],[115.7341387352145,-2.657569923712957],[115.746895467352,-2.666666311700874],[115.7320317882366,-2.684559266297073],[115.7151638593246,-2.676707072373466],[115.7165512056737,-2.664561780301858],[115.7094217689995,-2.67675063823132],[115.7155482205739,-2.691572547435042],[115.7076669947361,-2.702173733231186],[115.6652296448323,-2.721120430663307],[115.6687317838448,-2.739215938664577],[115.6608138368891,-2.748058523581934],[115.666749277857,-2.765979930929044],[115.5895749574185,-2.760169769119505],[115.5979427119867,-2.7212644840686],[115.5750654457138,-2.711548295917046],[115.5477975992799,-2.729160948019318],[115.5023333328171,-2.727583333004338],[115.4919166672205,-2.735444443706017],[115.4824816089391,-2.729224584946602],[115.4408825000274,-2.782556388666338],[115.4085444701512,-2.766080693669062],[115.3994890166049,-2.751761528871446],[115.3782361426839,-2.746035281902673],[115.3270242208912,-2.696636029129332],[115.2950094163515,-2.700304531928557],[115.2913908502077,-2.690514238741029],[115.2313008328672,-2.682508055702185],[115.18850893424,-2.632122579393473],[115.1702534854101,-2.63382057316093],[115.1581476322075,-2.611407504552668],[115.1704006360805,-2.600529285298217],[115.1567538296256,-2.567974636620177],[115.1751510952468,-2.557611314310629],[115.1547229823798,-2.554625066893282],[115.2485092927697,-2.532482034118535],[115.295603337624,-2.509758884664739],[115.3413944509932,-2.468417675235449],[115.3564559998446,-2.496345376737688],[115.3822784280071,-2.505067475883285],[115.3994156912812,-2.45350392726438],[115.4169156844114,-2.458914901601331]]]]}},{"type":"Feature","properties":{"kode":"63.08","nama":"Kabupaten Hulu Sungai Utara","lat":-2.439262035309605,"lng":115.15127089150965},"geometry":{"type":"MultiPolygon","coordinates":[[[[115.1374343281318,-2.296218019645815],[115.2137500001624,-2.340194444118262],[115.2818936136993,-2.35963990735584],[115.2861666668582,-2.346916665971291],[115.30100000015,-2.341138888748675],[115.3486732290863,-2.339943315631457],[115.3406110245792,-2.350944028843818],[115.3186575536033,-2.355212366857165],[115.3125515822897,-2.400496553972767],[115.3982455689779,-2.444789851870135],[115.3941187941471,-2.476802853269058],[115.3868664471289,-2.481071594178699],[115.3926295456171,-2.488910381009271],[115.3822784280071,-2.505067475883285],[115.3564559998446,-2.496345376737688],[115.3413944509933,-2.468417675235449],[115.295603337624,-2.509758884664739],[115.2485092927697,-2.532482034118535],[115.1547229823798,-2.554625066893282],[115.1611550460686,-2.552147663084162],[115.1350956330571,-2.540061176781785],[114.9984625501067,-2.499073321776349],[114.9547495289677,-2.509654592085722],[114.9250907521367,-2.503828764985519],[114.9154682391679,-2.52347644168445],[114.8593261691674,-2.526345762846629],[114.8743346490249,-2.497119589597288],[114.9192373590169,-2.46423219535952],[114.9343103832176,-2.442050688688349],[114.9863732291412,-2.40203310504368],[115.0736147880921,-2.350742745281378],[115.0889530151695,-2.348781542434233],[115.1072584564128,-2.304929841339101],[115.1374343281318,-2.296218019645815]]]]}},{"type":"Feature","properties":{"kode":"63.09","nama":"Kabupaten Tabalong","lat":-1.8619462509771103,"lng":115.50006464867957},"geometry":{"type":"MultiPolygon","coordinates":[[[[115.7579984532661,-1.314912800085624],[115.7091424179882,-1.411867843825901],[115.6947870725655,-1.416065656105106],[115.6888029908654,-1.448804703574138],[115.627965850044,-1.467833331043325],[115.6168800043088,-1.499962010438407],[115.6274902219962,-1.503334495090838],[115.6205645312282,-1.510846177808814],[115.6229115657162,-1.516229227296931],[115.630021068018,-1.510029135636051],[115.6554874959512,-1.512695248686738],[115.6314212458939,-1.532053759173627],[115.635999489385,-1.548328059991968],[115.6292227650187,-1.562143877837643],[115.6401568330715,-1.561084991778896],[115.6299924219128,-1.575865110386479],[115.6397829246423,-1.58622772762749],[115.6361395147269,-1.603781013682839],[115.6544676386707,-1.612471607778401],[115.6516586800042,-1.622389796252024],[115.6699212172904,-1.629051914614157],[115.676857401348,-1.656475307789121],[115.6652365066596,-1.706666492764411],[115.7071359261821,-1.733323528657918],[115.6900865356651,-1.750970899087692],[115.6900000001999,-1.780000000299678],[115.6794927953563,-1.793260411238931],[115.6913100003564,-1.804779999997022],[115.7075300001095,-1.788489999713663],[115.7284423412411,-1.799239481017237],[115.7214011298584,-1.8288933016845],[115.7323812593877,-1.861164636039073],[115.7193069586493,-1.912177667365425],[115.7275491363836,-1.924837747564004],[115.7192405985749,-1.92741834408128],[115.6941638909509,-1.977398002215994],[115.7105833333542,-1.979999999900064],[115.7189800847632,-1.998384714582871],[115.71333944426,-2.022846764366617],[115.6897292026407,-2.041515563192656],[115.6875621917418,-2.076796403231354],[115.644167465856,-2.127526657129478],[115.6344080913603,-2.128787932916756],[115.6178319618756,-2.113321663963566],[115.6200491774276,-2.125041529942598],[115.5674999997252,-2.162250000237334],[115.5513055560067,-2.186583332754546],[115.4920000002,-2.211388889385704],[115.4749722221903,-2.24238888813664],[115.4777499995629,-2.255250000087441],[115.4578583331956,-2.271588888416412],[115.4421027784206,-2.270058333125549],[115.4052499998877,-2.29813888879862],[115.3595699986566,-2.295579997418853],[115.3480833331794,-2.307888888761125],[115.3572499995879,-2.313416667045479],[115.3555833328046,-2.340861110651707],[115.30100000015,-2.341138888748675],[115.2861666668582,-2.346916665971291],[115.2818936136993,-2.35963990735584],[115.2137500001624,-2.340194444118262],[115.1541666671581,-2.303055556168923],[115.1255028498767,-2.294635899926758],[115.254151999915,-2.209390998695573],[115.2405833328546,-2.198916666770659],[115.243706039802,-2.191961680587065],[115.2647087906783,-2.226327384900875],[115.2713333326673,-2.218583332654658],[115.2902716457199,-2.22394071998824],[115.3023506172871,-2.182639829864266],[115.2972751863009,-2.143721279813152],[115.3358194466102,-2.095754957325349],[115.3483732692111,-2.09518820996786],[115.349174224311,-2.094949784405012],[115.3548883178416,-2.094665926890984],[115.3550174811719,-2.094501343761992],[115.3548888889112,-2.064861110951524],[115.3636111121632,-2.044166666558381],[115.3775020063126,-2.050868350593829],[115.3962412301487,-2.046718234758663],[115.4085827497941,-2.058281286851907],[115.3968789843778,-2.039088203957443],[115.3969444451301,-2.013055555669288],[115.4161111113388,-2.012777777572319],[115.4200569560637,-1.973957641232074],[115.4338853878005,-1.969860195991194],[115.443292247839,-1.946698226841617],[115.4317376898425,-1.946044866677157],[115.4327615023416,-1.933106869886084],[115.4212912620821,-1.9332725798656],[115.4309784084269,-1.924869388411457],[115.4169976693071,-1.912069582345291],[115.4202439152246,-1.892028293970574],[115.4091726133255,-1.899709925172901],[115.3995044183943,-1.886442509414257],[115.3965868351144,-1.899758389637965],[115.3918305312541,-1.890523449397621],[115.379061473908,-1.889116644417557],[115.3195394422915,-1.892080213630878],[115.3183456273489,-1.859875849990436],[115.2999357235549,-1.824381555864088],[115.313509296417,-1.825434387686789],[115.310973398004,-1.79732549887264],[115.3344478455916,-1.747997436432483],[115.3329209091727,-1.722276692815042],[115.3501426970279,-1.68146053187799],[115.3468789548,-1.674602818165452],[115.3741421976044,-1.652694583987804],[115.3580235532445,-1.611216524722783],[115.3593503698238,-1.587940339874796],[115.390994049336,-1.520490110829867],[115.435420781444,-1.496410867367606],[115.4286130268699,-1.473137905689706],[115.4335763537658,-1.452169987354937],[115.4553635508873,-1.461577274571527],[115.4713780663448,-1.429614717944874],[115.4883466410847,-1.449197352975398],[115.5125377602095,-1.45201244501825],[115.5241094089222,-1.429583299229778],[115.5566833759372,-1.397964197289772],[115.5645282511779,-1.399350228829979],[115.5760283741102,-1.380931062918192],[115.5979263614125,-1.379872263194295],[115.625597721058,-1.350664714904573],[115.6412672206057,-1.35122382162203],[115.6676028972559,-1.334786562749615],[115.7092823111298,-1.338947525308035],[115.7579984532661,-1.314912800085624]]]]}},{"type":"Feature","properties":{"kode":"63.10","nama":"Kabupaten Tanah Bumbu","lat":-3.4397127507935026,"lng":115.64713995780428},"geometry":{"type":"MultiPolygon","coordinates":[[[[116.0365070821362,-3.441265438249344],[116.034676966269,-3.438462234344611],[116.0376893641729,-3.435307069065876],[116.037760746961,-3.439190349754798],[116.0365070821362,-3.441265438249344]]],[[[116.0272651739487,-3.457341586045251],[116.0155014489328,-3.437567935012156],[116.0395875677122,-3.420242065918513],[116.0330015778606,-3.438763562987981],[116.0348044856386,-3.448117847760448],[116.0272651739487,-3.457341586045251]]],[[[116.0404747210316,-3.390271804400216],[116.039237401385,-3.38878702010488],[116.040779291731,-3.385417702864649],[116.0414645769288,-3.387625843357947],[116.0404747210316,-3.390271804400216]]],[[[116.0442861566808,-3.357313278285082],[116.0359094313752,-3.397520991200745],[116.0265809841251,-3.405391078935141],[116.0247698169735,-3.402023349897634],[116.0327790828884,-3.376786786880606],[116.0320366907407,-3.366007827599107],[116.0442861566808,-3.357313278285082]]],[[[116.0603844853558,-3.383888478570343],[116.0531782016128,-3.378800761945547],[116.0577229732366,-3.354316108601532],[116.0706672410005,-3.348581607654991],[116.0693904707937,-3.376802153596506],[116.0603844853558,-3.383888478570343]]],[[[116.0641303514347,-3.319921007248608],[116.0657959732057,-3.32003998036077],[116.0664503253223,-3.320515871909871],[116.0650683686103,-3.32134724927611],[116.0641303514347,-3.319921007248608]]],[[[115.588249511406,-3.016515259971245],[115.5916000301173,-3.03586329155763],[115.6227800011962,-3.069470002238786],[115.637039998697,-3.056540004017874],[115.651111885905,-3.071090838671234],[115.6649626037413,-3.06489834088566],[115.6782844590606,-3.085655650587762],[115.6818362451466,-3.072091374916999],[115.6878099999316,-3.080410001320447],[115.703534868939,-3.07889049869752],[115.711200785388,-3.088340608032583],[115.70619220011,-3.09607375509964],[115.71661725818,-3.097701831973934],[115.7108839560297,-3.114070797229454],[115.7305476712381,-3.11840238096506],[115.740933195111,-3.159294238738111],[115.7484043813572,-3.159023312575718],[115.7688136741118,-3.195165775979694],[115.7922799999221,-3.181799999570314],[115.8289078400249,-3.186577774744473],[115.8405330235803,-3.170245369628047],[115.9341800002069,-3.152380001735613],[115.9513096776996,-3.193333000817303],[115.9280807756073,-3.227272538896456],[115.9468110053238,-3.253910040615862],[115.9639103990457,-3.246911054201787],[115.9739420846596,-3.223733890106908],[115.9900402847314,-3.219950134690899],[116.0413099996568,-3.261489999863512],[116.0604606282555,-3.256880811600096],[116.0704399994065,-3.265040005291977],[116.0815515747454,-3.257360669159473],[116.0850327262793,-3.284875115094435],[116.0733686083746,-3.2972816251468],[116.0509005480219,-3.349688064252712],[116.0306656113289,-3.365240221159274],[116.0224421943518,-3.396934642219909],[116.0244885297219,-3.40883670634893],[116.0068995549705,-3.432688423132182],[116.0143289299363,-3.483297478995409],[115.9905533551533,-3.526870169023047],[115.9956311252763,-3.565978990437982],[115.9678485383794,-3.609979982590053],[115.8334518220441,-3.630593254175254],[115.8011625363221,-3.65375730705402],[115.7869571537497,-3.678824927928018],[115.7319440153042,-3.711042829962599],[115.7157510437757,-3.731577479217288],[115.6324727296328,-3.749714127604856],[115.6090814387575,-3.767575551970095],[115.5299167711421,-3.789621258314371],[115.5255833384005,-3.798784537876079],[115.4868286978861,-3.814802697386524],[115.4783459191289,-3.809651163969965],[115.3757766749536,-3.861251163910032],[115.3664110281465,-3.853306117683156],[115.3716730342831,-3.827891496095573],[115.3669023385721,-3.817257286294742],[115.353647230935,-3.813356669374704],[115.3445861071632,-3.766647221392175],[115.3250000043467,-3.754999997251998],[115.3243611070795,-3.705527780682496],[115.3041666650596,-3.69499999665244],[115.2833333347656,-3.700000004196793],[115.2619444446805,-3.666666664934651],[115.2694444416078,-3.650000004296741],[115.2500000035973,-3.590833332592139],[115.2612723444433,-3.561829702878397],[115.3045533186807,-3.517035739807531],[115.3515975761673,-3.503392758169158],[115.4115081122096,-3.451669131125426],[115.3907296756341,-3.437426072355334],[115.3960969591074,-3.362374499983181],[115.4031879587574,-3.340962149283724],[115.416633685796,-3.336905367788459],[115.4158721093105,-3.315850751211149],[115.4288786866021,-3.29599372043379],[115.392056809674,-3.250351659801234],[115.4022337807644,-3.236282114427949],[115.4245726858808,-3.259596777669119],[115.4365114027791,-3.259874062038273],[115.4474948463102,-3.240824700699266],[115.4456716048607,-3.224992559658871],[115.4205924079133,-3.227966132930662],[115.4146558032228,-3.221886468585636],[115.4244740032727,-3.201344461077918],[115.4191939360514,-3.163181522309324],[115.4340535736136,-3.119813429845822],[115.445418270337,-3.122829565332166],[115.4604436529523,-3.108249510806241],[115.4713372497143,-3.112829442324896],[115.4787321113979,-3.095162552110045],[115.4876938340033,-3.096179304930915],[115.491595960885,-3.086752091435832],[115.48031754332,-3.075494429324424],[115.4834344271571,-3.062819362823246],[115.495691164116,-3.059164884951462],[115.4990552661876,-3.042763895737169],[115.5129990107958,-3.038794895268174],[115.5184023885595,-3.028364423279475],[115.5668910921503,-3.012560588400406],[115.5767756882475,-3.020453485639754],[115.584502796367,-3.004957167639136],[115.588249511406,-3.016515259971245]]]]}},{"type":"Feature","properties":{"kode":"63.11","nama":"Kabupaten Balangan","lat":-2.317834291924158,"lng":115.62277318471531},"geometry":{"type":"MultiPolygon","coordinates":[[[[115.694642686411,-2.040595486592414],[115.7217279542817,-2.062669247287888],[115.7488754012789,-2.064445686219399],[115.7817777782219,-2.053444444205679],[115.802166667158,-2.067222221628187],[115.8075805561978,-2.061358333420296],[115.813777778122,-2.071583332804463],[115.8146781092075,-2.098061329866388],[115.7972493199003,-2.107945381873824],[115.7916730303861,-2.163079083432942],[115.7973611110264,-2.172444444255619],[115.7850847103912,-2.215528109934242],[115.8110332001221,-2.237556051970182],[115.8098500169647,-2.27720930496538],[115.8330828311078,-2.295563204378295],[115.8170038081793,-2.319320784626447],[115.8314079948831,-2.333090683987818],[115.8362831918159,-2.385195603794068],[115.7907009576831,-2.435293249383877],[115.7946818831624,-2.478632094095781],[115.7820319338268,-2.514086259573192],[115.750583025886,-2.532390555979338],[115.6796783308903,-2.52362819508514],[115.6574724426992,-2.510309415447123],[115.6034151316031,-2.503640993736836],[115.5896648221738,-2.478916911186404],[115.5708050172379,-2.489948736445038],[115.5715596311721,-2.482279972742488],[115.545331011617,-2.48058708442638],[115.530608761685,-2.498668088161685],[115.5285573181658,-2.48355300536687],[115.499385446881,-2.468886777802462],[115.4426368668979,-2.454387254867887],[115.4384693689662,-2.465886052199531],[115.4314744106156,-2.465416550333524],[115.3144632163045,-2.403291937372989],[115.3186575536033,-2.355212366857165],[115.3555833328046,-2.340861110651707],[115.3572499995879,-2.313416667045479],[115.3480833331794,-2.307888888761125],[115.3595699986566,-2.295579997418853],[115.4052499998877,-2.29813888879862],[115.4421027784206,-2.270058333125549],[115.4578583331956,-2.271588888416412],[115.4777499995629,-2.255250000087441],[115.4749722221903,-2.24238888813664],[115.4920000002,-2.211388889385704],[115.5513055560067,-2.186583332754546],[115.5674999997252,-2.162250000237334],[115.6200491774276,-2.125041529942598],[115.6178319618756,-2.113321663963566],[115.6344080913603,-2.128787932916756],[115.6442243048078,-2.127484562562445],[115.6875621917418,-2.076796403231354],[115.694642686411,-2.040595486592414]]]]}},{"type":"Feature","properties":{"kode":"63.71","nama":"Kota Banjarmasin","lat":-3.3291214795874744,"lng":114.59179868497856},"geometry":{"type":"MultiPolygon","coordinates":[[[[114.5768630458929,-3.272828698985178],[114.6021364586308,-3.288972949741778],[114.6064139724269,-3.280259619885475],[114.6251210508958,-3.285062921416662],[114.6386111109141,-3.275611110564183],[114.6283235573864,-3.313124573340323],[114.6595890746761,-3.335597362328338],[114.6580901629308,-3.347392167914157],[114.6329400688292,-3.346482852601509],[114.6159498537029,-3.368429495924444],[114.5957299626677,-3.36678997607647],[114.5861500209068,-3.382140004057879],[114.5666202678112,-3.373580343158247],[114.5698706452142,-3.366780096124502],[114.5490207736898,-3.374026486033513],[114.5222812861525,-3.363419451046815],[114.5617554085853,-3.315206586614641],[114.5671314712405,-3.269563718390847],[114.5768630458929,-3.272828698985178]]]]}},{"type":"Feature","properties":{"kode":"63.72","nama":"Kota Banjarbaru","lat":-3.4747673377541806,"lng":114.79117548120564},"geometry":{"type":"MultiPolygon","coordinates":[[[[114.7354753429128,-3.389053562072222],[114.7358055559817,-3.398416665596551],[114.7391608887641,-3.389686163185848],[114.7476199730833,-3.391058257932203],[114.7838142599202,-3.421200312444375],[114.8294490000713,-3.430512999974924],[114.8399689483084,-3.425486242096357],[114.8445107908403,-3.437092090227692],[114.8631388890485,-3.44536111092644],[114.8737339999242,-3.439163999618769],[114.9012274961521,-3.449494746685192],[114.9013888893858,-3.475000000149889],[114.890833334291,-3.472222221877955],[114.9076538860181,-3.503728527249697],[114.9001030719992,-3.540724791715702],[114.884756250101,-3.54679202473214],[114.8821299761175,-3.556968174741451],[114.8693062076154,-3.553985225137948],[114.8567704577905,-3.569210544131243],[114.8575830402253,-3.559534918101884],[114.8445140122119,-3.557866190072525],[114.8473190750153,-3.550278779042307],[114.811878564844,-3.539535118151152],[114.808467022635,-3.524247925801108],[114.7731527835741,-3.523264395735184],[114.739170852353,-3.510561333338805],[114.6820953049544,-3.517774489700878],[114.6745789997211,-3.460816999904617],[114.684975551081,-3.44554667973547],[114.6817258032033,-3.439172253596537],[114.6973300002793,-3.427849000331021],[114.719252948265,-3.377498234256018],[114.7354753429128,-3.389053562072222]]]]}}]}