{"type":"FeatureCollection","features":[{"type":"Feature","properties":{"kode":"65.01","nama":"Kabupaten Bulungan","lat":2.79748207893874,"lng":117.03198421071075},"geometry":{"type":"MultiPolygon","coordinates":[[[[117.6283936877186,2.993100280253746],[117.63878081868,2.988249686973553],[117.6364544308274,2.983540516581606],[117.6203626537135,2.988001788851523],[117.6283936877186,2.993100280253746]]],[[[117.6404212009777,2.992356073274237],[117.6425149324183,2.989961284785569],[117.6363836110149,2.992856294182666],[117.6376695839841,2.993420423613745],[117.6404212009777,2.992356073274237]]],[[[117.4479505746593,3.06056417899374],[117.4476007518732,3.057241004169086],[117.4404586266644,3.05536619469413],[117.4454782223421,3.061555089795597],[117.4472741531797,3.064675642866654],[117.4479505746593,3.06056417899374]]],[[[117.4772307486002,3.063833288375605],[117.4704918164442,3.060208670693697],[117.4654139689796,3.060318432050057],[117.4821931051277,3.068615568253929],[117.4772307486002,3.063833288375605]]],[[[117.4406200828506,3.056915471172083],[117.4404486163106,3.063843695330281],[117.4470284826784,3.06924731411231],[117.4463411524223,3.063934152739044],[117.4406200828506,3.056915471172083]]],[[[117.4927332431447,3.072412917821964],[117.4953803337355,3.072600680077397],[117.4864558646465,3.070062318421328],[117.4880793244014,3.072420085418614],[117.4927332431447,3.072412917821964]]],[[[117.4407500456781,3.065645345856115],[117.4402562845999,3.066798907143852],[117.4446807898866,3.073238604278238],[117.4467855703978,3.070095926985527],[117.4407500456781,3.065645345856115]]],[[[117.5315429797248,3.072965158215556],[117.5254134884418,3.071880124368342],[117.514677360272,3.071784946418198],[117.5170187497156,3.073726586312929],[117.5315429797248,3.072965158215556]]],[[[117.5375582571079,3.077838293902179],[117.5458007100347,3.075592083308031],[117.5469618867817,3.074202477862119],[117.5303818029779,3.074488012611742],[117.5375582571079,3.077838293902179]]],[[[117.5065169992602,3.076825834444751],[117.5130938286173,3.077054262244449],[117.5161014682083,3.07403710512839],[117.4980061130917,3.072189107141664],[117.5065169992602,3.076825834444751]]],[[[117.4476179927762,3.07118357606122],[117.4482046259428,3.079016485822205],[117.4615915166353,3.081642060132971],[117.4534587684075,3.073544538349825],[117.4476179927762,3.07118357606122]]],[[[117.6231418484176,3.077999086388793],[117.621669537719,3.079785990730976],[117.6221694321736,3.082464759041436],[117.6232620149301,3.079719713394113],[117.6231418484176,3.077999086388793]]],[[[117.6309665068989,3.082982299993219],[117.6396173752418,3.074504339803429],[117.6389213602326,3.069996109432992],[117.6241595113524,3.076833205288242],[117.6228195412889,3.082638624073319],[117.6309665068989,3.082982299993219]]],[[[117.6078598523503,3.064831764274544],[117.5692174049593,3.051102274150729],[117.5514428317214,3.071803584867649],[117.6034102595759,3.083748479209024],[117.6236329007378,3.072638932740567],[117.6078598523503,3.064831764274544]]],[[[117.4955358570942,3.080176811810475],[117.4943496090473,3.082138074912265],[117.4948029366064,3.084169144290637],[117.4954912219424,3.081761356101808],[117.4955358570942,3.080176811810475]]],[[[117.4935149707394,3.082647280048011],[117.4963346043586,3.075041181105686],[117.4875046756003,3.073468542938972],[117.4594020379737,3.058260070945561],[117.4504922952833,3.058338838966289],[117.4492137669018,3.068283738204002],[117.4657404102918,3.080493445116449],[117.4935149707394,3.082647280048011]]],[[[117.4832223540285,3.083885123999352],[117.4810804270202,3.083248320353714],[117.4723367972055,3.083886606082075],[117.4811328386097,3.087764015996552],[117.4832223540285,3.083885123999352]]],[[[117.4895411813804,3.094209829420191],[117.4925393007481,3.094031368852622],[117.4950020438094,3.091532935296758],[117.4860381088717,3.092525942418355],[117.4895411813804,3.094209829420191]]],[[[117.5886869493434,3.083987415586819],[117.5720060119679,3.088016363964051],[117.6061102986514,3.094989227770672],[117.6059203195672,3.087487890853534],[117.5886869493434,3.083987415586819]]],[[[117.5289522397542,3.098182054858011],[117.547093384752,3.092715416983015],[117.565261207239,3.093112760845273],[117.568203633391,3.083083740822023],[117.5551451508282,3.07670678578955],[117.5370422117287,3.079409852882463],[117.5188060227798,3.074517681246046],[117.5143516716923,3.078305783085455],[117.4985886498464,3.0816073373088],[117.5058016236461,3.093615757061595],[117.5289522397542,3.098182054858011]]],[[[117.5297803633731,3.100161611069584],[117.5214670069969,3.099919483897139],[117.5208466852264,3.100560100668147],[117.52796804419,3.101344628751711],[117.5297803633731,3.100161611069584]]],[[[117.5595601763611,3.099549327439565],[117.5573961233326,3.099941596427612],[117.5556951204335,3.102289226266851],[117.5587106668638,3.102605417106407],[117.5595601763611,3.099549327439565]]],[[[117.550615634404,3.102006955156899],[117.5561021077261,3.098258111422791],[117.5369715609888,3.101295920570312],[117.544853801262,3.102847707955391],[117.550615634404,3.102006955156899]]],[[[117.5083098742013,3.10195016566761],[117.4972273532598,3.091991951967032],[117.4953898962268,3.091823229258694],[117.4929152560342,3.094178896339027],[117.4891081191445,3.094987912961876],[117.5083098742013,3.10195016566761]]],[[[117.5004721413763,3.102369875669297],[117.497873985596,3.103758723886084],[117.5039719637352,3.107205836080528],[117.5047074490895,3.1054343299304],[117.5004721413763,3.102369875669297]]],[[[117.4825243200414,3.109342537128445],[117.4840394870328,3.109475535167871],[117.4826586265944,3.106702871340449],[117.4816791893431,3.109224087421779],[117.4825243200414,3.109342537128445]]],[[[117.4879005139976,3.107399817147915],[117.4843321561042,3.104020283609298],[117.482773445738,3.106182820380909],[117.4882747623704,3.110677892770596],[117.4879005139976,3.107399817147915]]],[[[117.4792060366293,3.106479635326952],[117.4777734678713,3.107626624369274],[117.4771081377304,3.110593823246365],[117.4791014508713,3.109240699698578],[117.4792060366293,3.106479635326952]]],[[[117.472372263769,3.114161841196083],[117.4728761269318,3.112045652784644],[117.4711712884243,3.112199612222376],[117.4704766835522,3.113762957694387],[117.472372263769,3.114161841196083]]],[[[117.5870651110661,3.111228240091201],[117.5696885238063,3.097264662734055],[117.5597985137905,3.105761823449459],[117.5828764853616,3.115084227255348],[117.5870651110661,3.111228240091201]]],[[[117.5222803619492,3.118326056602271],[117.5315090653911,3.114884864644839],[117.5329283008005,3.113245173925726],[117.5151519010394,3.114575805429109],[117.5222803619492,3.118326056602271]]],[[[117.5970316183146,3.125868468255288],[117.6140981400172,3.123872547080463],[117.6205207680191,3.113339269991332],[117.5998012334402,3.10631423111689],[117.5818237021023,3.119808823718294],[117.5970316183146,3.125868468255288]]],[[[117.618060948654,3.127493314764717],[117.6165617653132,3.127918156297959],[117.616119112707,3.12832771655096],[117.6175266317487,3.128786449934772],[117.618060948654,3.127493314764717]]],[[[117.6289968540217,3.159394040302764],[117.6277040848757,3.157782167413114],[117.6269139899887,3.158553371141281],[117.627279356657,3.159299340792042],[117.6289968540217,3.159394040302764]]],[[[117.6302368986141,3.159484879024021],[117.6316419723992,3.159759280166629],[117.6309802584323,3.158215841188138],[117.6291160060989,3.158873323844901],[117.6302368986141,3.159484879024021]]],[[[117.6298785016915,3.160889475269112],[117.6288276492767,3.159655040647657],[117.6270091688382,3.159691569310507],[117.6275788668714,3.160919150198648],[117.6298785016915,3.160889475269112]]],[[[117.3996296431935,3.319497086821176],[117.3958363990306,3.315840400214331],[117.3922453188664,3.31918406339382],[117.3962188770996,3.320022014804213],[117.3996296431935,3.319497086821176]]],[[[117.4885872129296,3.407899568010663],[117.498395434102,3.404509771408847],[117.5021958854317,3.389086544008823],[117.5013126891293,3.344035674306966],[117.4534686852317,3.347873415126056],[117.4492890437545,3.402092256152777],[117.4885872129296,3.407899568010663]]],[[[117.3050775942556,3.409382854035513],[117.3122147642002,3.413389007296907],[117.3282385696543,3.401771208074788],[117.3303518325711,3.375588906303072],[117.3530335538555,3.367241256079122],[117.3720334866562,3.37055319477415],[117.3715036834483,3.355880383273146],[117.3917311692581,3.341962984304313],[117.3792347422895,3.308002049555036],[117.3854465808951,3.318850671221551],[117.3977265626309,3.31359507455311],[117.4448037883642,3.341168142795613],[117.5038377776914,3.32240916175348],[117.5242372840235,3.295521484828722],[117.5162250566411,3.275682808315072],[117.460620741654,3.272223065142409],[117.4553024415545,3.277610897225202],[117.4183866628143,3.247389985659343],[117.400444908306,3.261264165009269],[117.379139655171,3.229498470877811],[117.3480419999385,3.225591000224547],[117.3358150916932,3.212560917352491],[117.3075747255932,3.207139056722163],[117.3161070965654,3.16542852630548],[117.3213386966236,3.162423651230583],[117.3392168951436,3.180858701867638],[117.3679835543976,3.181479778169226],[117.4001000003149,3.160932999758192],[117.4244106492322,3.173204666362327],[117.4452842088993,3.160843230330833],[117.4651262129044,3.129463427195422],[117.449867919369,3.122800935614766],[117.4787268301791,3.098349169578562],[117.445110244942,3.079154711620657],[117.4389277817918,3.068829140152761],[117.4354885575509,3.051830766376828],[117.4410956398519,3.049052903568693],[117.5211556733957,3.068259809942319],[117.5443792119312,3.067764882443424],[117.5504325612138,3.05370226814523],[117.5710312583859,3.04601660887942],[117.6223406298162,3.059622499778602],[117.627357943914,3.050065506917598],[117.6204989099967,3.04676638985708],[117.6189143711013,3.017807543683237],[117.5994830847766,3.016240633298683],[117.6031688770421,3.009675964574154],[117.5764845638117,2.981270100734633],[117.5871113569036,2.972042177904232],[117.6035963589849,2.972663955677056],[117.613676565721,2.982143869444108],[117.6352542253023,2.978628322439224],[117.6668883567123,2.987769797038563],[117.6713238319294,2.97409192800011],[117.6632443136743,2.963508367117495],[117.6960559562175,2.951784813018786],[117.6725063657763,2.939404427372526],[117.6751475676062,2.931766356632103],[117.7023851401622,2.932434263330673],[117.7158702233322,2.911482346632987],[117.7098713729656,2.904009257421357],[117.692402517962,2.903372537412729],[117.692402517962,2.896662457306597],[117.7194916789979,2.891284742596877],[117.7114260219934,2.86460480906474],[117.6842803043926,2.866989074586201],[117.6692611459851,2.856024518616639],[117.674400781371,2.84871481373774],[117.691709798968,2.852803671352365],[117.7020171483728,2.844125880904723],[117.6956255739611,2.837545624231218],[117.7290627957116,2.828409565349176],[117.7370117503921,2.815089632780342],[117.7317131247609,2.807701798399286],[117.6769369621711,2.79887167179027],[117.6745384648783,2.786764975023658],[117.7288528696643,2.773673732856551],[117.7460866014156,2.751946485441989],[117.7852005822411,2.748287807736213],[117.7882171287176,2.660268996217249],[117.8001780228975,2.626193334055158],[117.8877466113171,2.538401756935579],[117.9440253422957,2.466628486815223],[117.9882297359136,2.435137715433219],[117.979293000072,2.426521999790518],[117.9587489996667,2.426910999742946],[117.9558229996318,2.415569000109327],[117.9182825751808,2.393631250182102],[117.9003479999603,2.404658999713069],[117.8637619999164,2.39289400035789],[117.8218899998238,2.361321000363967],[117.8243089998605,2.348217000414296],[117.8116030002783,2.326418999737109],[117.7610209996195,2.33499699961188],[117.7469089999505,2.326872999988991],[117.7212500001874,2.346346999614399],[117.7053129999951,2.397161000180079],[117.6879820002692,2.406412999660221],[117.6696979997629,2.448104000399296],[117.6086260000899,2.522151000368408],[117.5878770001235,2.517388000156126],[117.5720820001842,2.501544999801927],[117.53957400024,2.521390000348253],[117.4992830002103,2.521590999724863],[117.495410999718,2.532017000284378],[117.4710081199288,2.53113447667481],[117.4753545208945,2.519471030563667],[117.4618739999852,2.478980999773325],[117.4551100001264,2.510158000391469],[117.4415810003629,2.51875999957438],[117.4325629999826,2.501506999848255],[117.4114929996022,2.504151000368468],[117.3926260000898,2.561443000194361],[117.3638460002927,2.53869899995893],[117.3352530001259,2.534962000296145],[117.3299310002155,2.523403999694926],[117.317933000008,2.535935000200171],[117.3074490003711,2.533307999564569],[117.298118999992,2.508902000027311],[117.2831880003261,2.503776000162292],[117.2884809997984,2.491814999862394],[117.2309299997199,2.479357000025592],[117.2290779997499,2.487161000180047],[117.1917479995706,2.496874000234969],[117.194515000367,2.522974999696556],[117.2089390000349,2.529565999671243],[117.2057499995628,2.5453520000948],[117.2215580001017,2.544866000165788],[117.2221700004452,2.555039999896122],[117.2061209995846,2.568869000004367],[117.1914009997564,2.559609000155236],[117.1710409997424,2.561680000331831],[117.1642369998378,2.552229999814701],[117.156824999774,2.556160000283844],[117.1457200002779,2.539626999586384],[117.1337149997476,2.536170000245372],[117.0977430001394,2.536019999623315],[117.0555190000019,2.550737000212441],[117.0322150000223,2.525980999823327],[117.0281030001534,2.505835999831538],[117.0154589998331,2.497685999909047],[117.0240450000768,2.458605999966965],[117.0001570001455,2.436517000259395],[116.9829540000271,2.431893000161908],[116.9820380000538,2.439979999877126],[116.968031999877,2.446041999738588],[116.9616070003629,2.475997999807886],[116.9366339998593,2.495778000054758],[116.92938700021,2.493329000433084],[116.9293769997488,2.502618999866987],[116.8983173372753,2.501390456704231],[116.8875140000711,2.47650599985205],[116.8756427763931,2.507093430117743],[116.840258999953,2.519500000424754],[116.8064419998984,2.497572000047763],[116.7915490001863,2.508928000327002],[116.7565220000903,2.483903000123375],[116.7522970004063,2.438316999629839],[116.7305969997518,2.424378999890939],[116.7334350002251,2.409759000177766],[116.7177219995707,2.405378999641192],[116.7176699998706,2.383186999680317],[116.7076029996788,2.378701999697538],[116.6860569998308,2.399069000034368],[116.6628800003118,2.384421999975325],[116.6502970001065,2.404656999620888],[116.641519000002,2.390165999561342],[116.6301520001147,2.390952999881099],[116.6276240004474,2.415355000133188],[116.577937999739,2.427324999948796],[116.5666869998053,2.436955999819565],[116.5674439996409,2.453494999894376],[116.5262540004219,2.447339000194779],[116.4966529996363,2.452343999875703],[116.4908399995663,2.443910000346269],[116.4965979997979,2.407020999819329],[116.4865860003437,2.398627000335837],[116.5018589995932,2.381968000123111],[116.4980819998844,2.357247000448767],[116.5041700000455,2.34810099956155],[116.4983549998834,2.333977000238383],[116.482568000313,2.336952999881101],[116.4666669999822,2.325361999556661],[116.4765079996446,2.290716999989614],[116.4550490002113,2.276879000365659],[116.4288150000122,2.288879999812218],[116.4127920003506,2.282070999676941],[116.402131999792,2.297919000261681],[116.3348889997276,2.290667000381783],[116.304441000352,2.262251000283497],[116.2898399997162,2.235626000039945],[116.3030059998271,2.20980500000085],[116.3492380004334,2.178116000053462],[116.347280000072,2.162078999746095],[116.3320009996464,2.1501789995612],[116.3143699995759,2.114529000413087],[116.299338999795,2.120013999746304],[116.2863370000526,2.102476000367146],[116.2523650000447,2.106328999983395],[116.2282521516156,2.096230787920581],[116.2165970512131,2.112648445169649],[116.1902761980881,2.124983027444769],[116.1581455428826,2.122968416559187],[116.1479931763441,2.152579487053716],[116.0965349518266,2.170267077863405],[116.0701261081335,2.161434518588232],[116.0553180943547,2.145694978940169],[116.0109808043208,2.191519431976216],[115.9885393144378,2.261578167098774],[116.0349229407413,2.255677103615492],[116.0622060846433,2.303399910377577],[116.0601787843235,2.316306107141239],[116.0804232376423,2.332581620245586],[116.0861529802758,2.348105223677186],[116.1040021109087,2.356904470265173],[116.1231345633095,2.393597344841611],[116.1778938932886,2.404921993855],[116.1880811580191,2.414002016879666],[116.1949244879748,2.439995248781754],[116.228931745004,2.482501940012602],[116.2417713172925,2.489069252743922],[116.2602549699909,2.477933375025218],[116.2705913477126,2.484481651806833],[116.303694410169,2.5464428156835],[116.3094844316613,2.574336444571321],[116.2965803501031,2.587658888047281],[116.2921235816381,2.632330079269726],[116.3022221579263,2.636666920442041],[116.3261433976998,2.691138379232891],[116.3633264423615,2.714504686941785],[116.4081396239445,2.767344583985418],[116.4321023818195,2.777382736624045],[116.4355400340454,2.811594763887303],[116.4552863870572,2.825820767914177],[116.4927223948227,2.827618160150024],[116.5502482435617,2.87872263723996],[116.5838018169004,2.890410550306676],[116.5865175752261,2.916514823300552],[116.6034339560123,2.917733106997321],[116.6144365838813,2.929433710397443],[116.6083705451646,2.948710516577101],[116.6370129100178,2.974192957838827],[116.6577237391593,2.974091435171665],[116.6631044926783,3.007010483746896],[116.6947957409307,3.028507592851181],[116.7166360196367,3.025449191926754],[116.7450499566902,3.041629527081046],[116.7494662367775,3.067465714870842],[116.724763466361,3.102973618437787],[116.7438351102022,3.154041875332346],[116.7405911116905,3.17056326488283],[116.7680358152007,3.164291006225039],[116.7801760368947,3.227528830591119],[116.7939899176007,3.235524453790561],[116.7798083310897,3.273738598157848],[116.7821719292912,3.291457650849971],[116.7610264524089,3.304658900787704],[116.7508344266676,3.334433889812182],[116.7412372682853,3.341255011010013],[116.7319679136883,3.332812893300495],[116.7242625196995,3.35093851330177],[116.7100172971605,3.353943194123165],[116.7071230548852,3.371236041909874],[116.7350961190907,3.369818842565596],[116.7416666127241,3.381655008871597],[116.7607432819769,3.384545412840566],[116.7759179043878,3.382233088586183],[116.7854562390142,3.370815992863839],[116.8186958887044,3.387002257248394],[116.9000607710877,3.396685112028329],[116.9239172201037,3.383876924280681],[116.9672046550709,3.404357698748871],[117.0026196757575,3.391185383598593],[117.0481815312527,3.406934332853172],[117.063082428811,3.40314702421589],[117.0668157511461,3.388291073873994],[117.0912208378714,3.390384861971828],[117.0949489998965,3.366403999844735],[117.1108039999048,3.362194999999279],[117.1160284035879,3.348290696058797],[117.1332713093235,3.343686722963945],[117.172651788949,3.35844642516243],[117.1858415239673,3.347128271052856],[117.1870579595572,3.335057477920355],[117.2260323673999,3.337278523684994],[117.2472441144243,3.313841765784908],[117.2833481569919,3.394024015396035],[117.2780464448875,3.401946422089729],[117.2831114212552,3.42532970270366],[117.2973902910292,3.425649590656143],[117.3050775942556,3.409382854035513]]],[[[117.6593117978012,3.527068707155156],[117.653622675746,3.52432018113149],[117.6410438798711,3.527130881784867],[117.6582924918051,3.529528323273578],[117.6593117978012,3.527068707155156]]],[[[117.5680962903116,3.545701400898981],[117.5629231470856,3.547212520041775],[117.5593662447565,3.550632700238964],[117.5746155171925,3.548354213875914],[117.5680962903116,3.545701400898981]]],[[[117.4448693588339,3.550345373140495],[117.5004259414041,3.545505218291222],[117.5683283010103,3.520436143213534],[117.6094286998747,3.500616988283433],[117.6134118250957,3.481221571418413],[117.6060675331902,3.474385863217066],[117.5471897956726,3.471242410708729],[117.5098780481335,3.504698180077014],[117.4860556240678,3.498318547762857],[117.4623774809361,3.514846250554026],[117.4420631053281,3.510259493181177],[117.4462333938561,3.533757901406108],[117.4123164611358,3.546764388765599],[117.4158747978837,3.557002409433728],[117.4448693588339,3.550345373140495]]],[[[117.8502582989814,3.584496285175497],[117.8560309473704,3.580882552887509],[117.8550144661447,3.576473640945842],[117.8508724514025,3.577457665638772],[117.8502582989814,3.584496285175497]]],[[[117.6224439313425,3.575866748751476],[117.6556621016248,3.559780594199079],[117.6626143412789,3.553137727624044],[117.6589511579696,3.546055474780395],[117.6203967290258,3.537027020680505],[117.5728733208472,3.558490846775197],[117.5346982933916,3.562140126565637],[117.5060685586172,3.585271225586627],[117.5426785076071,3.574700075348257],[117.562220143445,3.588183802340627],[117.6224439313425,3.575866748751476]]],[[[117.817398091249,3.57685582403715],[117.8548042882874,3.527994462074812],[117.8572621579222,3.505000215587572],[117.8740664705912,3.470776638331262],[117.8637310596407,3.448435960651096],[117.8425245475698,3.455350105922705],[117.8255313448957,3.475873445303289],[117.7629280911586,3.51141838475073],[117.7519796240605,3.533407031809176],[117.7590787418904,3.566608232783807],[117.798701029429,3.589366077182742],[117.817398091249,3.57685582403715]]],[[[117.4928547415532,3.569078498673871],[117.4687025729654,3.574132044658217],[117.4591792696077,3.589641233756002],[117.4947098612712,3.574686512672475],[117.4928547415532,3.569078498673871]]]]}},{"type":"Feature","properties":{"kode":"65.02","nama":"Kabupaten Malinau","lat":2.5129735296381583,"lng":115.73544145508232},"geometry":{"type":"MultiPolygon","coordinates":[[[[114.5629614453145,1.431924342634369],[114.5630119341534,1.431778846716478],[114.5616474332825,1.433781454350688],[114.5631916960401,1.433148410770555],[114.5629614453145,1.431924342634369]]],[[[116.1341379996691,4.121292999872072],[116.1674659996562,4.112065999746161],[116.1604519999599,4.09254799989036],[116.1858265594482,4.078250949421868],[116.2224524129485,4.076926382046974],[116.2366404943634,4.047825088656975],[116.25265199979,4.042880000012005],[116.2751840001415,4.03979199970108],[116.2826750002512,4.058573999790326],[116.3084120000139,4.051316999679887],[116.3228019999124,4.065706000431678],[116.3404249996142,4.04214300019936],[116.3547799996973,4.036051999899936],[116.3564939995985,4.007894000008182],[116.3694069997333,3.993877000223488],[116.3907819997895,3.991712000208668],[116.3822029998686,3.981390999994726],[116.3844190004366,3.944262000091236],[116.4069519999349,3.895850999723937],[116.4254779999098,3.881297000356309],[116.4639806485881,3.880517211699996],[116.494790786066,3.857357597874888],[116.5167870000202,3.858288999637715],[116.5334636530253,3.847537788937871],[116.5565345100597,3.845225746171298],[116.5643190003217,3.833704999985809],[116.5928681072774,3.826618167794237],[116.6260489332118,3.799183425174956],[116.6432655625557,3.798209928845186],[116.645854416648,3.784660088192581],[116.6633529996413,3.776069999630781],[116.6816570001705,3.748785999574288],[116.6726480002051,3.73830900026022],[116.6956699997707,3.701903999570021],[116.7180559996847,3.699264000133539],[116.7312880001412,3.682898999988925],[116.7426059995674,3.681322000110242],[116.7370604650685,3.656354960313223],[116.7144074402512,3.639042583748274],[116.7379805731451,3.605658982276271],[116.7191442261252,3.59909739372981],[116.6981581486797,3.572528675757813],[116.6955281883753,3.561528611856012],[116.7115116187663,3.55040648926812],[116.6847855131411,3.544296033035565],[116.6757217732414,3.518021709034723],[116.6898731254445,3.49893667159018],[116.7020372897892,3.450773892201408],[116.6970452160639,3.433470314603348],[116.7095416322406,3.424196318605265],[116.696306322279,3.399367582847756],[116.7100172971605,3.353943194123165],[116.7242625196995,3.35093851330177],[116.7319679136883,3.332812893300495],[116.7412372682853,3.341255011010013],[116.7508344266676,3.334433889812182],[116.7610264524089,3.304658900787704],[116.7821719292912,3.291457650849971],[116.7798083310897,3.273738598157848],[116.7940692342079,3.234683711783969],[116.7801760368947,3.227528830591119],[116.7680358152007,3.164291006225039],[116.7405911116905,3.17056326488283],[116.7438351102022,3.154041875332346],[116.724763466361,3.102973618437787],[116.7494662367775,3.067465714870842],[116.7446692439905,3.041159980248963],[116.7166360196367,3.025449191926754],[116.6947957409307,3.028507592851181],[116.6631044926783,3.007010483746896],[116.6577237391593,2.974091435171665],[116.6370129100178,2.974192957838827],[116.6083705451646,2.948710516577101],[116.6144365838813,2.929433710397443],[116.6034339560123,2.917733106997321],[116.5865175752261,2.916514823300552],[116.5838018169004,2.890410550306676],[116.5502482435617,2.87872263723996],[116.4927223948227,2.827618160150024],[116.4552863870572,2.825820767914177],[116.4355400340454,2.811594763887303],[116.4321023818195,2.777382736624045],[116.4081396239445,2.767344583985418],[116.3633264423615,2.714504686941785],[116.3261433976998,2.691138379232891],[116.3022221579263,2.636666920442041],[116.2921235816381,2.632330079269726],[116.2965803501031,2.587658888047281],[116.3094844316613,2.574336444571321],[116.303694410169,2.5464428156835],[116.2705913477126,2.484481651806833],[116.2602549699909,2.477933375025218],[116.2417713172925,2.489069252743922],[116.228931745004,2.482501940012602],[116.1949244879748,2.439995248781754],[116.1880811580191,2.414002016879666],[116.1778938932886,2.404921993855],[116.1231345633095,2.393597344841611],[116.1040021109087,2.356904470265173],[116.0861529802758,2.348105223677186],[116.0804232376423,2.332581620245586],[116.0601787843235,2.316306107141239],[116.0622060846433,2.303399910377577],[116.0349229407413,2.255677103615492],[115.9885393144378,2.261578167098774],[116.0109808043208,2.191519431976216],[116.0558534733592,2.145278573047735],[116.0701261081335,2.161434518588232],[116.0949740264303,2.170190934963687],[116.1258774083157,2.164964580650894],[116.1479931763441,2.152579487053716],[116.157225485168,2.123571213240913],[116.1902761980881,2.124983027444769],[116.2165970512131,2.112648445169649],[116.2231326367619,2.100084891004903],[116.2124300002443,2.060996000365131],[116.2265559996597,2.052444999936862],[116.2347479997206,2.035051000003671],[116.2311619998265,2.013305999971957],[116.194457999737,1.98570599973211],[116.1994119997641,1.950836999727843],[116.1751669995574,1.901845000446498],[116.1838339999392,1.831742999839589],[116.1701910003145,1.782441999798509],[116.1591639999187,1.769874000284874],[116.1617290003931,1.74409300029181],[116.1496029996787,1.726857999597017],[116.1418809997084,1.686878999566163],[116.1308330001429,1.678590000428246],[116.1334680002481,1.668067999938236],[116.1150069996734,1.654538000128644],[116.1023539998373,1.667213000079945],[116.0686539997823,1.648463999713831],[116.0364399999062,1.606101000360935],[116.0455869999402,1.579497000186445],[116.0414170000945,1.556644000320448],[116.0276419997785,1.551380000386724],[116.007042000388,1.524898000442418],[115.9726829996208,1.531301999887466],[115.95583899987,1.504239000129834],[115.9574139996564,1.490561999836457],[115.9140299999846,1.477268000118157],[115.8543109997529,1.43404099959252],[115.8568819996047,1.401413999556508],[115.8352559996647,1.379284999802996],[115.829261000195,1.352444000390316],[115.8070250000038,1.324617999620978],[115.7733940004329,1.307682000124297],[115.772678999836,1.26379199960118],[115.7270190004266,1.260047999615585],[115.711076065608,1.27530393063193],[115.7098037380522,1.266014871888929],[115.7007460002278,1.264216000268201],[115.6858318727428,1.281960420137393],[115.6585316408226,1.290130576564883],[115.646695414262,1.282040788951308],[115.5869300000195,1.281467999948324],[115.5541340002839,1.265406000286726],[115.4874590003327,1.252467999898352],[115.4850139999961,1.245362999602781],[115.4276339997095,1.223153999757384],[115.4219799997773,1.19066599983608],[115.4107089998206,1.192654999828433],[115.4051909998648,1.18080500015065],[115.4181021779732,1.151661526758138],[115.4006234367223,1.146370291755636],[115.3807887612924,1.117987427178077],[115.3682935142344,1.114075090293218],[115.2803479488988,1.13446855677852],[115.2735524511848,1.160752038575749],[115.2467870002199,1.181379999687257],[115.2324180003905,1.172777999605065],[115.2103350000603,1.176877999819867],[115.1820169999847,1.196748999766514],[115.1144549995986,1.181106999688295],[115.1166239997978,1.19239400038291],[115.0991980001876,1.199181000402946],[115.0936979354115,1.2119582451769],[115.0979219998005,1.24985199977001],[115.0781147402032,1.268544556885873],[115.0451942347262,1.267450125123235],[115.0461303831108,1.292644813007746],[115.0301561303012,1.309413258015477],[115.0170136510592,1.347926887415982],[114.9881689729199,1.353681450438613],[114.9539251015623,1.373170860846626],[114.9305881657113,1.401698627789491],[114.9085715119658,1.403453274349184],[114.9075222288679,1.417577733225903],[114.8796837113342,1.418442104919324],[114.867175869271,1.40387705198439],[114.8424206773724,1.402390251409022],[114.802224866984,1.382489530667305],[114.7962378301119,1.367362469802133],[114.7647733989733,1.345151543608855],[114.7597673461861,1.326053820327575],[114.7453216377834,1.327470890169488],[114.7284160002982,1.313135999826562],[114.7124909997599,1.335362999602838],[114.7003690001293,1.339340999587543],[114.7048390003196,1.350878000119701],[114.690104999846,1.359894000407833],[114.6700759998077,1.351895000254119],[114.6168040001046,1.363242000118278],[114.6095350003401,1.389551000178566],[114.5718069997932,1.389191999810999],[114.5769650002346,1.412087999861386],[114.5669990002037,1.421830000354271],[114.5651640001186,1.426223380104938],[114.5865067891571,1.447187643594924],[114.5938570669502,1.480532362878348],[114.6066804280593,1.488259521359867],[114.6159490407157,1.515524668029064],[114.5995640090719,1.531496596990431],[114.6104624819581,1.575215568943397],[114.651669135722,1.589335023992186],[114.6549207011295,1.598968229899908],[114.6808381957262,1.610364483833868],[114.6934674669501,1.632992202628111],[114.70898073897,1.637886765561822],[114.7104997415699,1.706485863232052],[114.7192508744283,1.718841606555019],[114.7052545320711,1.760501963794622],[114.714989470188,1.785283450071271],[114.6944183678134,1.809543184770243],[114.7274580280656,1.831301171911567],[114.7177977049002,1.856464018399803],[114.7473141918965,1.869362737300515],[114.7710901785689,1.850106817875405],[114.7944093546081,1.848668514140714],[114.81885323359,1.880501386729636],[114.8196056846547,1.892646617647317],[114.855941780189,1.895247379662843],[114.8824470087226,1.914352023227403],[114.8531884427925,1.943411131218761],[114.8505241445737,1.962029812625785],[114.8518112318029,1.972168755883461],[114.8713268052879,1.988920806250258],[114.8738526429852,2.013585195400511],[114.8884104986456,2.02331469801493],[114.8589605389977,2.043993306246181],[114.808973394007,2.024513023956962],[114.7932533498623,2.0582369720586],[114.8117801169588,2.062344686657999],[114.8000081577503,2.089226141173503],[114.8194554043434,2.107489709982177],[114.8203728468295,2.129881282095544],[114.7910667490313,2.145877483758893],[114.7403305470171,2.132336982565716],[114.7343233401502,2.147174832252771],[114.7410567639586,2.19120779440429],[114.7869661058012,2.200048800112084],[114.7895928105598,2.223145495568188],[114.8018679062788,2.236111089854928],[114.7990480469299,2.24851131004897],[114.8163977696414,2.263890339367711],[114.826831337996,2.245239752712466],[114.8706370648487,2.263768220427062],[114.9170470646703,2.254922566123627],[114.9366040438416,2.279686514720966],[114.953401572025,2.279288734687343],[114.9666357245591,2.288820846904668],[114.9479921454213,2.316081077879526],[114.9610397695697,2.364716262145825],[114.974363869597,2.366805523056501],[114.9980956950603,2.3490581300287],[115.0091954020462,2.363014271791217],[115.0262187356062,2.364811587584745],[115.0389082865882,2.392106762617027],[115.0529908604399,2.386519868297318],[115.0527059714035,2.405611546335804],[115.0998150727075,2.40509001329354],[115.0984572726851,2.425496874281327],[115.107900807976,2.441303417918414],[115.1437931798115,2.475718857439377],[115.1891094907105,2.48260877497499],[115.2043682833696,2.471156791852566],[115.2425000480389,2.498781574709971],[115.2511859962368,2.541186449195296],[115.2376477514426,2.535181376419457],[115.2234421548317,2.542255716128425],[115.2122776040283,2.573710577581176],[115.1943852555752,2.581923354679125],[115.1778064011446,2.610478421442084],[115.1515367940878,2.60812901634104],[115.1349608246824,2.585026582310965],[115.1164371458576,2.583173774749989],[115.1069978832457,2.600483045955857],[115.0916582604204,2.6063157807487],[115.0917874768106,2.623505088688935],[115.1020236457747,2.625206624885854],[115.1130227959653,2.636596283191947],[115.1123956960047,2.647734350759753],[115.1215844929301,2.651126801260981],[115.1091167930057,2.680427190162701],[115.1151246473846,2.689319848432278],[115.0947281960495,2.697695449585355],[115.1000189544113,2.716945089943954],[115.1379360221298,2.743711342204699],[115.139809771304,2.775019822806634],[115.1543359717277,2.790373904032538],[115.1420107244155,2.805048269562093],[115.1264460876169,2.802196293624103],[115.0909585716808,2.823527442737305],[115.1185213912493,2.836505858658466],[115.1417006831401,2.868542299087927],[115.1520732163059,2.870594889242838],[115.1480472347921,2.908132234415127],[115.1635450609558,2.927228175240181],[115.1900018052392,2.933656288207164],[115.210573922049,2.958203084704646],[115.2495635428233,2.965633794264221],[115.2457913122194,2.98115875117546],[115.2844955871017,3.04746854183977],[115.2992314230918,3.040904921724795],[115.3076241311488,3.018988738439553],[115.3214600506409,3.012478533557527],[115.3239718274379,2.981729916002894],[115.3311558592555,2.975068170859462],[115.378085567395,2.986233358382794],[115.3936112860321,2.979691050401744],[115.426798416214,3.015871795247204],[115.4379669330276,3.014166290342079],[115.4405496861192,3.023798375694508],[115.4534094014228,3.028152760841273],[115.4854765267204,3.018174172100462],[115.4974672091445,3.027812904342152],[115.5158704498614,3.056906041780415],[115.5138220100778,3.108797536277329],[115.5265661921761,3.117047161297503],[115.5349318432301,3.142301119900836],[115.5485783690965,3.140861434807384],[115.562862629407,3.15012792596303],[115.5615900824163,3.170244206105298],[115.5198989683628,3.191336599604465],[115.5156004796785,3.223794233017529],[115.5335289556968,3.226303146373176],[115.5229970923421,3.249949503866588],[115.5294316165759,3.280045280165588],[115.5373167041026,3.285112379832555],[115.5303857172271,3.297023209653482],[115.5322191560892,3.318143303170928],[115.5480059883857,3.327788891843952],[115.5439794124199,3.363426526213264],[115.5560281919475,3.393026481087279],[115.5789080500665,3.418948465099646],[115.5849403857902,3.44915496592899],[115.6095715737692,3.446685093941969],[115.6236637631722,3.407777989562554],[115.6576438453872,3.43951832191307],[115.6961207599652,3.406789070758997],[115.7221287200645,3.44492630780293],[115.7571524025614,3.444358210563014],[115.7697170269194,3.466005381443281],[115.7852934160584,3.460792673443191],[115.8018163929124,3.466898369564152],[115.8136244688942,3.500297079646518],[115.833564352413,3.488019060231483],[115.8485486108298,3.492377440166749],[115.8565964225869,3.4693775702187],[115.8781537673825,3.458379617025752],[115.8993761389977,3.498021602415079],[115.9209608906327,3.498854311677157],[115.9386289166912,3.527036601358112],[115.9636362029485,3.519252095807634],[115.9729922431975,3.563404422276339],[115.9586609996055,3.571782000139233],[115.9532831338097,3.618431045156644],[115.9319102201806,3.640116262755399],[115.910698847274,3.694462849780699],[115.9263404381608,3.750650158378143],[115.9429847326594,3.760696618953862],[115.9480391042214,3.775523635407495],[115.9437414806849,3.793558047066291],[115.9225295573932,3.803962487279055],[115.9250342178549,3.834776983770837],[115.9075812880461,3.843678665837768],[115.9137395909095,3.878142452012611],[115.9429595102732,3.884381081421772],[115.9565505155939,3.914274964418073],[115.9893727467549,3.923808639657111],[116.0080648254315,3.939821075881976],[116.0213063128361,4.009413250820892],[116.0020943819502,4.031809722440837],[115.99439314193,4.058551144419841],[115.9578456589501,4.076259875592857],[115.9596660000859,4.106004999930878],[115.9648119999739,4.117966000230776],[115.9743190004216,4.117009000165272],[115.9821679999533,4.099963000092476],[116.0330180003805,4.081135999726659],[116.0707920003506,4.099248000394983],[116.0852190001568,4.117866000115832],[116.1119580002616,4.112295000414012],[116.1341379996691,4.121292999872072]]]]}},{"type":"Feature","properties":{"kode":"65.03","nama":"Kabupaten Nunukan","lat":4.009177924112818,"lng":116.64285776284274},"geometry":{"type":"MultiPolygon","coordinates":[[[[117.7987275989996,3.781944430591032],[117.8146977203236,3.778066222078479],[117.8157049610152,3.757780214685202],[117.7965593982977,3.758550530782422],[117.7858470383102,3.770113152999709],[117.7795869861506,3.771851659426616],[117.7809806961024,3.785014361723448],[117.7987275989996,3.781944430591032]]],[[[117.747723301889,3.871998917815866],[117.7459245498782,3.871826795670174],[117.7429013016538,3.872380963310839],[117.7451654977896,3.872827742006745],[117.747723301889,3.871998917815866]]],[[[117.7354172892766,3.872980926228852],[117.7550439740002,3.868564252238492],[117.7830140416647,3.836362128809267],[117.8262919060467,3.810471343178023],[117.8332255324325,3.785497330037767],[117.7843955343266,3.789649256208282],[117.7412492722362,3.807816006703412],[117.7372953309149,3.837506416288171],[117.7100136439146,3.861058927727367],[117.7199364081388,3.87341807678283],[117.7354172892766,3.872980926228852]]],[[[117.5223662094331,4.032472410373455],[117.547506103424,4.01536263128046],[117.5545199790139,3.98526030072237],[117.5776068071085,3.969696896894369],[117.5974539840142,3.933491176076952],[117.6391443210537,3.912440681092665],[117.6829393477727,3.914324625880838],[117.6822633498738,3.887016739830717],[117.6015629387787,3.882671415353588],[117.550435334723,3.925188838194437],[117.5263738420793,3.929638443559401],[117.4965689182211,3.91625918990972],[117.4596713579468,3.931452544299518],[117.4659232055915,3.96097995805864],[117.4559546496874,3.987479596406306],[117.4432788772185,4.005761436740961],[117.4961744144178,4.052801494393531],[117.5223662094331,4.032472410373455]]],[[[117.4970390208342,4.063170498619705],[117.4968345230948,4.060592843784793],[117.4786158952074,4.047811954058499],[117.4821999498679,4.062289817721009],[117.4970390208342,4.063170498619705]]],[[[117.4820349998155,4.079332000171764],[117.4818659992166,4.079405999986928],[117.4819310004155,4.079528000217113],[117.4820590000229,4.07946299991757],[117.4820349998155,4.079332000171764]]],[[[117.5543442146138,4.099171221674535],[117.5361766241519,4.108701751084997],[117.5461057079122,4.133250446051328],[117.5879468459702,4.142298226581985],[117.5543442146138,4.099171221674535]]],[[[117.6601373592517,4.147131718354146],[117.7536324259958,4.061211601634195],[117.7272839645833,4.011770955765058],[117.7259287671988,3.985581372182633],[117.6716358975787,3.966416761824142],[117.6262987727702,3.988918614202785],[117.6025684743556,4.011434524783585],[117.5892143189857,4.079182703718875],[117.6294111348161,4.135183756425253],[117.6601373592517,4.147131718354146]]],[[[117.7482428528255,4.166668968198394],[117.9021295767186,4.165930803763661],[117.9255385959296,4.127346857271718],[117.9171306740414,4.084282718572684],[117.9261908885988,4.060854384622225],[117.9052823695857,4.040228736566952],[117.89611856482,4.043255184579152],[117.8612190256377,4.028976658346139],[117.7311265734327,4.120837646140462],[117.683318698899,4.166666683021013],[117.7482428528255,4.166668968198394]]],[[[116.5687801251028,4.40846169535105],[116.5879778655862,4.374355920289496],[116.613799434896,4.377320627145242],[116.6192216741411,4.338543187018495],[116.6305812681111,4.335715881283008],[116.6533079680884,4.336888786088643],[116.6672882557484,4.352537113796838],[116.7026129206498,4.334321959990483],[116.7337050513471,4.353306601618478],[116.7405944994367,4.382425335560857],[116.7516949852354,4.390737744951],[116.7831351850408,4.359061247378659],[116.7846530014348,4.342437753299787],[116.7968013772818,4.338754666194887],[116.8062912816174,4.350772255435253],[116.8156969203766,4.350478997307871],[116.8349062908928,4.32616558837131],[116.8426154278598,4.32595048942359],[116.8505156842515,4.339508786401435],[116.8677641900654,4.336667887413114],[116.911136362753,4.368773994724084],[116.9552169359129,4.356112553851354],[116.9684082303557,4.337095681420621],[117.0080127149149,4.346691564564086],[117.0062344125881,4.321053771714233],[117.0208561012281,4.318967436298159],[117.0310727207296,4.341038332653046],[117.0428636574319,4.347254348609319],[117.1075047830194,4.332465579422994],[117.15370170467,4.353724465311902],[117.1690741842263,4.337453154739389],[117.1996824922533,4.33520165073562],[117.2269948083638,4.369498020017669],[117.2475172520196,4.374009812602807],[117.2845897511162,4.333747554905742],[117.2963934761781,4.309970277706231],[117.3083735735817,4.309400220843539],[117.3112529806406,4.299304109597045],[117.3220488291902,4.303446266432086],[117.3422923364222,4.289859451052823],[117.3715606860769,4.286145633214499],[117.3865413157292,4.257938433212182],[117.4119939453644,4.249667663332012],[117.4112569140754,4.237240419409915],[117.4272665830864,4.232436024303098],[117.4264815513826,4.215692093015754],[117.4582444099516,4.17771624560832],[117.4771773810314,4.169283395412403],[117.5077134627062,4.170716875183732],[117.5295505731006,4.160059748858401],[117.5388898733691,4.170848485569167],[117.5491651358624,4.167759506795864],[117.566140378176,4.17976428789164],[117.5933350305873,4.172325676888565],[117.5830184550378,4.158611353830931],[117.5482254333571,4.14244556521075],[117.5177343015968,4.099315406380931],[117.4162145869338,4.140113884847917],[117.4187335124417,4.146877079813404],[117.3948001632969,4.145374741651086],[117.3912097468323,4.135680326985568],[117.4193057051942,4.112906196763632],[117.4130830531404,4.107371966742889],[117.4184012300328,4.094335871003739],[117.468357083113,4.082868221691104],[117.4738242605812,4.070673117070744],[117.4382265660033,4.013427104976962],[117.415990699811,4.028707796127961],[117.3829579490501,4.036522779702544],[117.3695365261898,4.032795981049752],[117.3654692675928,4.014287257051329],[117.3762839947106,4.01499387686599],[117.3754785879666,4.026626986146574],[117.3853578618758,4.027266483261659],[117.4397306731321,4.004402550337471],[117.4636459656888,3.960868153442586],[117.4574255997118,3.930185287121301],[117.4873763819146,3.914622392309596],[117.4994824617463,3.912749466914466],[117.5332573321602,3.924778913715986],[117.5628998879196,3.912049722416743],[117.5965624420031,3.876776710077156],[117.6689253112542,3.878797945368916],[117.6948802491242,3.867112280607298],[117.7339530122219,3.836682961949144],[117.7316467233177,3.810882713766283],[117.7789146368011,3.785849645744598],[117.7789560038165,3.767360813850495],[117.7922046021607,3.759371484106765],[117.7837232857012,3.754927357411674],[117.6659641899954,3.786091530100077],[117.6507263911101,3.769970887446593],[117.6281446042901,3.778843559182942],[117.6013350730552,3.77366863799724],[117.5955363308371,3.795860709004572],[117.5783700842121,3.780793089729361],[117.5579278304051,3.783894197659187],[117.5318973521811,3.766892389372355],[117.5216565238297,3.775323952638331],[117.5029697727368,3.765377743088404],[117.4880075899783,3.769327262443255],[117.4774242925971,3.752737351747481],[117.4899430344435,3.72178401342158],[117.443398292797,3.701367654693598],[117.4363636635522,3.690380498761069],[117.4026626832362,3.696328685820237],[117.391880066412,3.709661188213364],[117.2905873352374,3.718804525308638],[117.2615074223297,3.7332821416576],[117.248887648846,3.730643230400798],[117.2336472302356,3.750020545711696],[117.237195928949,3.762194429029741],[117.2204729122951,3.768550020666982],[117.1813545769522,3.749037995007519],[117.13795435441,3.753567401714285],[117.0432272929052,3.734801086700855],[116.9684037751143,3.737228409063874],[116.9441672887894,3.750333057424736],[116.8811846317655,3.731624779260233],[116.8334050552992,3.693892476356741],[116.7613169801946,3.695122426059182],[116.7426059995674,3.681322000110242],[116.7312880001412,3.682898999988925],[116.7180559996847,3.699264000133539],[116.6956699997707,3.701903999570021],[116.6726480002051,3.73830900026022],[116.6816570001705,3.748785999574288],[116.6633529996413,3.776069999630781],[116.645854416648,3.784660088192581],[116.6432655625557,3.798209928845186],[116.6260489332118,3.799183425174956],[116.5928681072774,3.826618167794237],[116.5643190003217,3.833704999985809],[116.5565345100597,3.845225746171298],[116.5334636530253,3.847537788937871],[116.5167870000202,3.858288999637715],[116.494790786066,3.857357597874888],[116.4639806485881,3.880517211699996],[116.4254779999098,3.881297000356309],[116.4069519999349,3.895850999723937],[116.3844190004366,3.944262000091236],[116.3822029998686,3.981390999994726],[116.3907819997895,3.991712000208668],[116.3694069997333,3.993877000223488],[116.3564939995985,4.007894000008182],[116.3547799996973,4.036051999899936],[116.3404249996142,4.04214300019936],[116.3228019999124,4.065706000431678],[116.3084120000139,4.051316999679887],[116.2826750002512,4.058573999790326],[116.2716489999015,4.039845000346553],[116.2366404943634,4.047825088656975],[116.2361058294206,4.059119080681061],[116.2170809997883,4.079587000239936],[116.1998188566549,4.07447874579756],[116.1616342127488,4.090986140997654],[116.1674659996562,4.112065999746161],[116.1446190000669,4.113388999602673],[116.1318589997931,4.122430000144494],[116.1119580002616,4.112295000414012],[116.0852190001568,4.117866000115832],[116.0707920003506,4.099248000394983],[116.0330180003805,4.081135999726659],[115.9915879999862,4.094717000089542],[115.9774639997638,4.11462499994386],[115.9648119999739,4.117966000230776],[115.9578456589501,4.076259875592857],[115.99439314193,4.058551144419841],[116.0020943819502,4.031809722440837],[116.0213063128361,4.009413250820892],[116.0155101336858,3.962948084786365],[115.998463843132,3.930675719808651],[115.9565505155939,3.914274964418073],[115.9429595102732,3.884381081421772],[115.9137395909095,3.878142452012611],[115.9075812880461,3.843678665837768],[115.9250342178549,3.834776983770837],[115.9225295573932,3.803962487279055],[115.9437414806849,3.793558047066291],[115.9480391042214,3.775523635407495],[115.9429847326594,3.760696618953862],[115.9263404381608,3.750650158378143],[115.9124789077754,3.682830066954089],[115.9319102201806,3.640116262755399],[115.953720955258,3.617286524753393],[115.9586609996055,3.571782000139233],[115.9729922431975,3.563404422276339],[115.9708391583006,3.52938076970679],[115.9580269487847,3.518464697987532],[115.9386289166912,3.527036601358112],[115.9209608906327,3.498854311677157],[115.9012882397606,3.500012805746454],[115.8781537673825,3.458379617025752],[115.8565964225869,3.4693775702187],[115.8485486108298,3.492377440166749],[115.833564352413,3.488019060231483],[115.8136244688942,3.500297079646518],[115.8018163929124,3.466898369564152],[115.7852934160584,3.460792673443191],[115.7697170269194,3.466005381443281],[115.7571524025614,3.444358210563014],[115.7221287200645,3.44492630780293],[115.6983439074454,3.407342559411596],[115.6865118798195,3.408859722897905],[115.670543603005,3.434154313770609],[115.6373821115952,3.455977180702362],[115.6347811292458,3.474481113112947],[115.6089702142041,3.510742404838151],[115.6123168388512,3.547505237676617],[115.6033956208113,3.57690562399544],[115.5880223813278,3.57888941241653],[115.5784426041429,3.598627163412903],[115.5752914534379,3.627400613447595],[115.5809487718684,3.634123926178322],[115.5706399134014,3.652437848927658],[115.571583783365,3.683222805388219],[115.5826757112152,3.69778926935933],[115.5736733473472,3.718520183959328],[115.5804991351271,3.72833132882786],[115.5770654902802,3.746935272145112],[115.6126227162654,3.824152265414703],[115.6178582697435,3.868243081852739],[115.6161526865973,3.87538534825531],[115.5967955511738,3.879316275925436],[115.5954335450221,3.890614599084529],[115.5818131129848,3.886216639086658],[115.5582071512391,3.917900305155019],[115.5890670607963,3.943210971409282],[115.6172335925563,3.936665315252096],[115.6396979099306,3.961734146613626],[115.6491314663441,3.987134739676556],[115.6517818115814,4.033023215449049],[115.6770741874238,4.089794958370717],[115.6822356763355,4.1606152187174],[115.7028119507111,4.195293989625991],[115.7276283639579,4.188918595816581],[115.731997016849,4.208656846836089],[115.7528820248856,4.212868083295461],[115.7663811725531,4.245015954222907],[115.7955519916312,4.238249108010027],[115.8015522440409,4.22037788643037],[115.8286745262085,4.234535404385408],[115.8248426237881,4.262948297326052],[115.8747796783395,4.291361251420621],[115.8628533756828,4.343463281705095],[115.8725401775872,4.354338283185232],[115.8687910002045,4.372634641275774],[115.879223007336,4.392449796920616],[115.9067599093425,4.392558928751654],[115.928471343078,4.353291493008026],[115.9765382988035,4.357938230664814],[116.002565382986,4.3478137691902],[116.0073947028034,4.335476607659338],[116.0313601010879,4.328839488651525],[116.0343826550355,4.295176144963197],[116.0724986545893,4.276695818856989],[116.0805792772119,4.277585108965653],[116.0864589656088,4.304810833853011],[116.1108660803054,4.331878784378439],[116.1296510868283,4.328971594563512],[116.1550445266836,4.338511104603903],[116.1668310531106,4.391042690667678],[116.2040216421851,4.372985995607269],[116.2199682255532,4.382066431420672],[116.2517640199937,4.377232853313572],[116.2612755494272,4.362046245637806],[116.2791867683547,4.360168146442888],[116.2922713105726,4.372565826951401],[116.3065917290252,4.368723829641063],[116.3238872756773,4.384089650616939],[116.354096852188,4.389342539426732],[116.3792982759948,4.375889726629655],[116.385602870676,4.359150218208118],[116.4041101836382,4.35902110883719],[116.4182790483395,4.326268543658362],[116.4292510282124,4.329619830390929],[116.4370492996855,4.32314386539716],[116.4413900690964,4.288215928322469],[116.4787701875942,4.302577659831218],[116.4884648918414,4.334847927589824],[116.5368792403847,4.320817928104969],[116.5405876730827,4.335254086606909],[116.5295430639614,4.347612382205778],[116.5361811443444,4.376246388759885],[116.5635597620734,4.390315042005643],[116.5687801251028,4.40846169535105]]]]}},{"type":"Feature","properties":{"kode":"65.04","nama":"Kabupaten Tana Tidung","lat":3.5704781391655227,"lng":117.15773007640406},"geometry":{"type":"MultiPolygon","coordinates":[[[[117.4169731947572,3.361617526427739],[117.4150509307559,3.377628694608624],[117.4165461984484,3.383442933944302],[117.4198294937362,3.371910311311876],[117.4169731947572,3.361617526427739]]],[[[117.4172208626527,3.421142737147619],[117.4381132037614,3.417575696761087],[117.4442665477631,3.398699281346772],[117.4358608103282,3.349704956418641],[117.4178228085758,3.339482655000591],[117.4217306092803,3.373464576329187],[117.4158565362502,3.390469616779445],[117.3969343255588,3.407484678375305],[117.3698872186203,3.415466384566045],[117.3665696942361,3.440721112989053],[117.4172208626527,3.421142737147619]]],[[[117.4001677777209,3.451648347992919],[117.4106613992043,3.44895668430356],[117.4179601800183,3.444225557863255],[117.394964855244,3.451345455428466],[117.4001677777209,3.451648347992919]]],[[[117.4341498051695,3.453844177666742],[117.4539405073487,3.449253718684208],[117.4601155987559,3.438101461613229],[117.4276506259756,3.453748568941361],[117.4341498051695,3.453844177666742]]],[[[117.3446766181316,3.469532739244595],[117.3411498008227,3.469875963704826],[117.3275398198069,3.474126437585067],[117.3359285771423,3.47368256190077],[117.3446766181316,3.469532739244595]]],[[[117.3315437670313,3.482208630423965],[117.3260604728126,3.48193034331079],[117.3166823524088,3.484213081668418],[117.3240970864115,3.488279122583492],[117.3315437670313,3.482208630423965]]],[[[117.4459939853342,3.532415541843847],[117.4442710929367,3.533177346757221],[117.4437242565692,3.534777165134106],[117.4449042956968,3.534500433848041],[117.4459939853342,3.532415541843847]]],[[[117.410111876562,3.550087497040376],[117.4064579643636,3.552774281008308],[117.4038570611546,3.56104279988536],[117.4118792827028,3.557875705099821],[117.410111876562,3.550087497040376]]],[[[117.3260491458514,3.571646763687241],[117.3204526539669,3.572346325622465],[117.3326592887952,3.577214702996145],[117.3311031208125,3.574230858567361],[117.3260491458514,3.571646763687241]]],[[[117.3146770746873,3.570962519005082],[117.3119439693388,3.580923684280645],[117.3346490109431,3.58254704870744],[117.3336222558625,3.581001876735289],[117.3146770746873,3.570962519005082]]],[[[117.3958240378492,3.584814956345216],[117.4126398519477,3.582860714250579],[117.4162487881512,3.566169898721871],[117.4051945841628,3.568066264046909],[117.3958240378492,3.584814956345216]]],[[[117.3857800432145,3.585666920991692],[117.39279384506,3.584867179976413],[117.403306245287,3.56889009789969],[117.3672265320788,3.579780615383154],[117.3857800432145,3.585666920991692]]],[[[117.2480673322417,3.588147736828628],[117.2782660026739,3.587587792842427],[117.2763073188278,3.579546299721969],[117.2999455590403,3.560275938084189],[117.3710958822692,3.562561658593765],[117.4071369561057,3.537931450875863],[117.4376580928467,3.528919115324957],[117.4397605998718,3.504572240816305],[117.4573517797609,3.509229960993942],[117.4850281639187,3.491922346339237],[117.5049614041455,3.497495661795401],[117.5177623874243,3.481199338378826],[117.491310368179,3.457780598395942],[117.4828177517379,3.432374499683476],[117.4491545996051,3.455293070019238],[117.3249573913706,3.491021329970433],[117.2926601502458,3.484351190555056],[117.2307686415596,3.496759373346435],[117.2014160371205,3.539910225576492],[117.2195535371661,3.572031598879221],[117.2480673322417,3.588147736828628]]],[[[117.4223198855543,3.600744273629374],[117.4564884072143,3.582242835938153],[117.4603778707421,3.56873663129058],[117.4356209098771,3.562201060130853],[117.4174833954424,3.584203128671536],[117.3966563028462,3.589971203108554],[117.3265911249805,3.586500935170122],[117.3025010671706,3.578447473871837],[117.2918900319994,3.596953129383461],[117.3895361004107,3.613681033852711],[117.4223198855543,3.600744273629374]]],[[[117.5454419237059,3.580549239855578],[117.5070141372927,3.594082327937119],[117.513893137958,3.611753076243506],[117.5433826461922,3.60725974763929],[117.549374984568,3.598695276266039],[117.5454419237059,3.580549239855578]]],[[[117.0588096409521,3.615901405125776],[117.0534035049678,3.610193078048173],[117.0401974967172,3.604553755051864],[117.0502388221639,3.615761017357077],[117.0588096409521,3.615901405125776]]],[[[117.3700150455579,3.622581929012924],[117.3575424317379,3.613499580341383],[117.3193743452499,3.614258938199487],[117.3424711000613,3.622170726597783],[117.3700150455579,3.622581929012924]]],[[[117.1009706201981,3.614878620551941],[117.0955001709962,3.61595206483598],[117.0907627699859,3.61909554162596],[117.1027517787717,3.623525390684289],[117.1009706201981,3.614878620551941]]],[[[117.3756380917246,3.629074732013326],[117.3674977514202,3.632479890834372],[117.3850559720555,3.630984415398441],[117.3843897228075,3.630470451050559],[117.3756380917246,3.629074732013326]]],[[[117.7199974999848,3.635480223433628],[117.7193666165761,3.636025246767737],[117.7186740225882,3.637163665270936],[117.7198966410173,3.635970969085033],[117.7199974999848,3.635480223433628]]],[[[117.4027968369046,3.630822056292903],[117.3896503152099,3.63230921929507],[117.3825427824236,3.636331598124819],[117.3933087357096,3.637187114194006],[117.4027968369046,3.630822056292903]]],[[[117.4821558920809,3.637394906150092],[117.4873628183395,3.63409373323924],[117.4957281672212,3.637412600311251],[117.5058369589086,3.633795753671198],[117.5184005130733,3.636365571813748],[117.4956409356808,3.598356075372621],[117.4300895253114,3.624142813040464],[117.4352351618733,3.640907783967084],[117.4570041836962,3.633476616652519],[117.4684838992126,3.637718900407027],[117.4760467038923,3.646973798402108],[117.4821558920809,3.637394906150092]]],[[[117.4934217551099,3.667594475904345],[117.512473266728,3.659014360824141],[117.5211333243435,3.639435076667507],[117.4973796030863,3.639937450552932],[117.4887319812959,3.655498800329426],[117.4934217551099,3.667594475904345]]],[[[117.4913936391053,3.68412361311432],[117.4904662312316,3.67739019290314],[117.4777612919502,3.679269443230314],[117.4674413016747,3.671371341614215],[117.4567094299963,3.679377438318209],[117.4277763583923,3.676905995215595],[117.4493589462583,3.698815075655236],[117.4817742890523,3.708655933224779],[117.4928348881197,3.699016524692954],[117.4913936391053,3.68412361311432]]],[[[117.7735950947379,3.743341352821194],[117.7560630533673,3.747760675314925],[117.7490920763383,3.751589771850593],[117.7644751022442,3.749452700281996],[117.7735950947379,3.743341352821194]]],[[[117.7749386189222,3.752648335952035],[117.8091056890763,3.753347279153662],[117.8139551716939,3.734386066663763],[117.8006252143822,3.732109376246772],[117.7719571846763,3.747699640126289],[117.7490174928631,3.754383364700619],[117.7424839937414,3.759621083746122],[117.7749386189222,3.752648335952035]]],[[[117.2374680961758,3.761237270683559],[117.2336472302356,3.750020545711696],[117.248887648846,3.730643230400798],[117.2615074223297,3.7332821416576],[117.2905873352374,3.718804525308638],[117.391880066412,3.709661188213364],[117.4026626832362,3.696328685820237],[117.4270460099655,3.693324186661972],[117.4240920131359,3.677452370230782],[117.4287228489803,3.671145710706035],[117.4554786106494,3.675696302742203],[117.4679074949351,3.667456964167592],[117.4854270941851,3.673463968687262],[117.4902819277688,3.669289645800621],[117.4879001129,3.655821243255829],[117.4959064308372,3.639661873996335],[117.4854418340734,3.635685374980135],[117.4754790590114,3.647962820627736],[117.4570630236396,3.634510998883499],[117.4356067743332,3.641964882173653],[117.4284126080555,3.624740896375322],[117.3959310409848,3.639126136162329],[117.3790455905816,3.640248509860932],[117.3233373832137,3.624223416577465],[117.2610649918559,3.617164070365607],[117.1686825897298,3.644268310334308],[117.0868297576873,3.637905094244708],[117.0613471095815,3.628688174619587],[117.0173940261135,3.59602051443526],[117.0000000001,3.597814441583246],[117.0000000001,3.587652481976566],[117.0271405106262,3.587460772596639],[117.072342129186,3.610760058330097],[117.095266075669,3.608386122421713],[117.132356032405,3.621084419310549],[117.2208760441941,3.609050403953006],[117.2270869088338,3.591925782448889],[117.2072610017939,3.569516655569259],[117.1934292623506,3.536716043210863],[117.2118017831259,3.500064250564815],[117.2532996328718,3.471355084069859],[117.2976217702286,3.465820092323412],[117.2779126275658,3.466595532757676],[117.281786612862,3.460237651446473],[117.3217429580711,3.462495975908574],[117.3015444322298,3.452056196836061],[117.3043176419456,3.447253148913742],[117.3578835796635,3.447463607359612],[117.3588176757952,3.426885064893902],[117.3628750634336,3.430246864701058],[117.3694911499966,3.412800249032365],[117.3940853893293,3.406148673422592],[117.4140618959398,3.388734291254568],[117.4096652489521,3.326711225242928],[117.3904231727912,3.323650868293026],[117.3917311692581,3.341962984304313],[117.3715036834483,3.355880383273146],[117.3720334866562,3.37055319477415],[117.3530335538555,3.367241256079122],[117.3303518325711,3.375588906303072],[117.3282385696543,3.401771208074788],[117.3122147642002,3.413389007296907],[117.3038783177302,3.40992942060636],[117.2990908748441,3.424011018693584],[117.2893904940761,3.427705490316168],[117.2783179906828,3.404252128233164],[117.2830606518276,3.393193841322816],[117.2472441144243,3.313841765784908],[117.2260323673999,3.337278523684994],[117.1870579595572,3.335057477920355],[117.1858415239673,3.347128271052856],[117.172651788949,3.35844642516243],[117.1332713093235,3.343686722963945],[117.1160284035879,3.348290696058797],[117.1108039999048,3.362194999999279],[117.0949489998965,3.366403999844735],[117.0912208378714,3.390384861971828],[117.0668157511461,3.388291073873994],[117.063082428811,3.40314702421589],[117.0481815312527,3.406934332853172],[117.0026196757575,3.391185383598593],[116.9672046550709,3.404357698748871],[116.9239172201037,3.383876924280681],[116.9000607710877,3.396685112028329],[116.8186958887044,3.387002257248394],[116.7854562390142,3.370815992863839],[116.7759179043878,3.382233088586183],[116.7607432819769,3.384545412840566],[116.7416666127241,3.381655008871597],[116.7350961190907,3.369818842565596],[116.7048820549629,3.369282386173222],[116.696306322279,3.399367582847756],[116.7095416322406,3.424196318605265],[116.6970452160639,3.433470314603348],[116.7020372897892,3.450773892201408],[116.6898731254445,3.49893667159018],[116.6759121300408,3.516546443163836],[116.6765049883146,3.533274370116168],[116.6934657866168,3.54989252492015],[116.7115116187663,3.55040648926812],[116.6955281883753,3.561528611856012],[116.6979434319439,3.572089126711852],[116.7191442261252,3.59909739372981],[116.7379805731451,3.605658982276271],[116.715769564214,3.630860082326958],[116.7147987352734,3.642012614590517],[116.7370604650685,3.656354960313223],[116.742622324061,3.681613402936289],[116.7590564919637,3.694289615173684],[116.8334050552992,3.693892476356741],[116.8811846317655,3.731624779260233],[116.9441672887894,3.750333057424736],[116.9684037751143,3.737228409063874],[117.0432272929052,3.734801086700855],[117.13795435441,3.753567401714285],[117.1813545769522,3.749037995007519],[117.215053506814,3.768374410950347],[117.2374680961758,3.761237270683559]]],[[[117.5968361821441,3.780253966847113],[117.6013350730552,3.77366863799724],[117.6281446042901,3.778843559182942],[117.6507263911101,3.769970887446593],[117.6659641899954,3.786091530100077],[117.6908079992897,3.764886089121799],[117.814732393685,3.721058656232067],[117.8264936833369,3.705296969879356],[117.7686881472403,3.681867349898326],[117.7613673986866,3.657432972253915],[117.736757214374,3.632047377184765],[117.7190988371417,3.637592944958467],[117.7167892450277,3.63610197962274],[117.7167740500825,3.628287781156224],[117.6665284012647,3.615027974561457],[117.5911517320668,3.627883256207397],[117.512744217172,3.681511960308836],[117.4859760682411,3.716700201653044],[117.4898588066387,3.723666053445672],[117.4826130723354,3.728032880712927],[117.4853505735702,3.744028340435634],[117.4773409713089,3.756330303400834],[117.4880075899783,3.769327262443255],[117.5029697727368,3.765377743088404],[117.5216565238297,3.775323952638331],[117.5318973521811,3.766892389372355],[117.5579278304051,3.783894197659187],[117.5783700842121,3.780793089729361],[117.5955363308371,3.795860709004572],[117.5968361821441,3.780253966847113]]]]}},{"type":"Feature","properties":{"kode":"65.71","nama":"Kota Tarakan","lat":3.359405466080686,"lng":117.59951145618294},"geometry":{"type":"MultiPolygon","coordinates":[[[[117.526370093705,3.343009117976447],[117.5212379685574,3.343717977102955],[117.5215737187522,3.348098062175907],[117.5260159505757,3.348837689807581],[117.526370093705,3.343009117976447]]],[[[117.523701131602,3.349447252988401],[117.5230723849827,3.349485887863434],[117.522682004571,3.349893008255766],[117.5235154836526,3.349681924781066],[117.523701131602,3.349447252988401]]],[[[117.6186483057748,3.438541292147001],[117.6657809801082,3.415220490133585],[117.6686549516647,3.403657783380009],[117.6682463428944,3.363470834011849],[117.6570992937974,3.326378733291978],[117.6559919010055,3.253586170665312],[117.6432482953726,3.23860187987297],[117.6208295088748,3.25213050371984],[117.6117133034263,3.279434578443063],[117.5874203918376,3.287849733578451],[117.5854855849918,3.296580780078994],[117.5421748018257,3.325563251442908],[117.5146509157073,3.381213020864248],[117.5202760959651,3.41586117705177],[117.5485775808907,3.442296582221548],[117.6186483057748,3.438541292147001]]]]}}]}