{"type":"FeatureCollection","features":[{"type":"Feature","properties":{"kode":"76.01","nama":"Kabupaten Pasangkayu","lat":-1.4896573788987502,"lng":119.5076335133788},"geometry":{"type":"MultiPolygon","coordinates":[[[[119.3763470322898,-1.164786050835501],[119.3749999953536,-1.164354279126625],[119.3745035938658,-1.162941590781744],[119.3751853051577,-1.163268471862436],[119.3763470322898,-1.164786050835501]]],[[[119.5607621774326,-0.849522186599552],[119.5730346228496,-0.879661211295771],[119.5588878221154,-0.899923016134244],[119.5683512243296,-0.920897675787005],[119.5560390684483,-0.926983688446439],[119.551932202809,-0.942528637286769],[119.5609983600863,-0.978689870441121],[119.5572319930622,-1.009868508724646],[119.5741000856505,-1.016809113849495],[119.5783629144171,-1.030220261955497],[119.5789704001639,-1.045144395297529],[119.5722359727121,-1.049783317845845],[119.5834654257889,-1.071189817556009],[119.5726426011751,-1.078943851377614],[119.5899275070489,-1.089603483214121],[119.5932583845668,-1.12500000304763],[119.5813721134324,-1.161927612369398],[119.5921351466197,-1.1834269688795],[119.5356840084103,-1.17821654156012],[119.5230711651023,-1.196404944132803],[119.5347800350706,-1.197592763295388],[119.5323051880341,-1.234534236565723],[119.4663692734234,-1.298582609999402],[119.4816265138525,-1.309547952875681],[119.5046581802309,-1.296731521042796],[119.5134761336167,-1.30070288223221],[119.5105687720313,-1.312246471197634],[119.485404336441,-1.321757970953533],[119.4617244603156,-1.31906117483325],[119.4504646542205,-1.338280909136616],[119.4277766997349,-1.338874943723647],[119.4266953540074,-1.348162896300556],[119.4384541057724,-1.378257225590465],[119.4619931480654,-1.396416196050579],[119.4801930619603,-1.401522385649548],[119.4967450392522,-1.392108269880657],[119.5082630047339,-1.413418707607208],[119.5188517304231,-1.409487228652642],[119.5229121568705,-1.428644032895734],[119.5099206297333,-1.451300031771011],[119.5337744680174,-1.427800047034536],[119.5407836554413,-1.431767343288273],[119.5394354385946,-1.421653814871584],[119.5493720110097,-1.425368005029418],[119.546347603559,-1.436524587839452],[119.5725319261075,-1.419538673271139],[119.5835444725994,-1.425364335795434],[119.5820296986117,-1.40932918989021],[119.5899590696554,-1.409939251295425],[119.5916084145968,-1.395915999423794],[119.6105353656147,-1.405590241396462],[119.6215422571695,-1.396329618317152],[119.6295720384189,-1.406019778290071],[119.6314742817129,-1.399903064574717],[119.6417397074216,-1.403771980392568],[119.6546835399136,-1.422259182714994],[119.6727291382392,-1.431414850414983],[119.6657123245642,-1.433759811965698],[119.670548105111,-1.442366798788688],[119.6813052432425,-1.439613550424992],[119.6850831485686,-1.449927568302625],[119.6972298669649,-1.450665728240688],[119.6667110064079,-1.525165461316893],[119.6712401091438,-1.544671517276599],[119.6903468679137,-1.564429901418743],[119.7007550663933,-1.565516336409781],[119.7152232479546,-1.592674961979837],[119.734457291371,-1.605732991284439],[119.7279599440962,-1.637776507579661],[119.7589372259723,-1.658029222070903],[119.7644406919845,-1.678966240599491],[119.7815656831099,-1.691680595782843],[119.7761105511611,-1.701734188881668],[119.7952952119045,-1.708431387098821],[119.7957993385687,-1.741252761205983],[119.8111124943461,-1.742836488013458],[119.8264337710018,-1.768892515077505],[119.8436890648985,-1.775701980162195],[119.8665026996399,-1.770722202867317],[119.8714766394354,-1.779206325211716],[119.8506428369974,-1.787433545421704],[119.8366791490236,-1.80428954482659],[119.8115150245987,-1.792265482266123],[119.7775887740028,-1.81108648235522],[119.7442653407729,-1.806577966000303],[119.7066530299135,-1.833079405689977],[119.6788701660254,-1.824977700260602],[119.656992689561,-1.841931051276971],[119.6289363751137,-1.820349621737607],[119.5934093627519,-1.810403256604934],[119.5797842659312,-1.819357075068931],[119.5278882316567,-1.791913098210854],[119.5116358913833,-1.793399557043854],[119.4502426619694,-1.753219615193016],[119.4385512892107,-1.728588731184979],[119.4336516747849,-1.736324613090348],[119.4124750786621,-1.733138823198102],[119.4152922562327,-1.741826874910293],[119.3859541623548,-1.757603079918171],[119.377530368332,-1.752909659353266],[119.3652681113343,-1.76889028475882],[119.351821885172,-1.772210579954317],[119.337252564954,-1.818844093679919],[119.311387741851,-1.797810185791418],[119.3152841931111,-1.768370018861257],[119.3007564962154,-1.706118554727512],[119.2814698901234,-1.687198684072014],[119.2873773477864,-1.680559241215976],[119.2851188983186,-1.658586698317402],[119.2946671821449,-1.659086436289916],[119.2907902722533,-1.64748674671589],[119.3054907181222,-1.644650733744315],[119.310513106195,-1.629620019947955],[119.2999781131995,-1.621268038589088],[119.3031222689776,-1.612346426646274],[119.316175131677,-1.608379598039969],[119.3258982500044,-1.589838761049903],[119.3255528186077,-1.567852686052598],[119.2884894017646,-1.450097017663213],[119.2921790566182,-1.390091509615468],[119.3327743062893,-1.349390814434484],[119.323304908295,-1.30370160774296],[119.3032955071819,-1.273266777140039],[119.3376569999706,-1.19377657832638],[119.3409668954059,-1.168420397383388],[119.3586106046957,-1.174317431004537],[119.3779293417658,-1.165393747923085],[119.3857719687014,-1.137479458010551],[119.3891844605945,-1.144079429621916],[119.4003465157791,-1.128280265821571],[119.4164675658255,-1.12617750069102],[119.4612500832249,-1.074123824255027],[119.4809711580926,-0.998695060928315],[119.4993001705665,-0.983719768752314],[119.5215418562717,-0.93672110689347],[119.5269450721574,-0.899015045308074],[119.5607621774326,-0.849522186599552]]]]}},{"type":"Feature","properties":{"kode":"76.02","nama":"Kabupaten Mamuju","lat":-2.519697790734661,"lng":119.34457596991619},"geometry":{"type":"MultiPolygon","coordinates":[[[[117.5529300190052,-2.954224689717558],[117.5477546922254,-2.941554059572107],[117.56226940381,-2.926563456438272],[117.5663739743795,-2.939650490677506],[117.5529300190052,-2.954224689717558]]],[[[118.7664382402327,-2.875331581387355],[118.7663487432999,-2.875582657713396],[118.7662350321211,-2.874890383884024],[118.7662874850795,-2.874897428273629],[118.7664382402327,-2.875331581387355]]],[[[118.7674016686522,-2.874656793076527],[118.7672028195545,-2.874523495562789],[118.767410419955,-2.873984503981644],[118.7678075857516,-2.874338082336594],[118.7674016686522,-2.874656793076527]]],[[[118.765200870224,-2.873227861176789],[118.7662486631453,-2.873643389330896],[118.7640202879061,-2.875827813802514],[118.7639583749791,-2.873271430631943],[118.765200870224,-2.873227861176789]]],[[[118.764875716741,-2.871784771250121],[118.7650916448635,-2.871835980446116],[118.7646635738649,-2.871890565697013],[118.7643592999419,-2.871626871882585],[118.7648306822903,-2.869795654345955],[118.764875716741,-2.871784771250121]]],[[[118.7650972791162,-2.86935424190469],[118.7647619273211,-2.868841185872009],[118.7651601156468,-2.868104204945057],[118.7652775760993,-2.868710169938351],[118.7650972791162,-2.86935424190469]]],[[[118.7657529613301,-2.866773679561588],[118.7656342328337,-2.86709465659303],[118.7654799118685,-2.867048750699189],[118.7656212754016,-2.866562283122834],[118.7657529613301,-2.866773679561588]]],[[[118.7657698946649,-2.866280696396986],[118.7656684574334,-2.865782875779013],[118.7658648387914,-2.865516378777746],[118.7659689326202,-2.865987057856392],[118.7657698946649,-2.866280696396986]]],[[[118.7673894288791,-2.860516009706052],[118.7677230027144,-2.860147227412549],[118.7668835107655,-2.861654663831617],[118.7663898423174,-2.865005941570844],[118.7660308734261,-2.865312460201855],[118.7673596361384,-2.85873220622628],[118.7673894288791,-2.860516009706052]]],[[[118.767659356794,-2.858497434608845],[118.7671381187292,-2.857224060242094],[118.767469618728,-2.856657668116805],[118.7677193847419,-2.856896091881092],[118.767659356794,-2.858497434608845]]],[[[118.7671595198961,-2.855550931830011],[118.767703646606,-2.855579596820926],[118.7669116208747,-2.856038865301327],[118.7668796050099,-2.855445563661776],[118.7671595198961,-2.855550931830011]]],[[[118.7669199755764,-2.854703505162595],[118.7666315809828,-2.854344843839465],[118.7668710857321,-2.852836047645438],[118.7673162798225,-2.853339441362104],[118.7669199755764,-2.854703505162595]]],[[[118.7604140262863,-2.801841627788873],[118.7602312165974,-2.803180358586646],[118.761709799168,-2.804709180883938],[118.7597166928712,-2.803254889901188],[118.7601136985884,-2.800179514273074],[118.7604140262863,-2.801841627788873]]],[[[118.7817541479357,-2.73395365643603],[118.7817853858869,-2.73318407328629],[118.7814753805845,-2.732736016653783],[118.7819333810208,-2.733269644678307],[118.7817541479357,-2.73395365643603]]],[[[118.7765518342997,-2.723805096727785],[118.7763600457796,-2.723759082016011],[118.7763990152024,-2.723534944881736],[118.7765750134262,-2.723667611970695],[118.7765518342997,-2.723805096727785]]],[[[118.7760032604422,-2.725585094276608],[118.777107447151,-2.725067295219466],[118.7759973429031,-2.725972788413403],[118.7749625289975,-2.724865790423861],[118.7749057260185,-2.721554071163348],[118.7760032604422,-2.725585094276608]]],[[[118.7776428369474,-2.710563677671532],[118.7775467974468,-2.70976172792137],[118.7776444404386,-2.709505222388023],[118.7777418783851,-2.710088163837623],[118.7776428369474,-2.710563677671532]]],[[[118.7790291409822,-2.702332203668226],[118.7789123541219,-2.70210133420912],[118.7790614464288,-2.701977228666122],[118.7791242973485,-2.702220385562251],[118.7790291409822,-2.702332203668226]]],[[[118.7789424265518,-2.701862217966935],[118.7787502899939,-2.701758509047883],[118.7787921966027,-2.701204127368564],[118.7789363165579,-2.701371206116201],[118.7789424265518,-2.701862217966935]]],[[[118.7787116371325,-2.7002850148415],[118.7786267896946,-2.700065852756842],[118.7788541032344,-2.699933041776406],[118.778873658093,-2.70008583569277],[118.7787116371325,-2.7002850148415]]],[[[118.7807393970057,-2.685179407303709],[118.7797764865957,-2.685597235024309],[118.7788358451982,-2.688353484425734],[118.7797904908385,-2.68533226237391],[118.7807393970057,-2.685179407303709]]],[[[118.7831332636893,-2.681245478595942],[118.7833366255849,-2.681341485720948],[118.782886043656,-2.681289698260938],[118.7825678203487,-2.680737200661179],[118.7825065009742,-2.679375003853293],[118.7830141745645,-2.678488978283669],[118.7838964607532,-2.677976322449263],[118.7826864319333,-2.679435779137831],[118.7831332636893,-2.681245478595942]]],[[[118.8502401099931,-2.658408897652434],[118.8504735119431,-2.6584551138124],[118.8504821679178,-2.658833525147022],[118.8500670921227,-2.658759099053112],[118.8502401099931,-2.658408897652434]]],[[[118.8963691948824,-2.658700313968223],[118.8957685520772,-2.658505572074413],[118.8964831281939,-2.658032933373169],[118.8965855789614,-2.658205989914444],[118.8963691948824,-2.658700313968223]]],[[[118.8452788173636,-2.653774890798458],[118.845066360624,-2.653604759751785],[118.8451161785689,-2.653243893290982],[118.8453267872016,-2.653380569557642],[118.8452788173636,-2.653774890798458]]],[[[118.7978125548056,-2.650661424385151],[118.7974712000359,-2.65189100086898],[118.7970199013475,-2.651956043436579],[118.7969036675703,-2.650919200660587],[118.7978125548056,-2.650661424385151]]],[[[118.8099609342498,-2.638027257252043],[118.8098247157381,-2.637919540954028],[118.8099639613678,-2.637371771989619],[118.8101351203396,-2.637715014436351],[118.8099609342498,-2.638027257252043]]],[[[118.8366271180471,-2.638237355969222],[118.8365150948957,-2.638184171861971],[118.8364394232409,-2.637780539040582],[118.8366635181069,-2.637306832844002],[118.8366271180471,-2.638237355969222]]],[[[118.8361481418234,-2.636892549351602],[118.8360544387614,-2.637069016122132],[118.836125672262,-2.637511539226159],[118.8355620662364,-2.637011874098663],[118.8361481418234,-2.636892549351602]]],[[[118.8100387319021,-2.636374101883268],[118.8098324930752,-2.6361837306945],[118.8099680469879,-2.635831576865735],[118.8100892926869,-2.635932496087781],[118.8100387319021,-2.636374101883268]]],[[[118.8102940611221,-2.634295613951368],[118.8101301686725,-2.63428927013363],[118.8101362795658,-2.634075259365678],[118.8103208510266,-2.634068225767974],[118.8102940611221,-2.634295613951368]]],[[[118.8104595381771,-2.63386836313442],[118.8101022204412,-2.633801644230418],[118.8100588974003,-2.633751393711828],[118.8105390832122,-2.633585412137032],[118.8104595381771,-2.63386836313442]]],[[[118.8110428546442,-2.630810725734348],[118.810641959359,-2.630678004686063],[118.8106071627904,-2.630541692644941],[118.8109527596622,-2.630425516424387],[118.8110428546442,-2.630810725734348]]],[[[118.8118548750025,-2.629578048388195],[118.8120480143045,-2.629763735907689],[118.8112725963533,-2.629467456957515],[118.811494218983,-2.62930302941127],[118.8118548750025,-2.629578048388195]]],[[[118.8121618567844,-2.628330890158351],[118.8120276149825,-2.62829581929658],[118.8120299981859,-2.628164860919549],[118.8121915550962,-2.628174030407118],[118.8121618567844,-2.628330890158351]]],[[[118.8126572312462,-2.626627331386169],[118.812537291363,-2.625972497232867],[118.8128472508,-2.625461391829711],[118.8128637992251,-2.625913008878269],[118.8126572312462,-2.626627331386169]]],[[[118.8906999622335,-2.613150834943026],[118.8977403624278,-2.630854969681076],[118.8889744662987,-2.653444115653405],[118.8779340660044,-2.63061537230154],[118.8906999622335,-2.613150834943026]]],[[[117.9430506210893,-2.537337796701935],[117.9453855821789,-2.538882152089597],[117.9431072199223,-2.542242529169394],[117.9409559723404,-2.538032396178094],[117.9430506210893,-2.537337796701935]]],[[[119.037500582386,-2.513951334286604],[119.0368290226413,-2.514060175636493],[119.0369398658821,-2.513440886287801],[119.0370471702907,-2.513450090848915],[119.037500582386,-2.513951334286604]]],[[[119.0457614642203,-2.505343485013769],[119.0453938078779,-2.505322651319267],[119.0448978083872,-2.50499691597488],[119.0452868182322,-2.505044479319254],[119.0457614642203,-2.505343485013769]]],[[[119.0467183680583,-2.504518400203962],[119.0463258733405,-2.504169607141618],[119.0474299233523,-2.504140142653435],[119.0472703539438,-2.504478710424143],[119.0467183680583,-2.504518400203962]]],[[[117.364570999552,-2.493272000302474],[117.3634999996253,-2.492402999798562],[117.3639770000386,-2.49148199959455],[117.3649980003574,-2.492362999752531],[117.364570999552,-2.493272000302474]]],[[[119.1206803029537,-2.469003292168173],[119.1243139777079,-2.470554219801338],[119.1244212677274,-2.474253775291471],[119.1199770160265,-2.470995709584292],[119.1206803029537,-2.469003292168173]]],[[[119.1440275846054,-2.468336826183551],[119.1437014742437,-2.468205765283818],[119.143853106236,-2.467795449600255],[119.1440755580406,-2.467862414019153],[119.1440275846054,-2.468336826183551]]],[[[119.1271387734357,-2.463214920032522],[119.1267986093684,-2.463056107853026],[119.1268111818906,-2.462608723913442],[119.127162549712,-2.462693710746125],[119.1271387734357,-2.463214920032522]]],[[[117.3753919445826,-2.458630364199868],[117.3771951041709,-2.458917255127149],[117.376338999945,-2.462061999961287],[117.3747220000204,-2.460629000427941],[117.3753919445826,-2.458630364199868]]],[[[117.3212794717702,-2.449984194814705],[117.3260548934187,-2.453108611373336],[117.3265403033923,-2.454583877244046],[117.3254411420951,-2.454625460996132],[117.3212794717702,-2.449984194814705]]],[[[117.6524979278372,-2.455060368641051],[117.6523769995989,-2.4527019999973],[117.6559015182405,-2.449090075346641],[117.6557381590888,-2.45038115916312],[117.6524979278372,-2.455060368641051]]],[[[117.5448981657179,-2.453184283028145],[117.5449663154432,-2.451445219021567],[117.5484578397576,-2.446464685396846],[117.5456310403403,-2.452556104780326],[117.5448981657179,-2.453184283028145]]],[[[117.4932966782991,-2.44702750001913],[117.49284967837,-2.446535499813399],[117.4931236784151,-2.445835499908336],[117.4937666783895,-2.446522500113238],[117.4932966782991,-2.44702750001913]]],[[[117.4809674173125,-2.449185550972357],[117.4807148031457,-2.448851974439028],[117.4845937158274,-2.444045914687168],[117.4843748046537,-2.446701394153974],[117.4809674173125,-2.449185550972357]]],[[[117.5501748002269,-2.43947941993923],[117.5518948291831,-2.439902335124591],[117.5494419256044,-2.444189563397606],[117.5491078859203,-2.44353696226092],[117.5501748002269,-2.43947941993923]]],[[[117.3999450003616,-2.433225000233532],[117.402078287583,-2.433226469725794],[117.3989255513731,-2.434239958007625],[117.3982033642938,-2.433617906840871],[117.397739101878,-2.431973263555223],[117.3999450003616,-2.433225000233532]]],[[[117.410990134687,-2.421907696882711],[117.4110189948308,-2.422076432181511],[117.4096124272718,-2.421508621825444],[117.410440478945,-2.421323024238101],[117.410990134687,-2.421907696882711]]],[[[117.5934655231155,-2.418579423801306],[117.5942864368696,-2.420642417313681],[117.593394139428,-2.424968276864428],[117.5911455492278,-2.419036281199352],[117.5934655231155,-2.418579423801306]]],[[[117.2782523599585,-2.361329285618011],[117.2787591845888,-2.361664790297782],[117.2788802450274,-2.362514215258818],[117.2777669499848,-2.361650512660932],[117.2782523599585,-2.361329285618011]]],[[[117.3269057941671,-2.36186549739468],[117.3251806849407,-2.360842328810422],[117.3256418051253,-2.357438060318165],[117.329404227723,-2.358593737710793],[117.3269057941671,-2.36186549739468]]],[[[117.2726264197734,-2.347233514215288],[117.2728950032019,-2.347363514814374],[117.2719457948626,-2.347231878348468],[117.2724167320466,-2.347167209898762],[117.2726264197734,-2.347233514215288]]],[[[117.081683999717,-2.34332899963359],[117.0809380003884,-2.34290299977358],[117.0825710001516,-2.342352999591204],[117.0824910000597,-2.342823999727786],[117.081683999717,-2.34332899963359]]],[[[117.2310980011719,-2.317360980225017],[117.2290439999807,-2.315416000248119],[117.2298830000006,-2.313041000441787],[117.2315077979466,-2.313928409168645],[117.2310980011719,-2.317360980225017]]],[[[119.1329486312744,-2.305596833427062],[119.1341607069511,-2.305705737729527],[119.1297076868603,-2.307709163746877],[119.1301655703848,-2.305626547027442],[119.1329486312744,-2.305596833427062]]],[[[117.6888309998507,-2.289171999588094],[117.6882900000835,-2.288908000004122],[117.6882279999223,-2.28864400042024],[117.6885420000134,-2.288581000212966],[117.6888309998507,-2.289171999588094]]],[[[117.6605235802991,-2.275819733693732],[117.6614515808259,-2.276088862111239],[117.6630934101329,-2.278730063041914],[117.6600239052791,-2.276674209247245],[117.6605235802991,-2.275819733693732]]],[[[117.0659061273659,-2.265242315180663],[117.0629912870183,-2.271369426857531],[117.0587974866149,-2.269763290743201],[117.063913327738,-2.259620838330958],[117.0659061273659,-2.265242315180663]]],[[[117.1392779999798,-2.239367999733391],[117.140981000273,-2.240267999868253],[117.1373370004024,-2.2393230003561],[117.1384719996831,-2.238721999620521],[117.1392779999798,-2.239367999733391]]],[[[117.4118889360256,-2.225178867011016],[117.4089429890277,-2.222273498323249],[117.4092838419758,-2.219181470848122],[117.411872704162,-2.221250937680599],[117.4118889360256,-2.225178867011016]]],[[[119.5436169983259,-2.116626995339546],[119.5589341138184,-2.133965479223468],[119.5756300024227,-2.133808998086709],[119.5804653360066,-2.145496421022999],[119.5972739995955,-2.150907997006415],[119.6378039971567,-2.147132997389869],[119.6593791494282,-2.135609045121248],[119.6802512396031,-2.142251883817339],[119.7082615222515,-2.138093588648163],[119.7387699191964,-2.189987359329118],[119.7467370725579,-2.214708840140814],[119.7425318759453,-2.227905196867288],[119.7177377523955,-2.244000520907255],[119.7122024755639,-2.256231509376574],[119.6762640503457,-2.270490400711347],[119.6990140013951,-2.31398998934649],[119.6805038501726,-2.328099341411408],[119.6878374509377,-2.371161308247752],[119.7107673446374,-2.378501473164432],[119.7228798762054,-2.392711444077891],[119.7087823987887,-2.41856192029635],[119.7229251489765,-2.435893357992017],[119.7244514621654,-2.467004296211231],[119.710077087088,-2.488975670890417],[119.7108276486771,-2.515886295815831],[119.7452847340034,-2.535192647422749],[119.7622389627581,-2.57187918537605],[119.7604572942688,-2.588096531229914],[119.7439791962829,-2.610620562688817],[119.7563283250923,-2.636818894876017],[119.7505776930062,-2.644228688902819],[119.7551814205861,-2.676603946215097],[119.7458615762508,-2.683479227284449],[119.747819966918,-2.714385318827331],[119.7299014086232,-2.718406047401148],[119.6807173357365,-2.756497165411778],[119.6307074576832,-2.754604123981055],[119.6141332221705,-2.750379653997806],[119.6082817068354,-2.739019050089],[119.583764444074,-2.747949163323218],[119.5699923863396,-2.740856583564424],[119.5696711592966,-2.731945502682789],[119.5528496003288,-2.72857802815343],[119.5255108117745,-2.742798263928739],[119.5182425098839,-2.737646017349762],[119.4884481881335,-2.741071697800537],[119.4824173246,-2.749679279075393],[119.47179227979,-2.746578308741901],[119.4538061311481,-2.755372377033519],[119.4489749002716,-2.768861649245638],[119.4361389900224,-2.771802753394306],[119.4230740233475,-2.760390144389627],[119.4004514981382,-2.762866426744173],[119.4015155903723,-2.753653765408862],[119.3798434696004,-2.743604464774199],[119.3640751291639,-2.720049139356265],[119.3688575286521,-2.709331155008757],[119.3461765061409,-2.703934537448907],[119.3478980864276,-2.691164684202787],[119.323631390976,-2.692507890027043],[119.3001214480464,-2.709222704863892],[119.2366864248387,-2.713879419599488],[119.2178063177074,-2.703872296269408],[119.2058489866415,-2.673771141125217],[119.1876379103614,-2.657243923967892],[119.1494824602475,-2.670612528745123],[119.1377239647892,-2.68490490094038],[119.1369857949585,-2.653566767891993],[119.1022055922143,-2.66907507475487],[119.080295580077,-2.702487430250658],[119.0617547170067,-2.704039901120472],[119.0454937783153,-2.73646622373718],[119.0262508900665,-2.742929323929102],[119.0130992413369,-2.773561207683509],[119.0254377221732,-2.805518482591898],[119.0229785539172,-2.852037812095334],[119.0134103141347,-2.86741787383569],[119.0253307541111,-2.888583898428079],[119.0220605268719,-2.897912253048032],[119.0350428674344,-2.909374591863825],[119.0551453151043,-2.908091056057385],[119.0462753503272,-2.923497010178869],[119.032626761416,-2.926272889981776],[119.0261366662742,-2.960421944017424],[119.0009645225947,-2.960837295904442],[118.9803122114394,-2.945060732966434],[118.9746606477707,-2.928470233214655],[118.9546829288741,-2.928042709903059],[118.9427059763998,-2.914822443800682],[118.8980653360464,-2.934724795912549],[118.8840052110716,-2.930797232606144],[118.8776170495872,-2.922389802647254],[118.88545576717,-2.910946567230235],[118.8849831581462,-2.886716824022153],[118.8510137940514,-2.851572682733108],[118.8306622971273,-2.857334166938211],[118.8093652916749,-2.851047331169346],[118.7694317568702,-2.866844138745941],[118.7711879466665,-2.811039563624876],[118.757528636937,-2.789684740758139],[118.7603299468697,-2.764873353822209],[118.7644203720026,-2.752201029353943],[118.7829714378817,-2.746509459344074],[118.7814507634421,-2.726174994680244],[118.7748697900089,-2.721093693818924],[118.7792386848175,-2.689256778777319],[118.7978520611238,-2.665649876340728],[118.8154471395738,-2.622334485048386],[118.8234572742339,-2.622027085981207],[118.8679036394415,-2.67980098212959],[118.912262048255,-2.666782806281434],[118.9423027338842,-2.639513974190491],[118.9596245551292,-2.641081623817845],[118.9668566008515,-2.627918056373149],[118.9817068683774,-2.628599703813242],[118.9964945817596,-2.617241445336374],[118.9987308089797,-2.604329161061949],[119.0110096566704,-2.599682519632543],[119.0088256917524,-2.585384177737618],[119.029625739936,-2.582833209385063],[119.03307294566,-2.527975259750439],[119.0425576564108,-2.508177515879575],[119.1243756352275,-2.482211542428628],[119.147730534137,-2.466839499043585],[119.1437079970264,-2.460162389882361],[119.126704837958,-2.46479132276132],[119.1354716370065,-2.449552429401061],[119.1429766737346,-2.393325314111896],[119.1220116170425,-2.323932107880447],[119.1233122696456,-2.311731175653156],[119.1348117216837,-2.308253285061015],[119.1348590044396,-2.303591979286315],[119.1302376033827,-2.298387313923358],[119.2006645650178,-2.313287774411224],[119.2518082624413,-2.248875415667831],[119.2744509153775,-2.243680589787347],[119.2893082479774,-2.219754312011871],[119.2939785280867,-2.227426782719791],[119.3131161443946,-2.228012705421969],[119.3152885377359,-2.216597962326075],[119.3340494586157,-2.201865104890624],[119.3487496391846,-2.20078771078416],[119.3548151032345,-2.209060764942341],[119.3712855785667,-2.192470017877016],[119.389649959578,-2.196262490421555],[119.4113003500312,-2.185012502225161],[119.4338529331664,-2.194237620969355],[119.4455495022078,-2.17219719274622],[119.4513532239722,-2.175124700044842],[119.4682372300643,-2.159931035388921],[119.4716198977402,-2.138618045386467],[119.4903399965937,-2.12355599561265],[119.5144589613122,-2.117642044844439],[119.5266929607116,-2.124825608115247],[119.5436169983259,-2.116626995339546]]]]}},{"type":"Feature","properties":{"kode":"76.03","nama":"Kabupaten Mamasa","lat":-2.945739799711806,"lng":119.31439347605969},"geometry":{"type":"MultiPolygon","coordinates":[[[[119.1384594861164,-2.654256892341669],[119.1377239647892,-2.68490490094038],[119.1494824602475,-2.670612528745123],[119.1876379103614,-2.657243923967892],[119.2058489866415,-2.673771141125217],[119.2178063177074,-2.703872296269408],[119.2366864248387,-2.713879419599488],[119.3001214480464,-2.709222704863892],[119.323631390976,-2.692507890027043],[119.3478980864276,-2.691164684202787],[119.3461765061409,-2.703934537448907],[119.3688575286521,-2.709331155008757],[119.3640751291639,-2.720049139356265],[119.3798434696004,-2.743604464774199],[119.4015155903723,-2.753653765408862],[119.4004514981382,-2.762866426744173],[119.4230740233475,-2.760390144389627],[119.4361389900224,-2.771802753394306],[119.4489749002716,-2.768861649245638],[119.4538061311481,-2.755372377033519],[119.47179227979,-2.746578308741901],[119.4824173246,-2.749679279075393],[119.4884481881335,-2.741071697800537],[119.5182425098839,-2.737646017349762],[119.5255108117745,-2.742798263928739],[119.5528496003288,-2.72857802815343],[119.5696711592966,-2.731945502682789],[119.5699923863396,-2.740856583564424],[119.5831036896837,-2.746223367914061],[119.578016007233,-2.753551373097343],[119.5856383011667,-2.763702075890054],[119.575481725801,-2.771028316603433],[119.5678143866247,-2.798283977223706],[119.5789196172466,-2.837000338095111],[119.5660977472133,-2.878942118384023],[119.5499596981817,-2.897578894150568],[119.5765984265762,-2.950223728242365],[119.564606509383,-2.994338177065162],[119.594924313906,-3.062864671567292],[119.6195331150613,-3.078997225741345],[119.6369376811291,-3.12776996041533],[119.6059376158284,-3.118112156250932],[119.5983676867195,-3.12811344927624],[119.573009681052,-3.131037179422227],[119.5729722215908,-3.144749999712618],[119.5359220922308,-3.139400860960942],[119.5156814070714,-3.171040841561526],[119.4859346252828,-3.188886400087279],[119.4703135362407,-3.190894220192034],[119.4620367489968,-3.181351043615768],[119.44465934875,-3.191169170820521],[119.4319722223403,-3.167388888985981],[119.3937526379739,-3.198852776034736],[119.3702777766981,-3.198694444093311],[119.4036916916183,-3.246802202059909],[119.4199387573679,-3.247753245915488],[119.432066717705,-3.261726797653511],[119.4406341100762,-3.300613437959734],[119.4365607909478,-3.313406427164781],[119.4446162370498,-3.314554913578396],[119.4385640973554,-3.320094667235088],[119.4465234760776,-3.332424198917552],[119.4421097680514,-3.338297086641242],[119.4184062433535,-3.333941105197782],[119.4117799198075,-3.321915785385146],[119.3999689102371,-3.322066206889909],[119.3956055930238,-3.309600211180699],[119.3708497931834,-3.308180823785969],[119.3371013421532,-3.289455799345633],[119.3351334951147,-3.270599623174045],[119.295960652762,-3.263642034352346],[119.3115987722656,-3.239776056120006],[119.2874969729071,-3.213734805816573],[119.2895493076545,-3.198043676674247],[119.2609271577622,-3.172757870379408],[119.2572811299202,-3.157985457163084],[119.2691094307556,-3.138854591166387],[119.2621125910233,-3.120335506978014],[119.2747416149337,-3.094650154381087],[119.2680815038584,-3.074415217688101],[119.2510230679603,-3.073604693801515],[119.2220412333163,-3.084169501121517],[119.2068852808311,-3.101562761811996],[119.1553866093047,-3.108193609847179],[119.1490624948382,-3.116786576239486],[119.1310458097164,-3.096937490972421],[119.1122072926325,-3.092527682406557],[119.0805248640313,-3.113029229415323],[119.066543177026,-3.108218434732882],[119.0575600973207,-3.047480328154586],[119.075888468578,-3.038347001412925],[119.0821696763895,-3.017902556857413],[119.0684391340588,-2.988252124835602],[119.0261366662742,-2.960421944017424],[119.032626761416,-2.926272889981776],[119.0462753503272,-2.923497010178869],[119.0551453151043,-2.908091056057385],[119.0350428674344,-2.909374591863825],[119.0220605268719,-2.897912253048032],[119.0253307541111,-2.888583898428079],[119.0134103141347,-2.86741787383569],[119.0229785539172,-2.852037812095334],[119.0254377221732,-2.805518482591898],[119.0130992413369,-2.773561207683509],[119.0262508900665,-2.742929323929102],[119.0454937783153,-2.73646622373718],[119.0617547170067,-2.704039901120472],[119.080295580077,-2.702487430250658],[119.1022055922143,-2.66907507475487],[119.1384594861164,-2.654256892341669]]]]}},{"type":"Feature","properties":{"kode":"76.04","nama":"Kabupaten Polewali Mandar","lat":-3.3101502738008928,"lng":119.14732655546528},"geometry":{"type":"MultiPolygon","coordinates":[[[[119.3899500291706,-3.489615034706064],[119.3890636483687,-3.489061718723255],[119.3891539349063,-3.488662827127678],[119.3895296221943,-3.488733404123215],[119.3899500291706,-3.489615034706064]]],[[[119.3600605906238,-3.486108161662285],[119.358772080667,-3.488298163729178],[119.355079403192,-3.488201652983827],[119.3558701258057,-3.486883451909664],[119.3600605906238,-3.486108161662285]]],[[[119.3792673611998,-3.470316082721039],[119.378020390029,-3.468919913123417],[119.3781109148869,-3.46812391508651],[119.379213382092,-3.469641632555279],[119.3792673611998,-3.470316082721039]]],[[[119.3715455599797,-3.467814243432501],[119.3739625374412,-3.482116913764502],[119.3642474302748,-3.484321719571673],[119.3626177732916,-3.471461104046705],[119.3715455599797,-3.467814243432501]]],[[[119.4163874856939,-3.467696078810947],[119.4149175060381,-3.477496887771084],[119.4080957283353,-3.474355435355017],[119.4103091676341,-3.470709248333106],[119.4163874856939,-3.467696078810947]]],[[[119.3915273294227,-3.465318872967574],[119.3946475065773,-3.466705534932471],[119.3943935524205,-3.477218788616179],[119.3894416226328,-3.470340634212812],[119.3915273294227,-3.465318872967574]]],[[[119.376150925225,-3.468899099213976],[119.3747520837418,-3.466390050060733],[119.3760777231086,-3.465182360377542],[119.3768497389244,-3.466929300646695],[119.376150925225,-3.468899099213976]]],[[[119.380990015277,-3.461217327717472],[119.378084369598,-3.458583833976705],[119.3785430436267,-3.458072709687768],[119.3813239218617,-3.460422077916528],[119.380990015277,-3.461217327717472]]],[[[119.2785741360876,-3.447144105016411],[119.2783370622058,-3.44729402919606],[119.2779513348863,-3.446998432831341],[119.2783605947657,-3.446633789217993],[119.2785741360876,-3.447144105016411]]],[[[119.262548983449,-3.072961694726375],[119.2715495675585,-3.077692924588751],[119.2747416149337,-3.094650154381087],[119.2621125910233,-3.120335506978014],[119.2691094307556,-3.138854591166387],[119.2572811299202,-3.157985457163084],[119.2609271577622,-3.172757870379408],[119.2895493076545,-3.198043676674247],[119.2874969729071,-3.213734805816573],[119.3115987722656,-3.239776056120006],[119.295960652762,-3.263642034352346],[119.3356291645543,-3.270866891793547],[119.3371013421532,-3.289455799345633],[119.3708497931834,-3.308180823785969],[119.3956055930238,-3.309600211180699],[119.3999689102371,-3.322066206889909],[119.4117799198075,-3.321915785385146],[119.4118750509929,-3.329837221710344],[119.4302066562122,-3.334935624979066],[119.4511094015777,-3.354521109061873],[119.4654778672099,-3.37587631144263],[119.4594550517093,-3.384265584089421],[119.4743127656217,-3.412997310977042],[119.4691770386894,-3.433735464220236],[119.4782996230292,-3.447256918671807],[119.4752638157726,-3.457679688866547],[119.4928914361909,-3.483624113661834],[119.4742347961989,-3.502275058247298],[119.452899590244,-3.478396556056198],[119.4440555052574,-3.476691573657112],[119.4417823797532,-3.484142356984135],[119.4267422860278,-3.472992726832816],[119.4285314152927,-3.459726770673813],[119.4113077388611,-3.466762939557968],[119.3866603666827,-3.449973864102487],[119.3763494056006,-3.454502948851948],[119.37341106327,-3.463309270406414],[119.344043077726,-3.434025485687611],[119.3048001296223,-3.425470509356535],[119.2853718182548,-3.429380838954524],[119.2769133643604,-3.44737789997003],[119.2892882407598,-3.440564107347635],[119.2892474583036,-3.446920950841184],[119.2371933681794,-3.471909390905628],[119.2351217043033,-3.485386227292489],[119.1444893576978,-3.49166731369557],[119.1082497962911,-3.516314003288626],[119.0648248181109,-3.502564453786475],[119.0404347833387,-3.516219102329712],[119.020146733585,-3.515522752772762],[119.0041525868725,-3.533079679283693],[118.9818316286269,-3.497988133045807],[118.9662229322426,-3.49837436488494],[118.9637869197306,-3.472356249641154],[118.9491413459964,-3.458544235028407],[118.9513701807892,-3.444884156378672],[118.9151420605577,-3.408630097900625],[118.9144094593292,-3.386374346798585],[118.9226665100515,-3.386689869441886],[118.9246784679371,-3.369366061594439],[118.9392977850648,-3.355683935165457],[118.9285064646017,-3.341240413913907],[118.9246977386098,-3.292710048330052],[118.9151006863476,-3.277530211649873],[118.9096829347197,-3.237875920837022],[118.9167148668977,-3.224284261709245],[118.9016311425632,-3.198218225190866],[118.909559497373,-3.163924550277722],[118.9545487293404,-3.159626906056781],[118.9463742570664,-3.105444847301866],[118.9620899817673,-3.088742509659051],[118.9835325460901,-3.09986060778076],[119.0035957761242,-3.0852231684144],[119.0254020307791,-3.090882800800523],[119.0376731398036,-3.084600557869413],[119.0653894421691,-3.115437919624211],[119.0983233817188,-3.10524141615838],[119.1094650465746,-3.093237659390427],[119.123518995905,-3.094174502950933],[119.1490624948382,-3.116786576239486],[119.1553866093047,-3.108193609847179],[119.2068852808311,-3.101562761811996],[119.2220412333163,-3.084169501121517],[119.262548983449,-3.072961694726375]]]]}},{"type":"Feature","properties":{"kode":"76.05","nama":"Kabupaten Majene","lat":-3.173163960081831,"lng":118.91846698602926},"geometry":{"type":"MultiPolygon","coordinates":[[[[118.999999996103,-3.564346571636959],[118.9998459287467,-3.564140584620271],[119.0003590917987,-3.563951623568487],[119.0003380386696,-3.564119976655514],[118.999999996103,-3.564346571636959]]],[[[119.0010333917777,-3.562032687058794],[119.0006478326315,-3.562004324240123],[119.000524979844,-3.561785563253109],[119.0009025647016,-3.561663313011445],[119.0010333917777,-3.562032687058794]]],[[[118.8442528383979,-3.339944032191314],[118.8428823741223,-3.339455424228424],[118.8428337270949,-3.337016788394001],[118.8446656892702,-3.339148653787285],[118.8442528383979,-3.339944032191314]]],[[[118.8478926887966,-3.312001766168551],[118.8477355295711,-3.311691637658923],[118.8482784610822,-3.311088919218166],[118.8484154188366,-3.311436728422182],[118.8478926887966,-3.312001766168551]]],[[[118.9473109477422,-2.920016879375423],[118.9551227504147,-2.928202446585606],[118.9746606477707,-2.928470233214655],[118.9803122114394,-2.945060732966434],[119.0009645225947,-2.960837295904442],[119.0261366662742,-2.960421944017424],[119.0666842473802,-2.986474434947153],[119.08274314528,-3.024479787312265],[119.0566864707041,-3.053519049064748],[119.0665038559682,-3.108100762040491],[119.0706442726151,-3.106787774336242],[119.0741366998488,-3.111740494628082],[119.0628668258433,-3.114084558655408],[119.0376731398036,-3.084600557869413],[119.0254020307791,-3.090882800800523],[119.0035957761242,-3.0852231684144],[118.9835325460901,-3.09986060778076],[118.9602137603568,-3.08934761040385],[118.9463742570664,-3.105444847301866],[118.9545487293404,-3.159626906056781],[118.9103496381253,-3.163082633756511],[118.9013885171665,-3.188114214299523],[118.9169526809215,-3.225537706200113],[118.9096829347197,-3.237875920837022],[118.9151082127738,-3.27756616744457],[118.9246977386098,-3.292710048330052],[118.9254210300565,-3.3278869267402],[118.939290117445,-3.355440807047552],[118.9246784679371,-3.369366061594439],[118.9226665100515,-3.386689869441886],[118.9144094593292,-3.386374346798585],[118.9151420605577,-3.408630097900625],[118.9513701807892,-3.444884156378672],[118.9491413459964,-3.458544235028407],[118.9637869197306,-3.472356249641154],[118.9662229322426,-3.49837436488494],[118.9818316286269,-3.497988133045807],[119.0053478883944,-3.533448647736817],[118.9947150887304,-3.553720194931012],[119.0008129850313,-3.563391917003303],[118.9846416565872,-3.560624116709546],[118.965535064192,-3.544960928603905],[118.9466340244408,-3.552733315789849],[118.9391358450433,-3.570579913931818],[118.9017365242213,-3.516410884554658],[118.895444219675,-3.486964336035195],[118.8790716328497,-3.475640409177474],[118.878877723728,-3.441145100865642],[118.8456970192021,-3.37904360228041],[118.8524107820321,-3.344815556292849],[118.8424968032849,-3.326053388952646],[118.858664786251,-3.3020428815737],[118.8312242852726,-3.23263939788985],[118.8392535763914,-3.209120483323582],[118.8280235270642,-3.167765800251468],[118.7800690036817,-3.121713988709621],[118.775557857709,-3.092224368959398],[118.7793245979519,-3.080001363771848],[118.7957088022195,-3.082270567332815],[118.7962440643122,-3.070960989158225],[118.823902017764,-3.088895753236345],[118.8399953363158,-3.078871675887099],[118.859630905442,-3.031758614868155],[118.8478420767505,-3.006939562111002],[118.8485177697793,-2.987699838576654],[118.8690009616252,-2.956686962433322],[118.8756009161494,-2.9229066349332],[118.8960034612908,-2.934999545992214],[118.9420278300204,-2.914953314044125],[118.9473109477422,-2.920016879375423]]]]}},{"type":"Feature","properties":{"kode":"76.06","nama":"Kabupaten Mamuju Tengah","lat":-2.0026542496796775,"lng":119.5110891019249},"geometry":{"type":"MultiPolygon","coordinates":[[[[119.1287058600874,-2.255647043576195],[119.1269191419049,-2.255136456182496],[119.1270260578063,-2.253713800651338],[119.1290133373957,-2.253760649934014],[119.1287058600874,-2.255647043576195]]],[[[119.1878804952887,-2.134674263706218],[119.1885082445599,-2.134743320847557],[119.1885808684124,-2.13554610067195],[119.1878771111398,-2.134988501218318],[119.1878804952887,-2.134674263706218]]],[[[119.2223350813989,-2.012848736779718],[119.2218004227514,-2.012586712107003],[119.222251970552,-2.011837912289741],[119.2226472019069,-2.012200430805214],[119.2223350813989,-2.012848736779718]]],[[[119.2185275119352,-2.008978374852058],[119.2182566532221,-2.009444044706823],[119.2179952877524,-2.008694753859766],[119.2184647266659,-2.008782863138572],[119.2185275119352,-2.008978374852058]]],[[[119.3269408664279,-1.944586669938777],[119.3269746683463,-1.944820274236195],[119.3267151240039,-1.944799913585074],[119.3266600845953,-1.94461331325371],[119.3269408664279,-1.944586669938777]]],[[[119.3260652891818,-1.944746094556551],[119.3258837160607,-1.944629837397008],[119.3259265022064,-1.944323578670184],[119.3260753552935,-1.944360780025958],[119.3260652891818,-1.944746094556551]]],[[[119.3263981228751,-1.944775725419293],[119.326233916562,-1.944704616924467],[119.3262637290879,-1.944258763630982],[119.3264897682882,-1.944468010690128],[119.3263981228751,-1.944775725419293]]],[[[119.3214766351387,-1.944043577449042],[119.3207899002337,-1.944847456245016],[119.32079944294,-1.942805305420483],[119.3214449754053,-1.943822935080311],[119.3214766351387,-1.944043577449042]]],[[[119.3270110962851,-1.934203413256855],[119.335736594868,-1.93839441766819],[119.335587392844,-1.941946327860736],[119.3295918348954,-1.944808158569591],[119.3239465502931,-1.944946330408717],[119.3270110962851,-1.934203413256855]]],[[[119.3298968804367,-1.933076995307006],[119.3326370580538,-1.934029092268721],[119.3329942525828,-1.934838480311532],[119.33084040596,-1.935745984389639],[119.3298968804367,-1.933076995307006]]],[[[119.3015936643162,-1.891708084960067],[119.301587467088,-1.890145003888824],[119.3030910454155,-1.889685944051037],[119.3032335717721,-1.89091390715104],[119.3015936643162,-1.891708084960067]]],[[[119.4409211493916,-1.732783177301725],[119.4502426619694,-1.753219615193016],[119.5116358913833,-1.793399557043854],[119.5278882316567,-1.791913098210854],[119.5797842659312,-1.819357075068931],[119.5934093627519,-1.810403256604934],[119.6289363751137,-1.820349621737607],[119.656992689561,-1.841931051276971],[119.6788701660254,-1.824977700260602],[119.7066530299135,-1.833079405689977],[119.7442653407729,-1.806577966000303],[119.7775887740028,-1.81108648235522],[119.8115150245987,-1.792265482266123],[119.8366791490236,-1.80428954482659],[119.8506428369974,-1.787433545421704],[119.8714915277119,-1.779693056289469],[119.8588309357991,-1.806065362326573],[119.8587668492108,-1.82574616735163],[119.8748695467922,-1.863245081795009],[119.8537429143041,-1.875206672050281],[119.846975727248,-1.902161206374478],[119.8618965960511,-1.914071125182273],[119.8607971011053,-1.928698195365344],[119.8711550301806,-1.938893823790869],[119.8489312877488,-1.988081315899917],[119.845849934327,-2.015532572769965],[119.847550116145,-2.023946739550356],[119.8703279236947,-2.018475182383719],[119.8513857732349,-2.042042395040403],[119.828374205805,-2.046729568015129],[119.817715806939,-2.059311525006782],[119.8173812834195,-2.09573706621258],[119.8047156831823,-2.112026472043985],[119.7920277779597,-2.108472221815541],[119.7770725361687,-2.119460369700279],[119.7342969269616,-2.125595622040313],[119.7110000001499,-2.142499999575234],[119.6593791494282,-2.135609045121248],[119.6135356487513,-2.151440980216959],[119.5804653360066,-2.145496421022999],[119.5756300024227,-2.133808998086709],[119.5665939958163,-2.138470002588535],[119.5423739976619,-2.116105003642923],[119.5266929607116,-2.124825608115247],[119.5003347740306,-2.120150670417045],[119.4716198977402,-2.138618045386467],[119.4684151519378,-2.159706789436713],[119.4513532239722,-2.175124700044842],[119.4455495022078,-2.17219719274622],[119.4338529331664,-2.194237620969355],[119.4113003500312,-2.185012502225161],[119.389649959578,-2.196262490421555],[119.3712855785667,-2.192470017877016],[119.3548151032345,-2.209060764942341],[119.3487496391846,-2.20078771078416],[119.3340494586157,-2.201865104890624],[119.3152885377359,-2.216597962326075],[119.3131161443946,-2.228012705421969],[119.2939785280867,-2.227426782719791],[119.2893082479774,-2.219754312011871],[119.2744509153775,-2.243680589787347],[119.2518082624413,-2.248875415667831],[119.2006645650178,-2.313287774411224],[119.1302376033827,-2.298387313923358],[119.1307030331185,-2.275577304349044],[119.1526134481521,-2.238197175958836],[119.1451597420286,-2.1984918693043],[119.1658747817958,-2.160888655087303],[119.1878575535833,-2.152692369757039],[119.1852619707633,-2.136700045970288],[119.2007983427694,-2.100752343345905],[119.1922483828566,-2.095894304578463],[119.2093091929649,-2.028066857599311],[119.2228195111116,-2.012600575156378],[119.2225807806785,-2.011735170141973],[119.2189720414266,-2.010661910218905],[119.2127288218777,-2.002088306230279],[119.212359681654,-1.997405833112678],[119.2882978012026,-1.952848073379768],[119.2997246365828,-1.960394096710141],[119.3172554665666,-1.952899559566992],[119.3225582047974,-1.964853619798637],[119.3319026671744,-1.961459946219504],[119.3414185538232,-1.934446280571381],[119.3332034546758,-1.926947655110192],[119.3358217930414,-1.913488447233982],[119.3537952819268,-1.898450001066612],[119.3502460112445,-1.87078326663446],[119.3634939279025,-1.85873946305575],[119.3550299863449,-1.821548632063655],[119.340890723728,-1.818496734136923],[119.3429878725923,-1.783795208581987],[119.3483247805642,-1.786205442027525],[119.3466952845598,-1.778048461567197],[119.3524630568247,-1.782251772301338],[119.351821885172,-1.772210579954317],[119.3652681113343,-1.76889028475882],[119.3772997803607,-1.753036494338714],[119.3859541623548,-1.757603079918171],[119.4152922562327,-1.741826874910293],[119.4124750786621,-1.733138823198102],[119.4409211493916,-1.732783177301725]]]]}}]}