{"type":"FeatureCollection","features":[{"type":"Feature","properties":{"kode":"95.01","nama":"Kabupaten Jayawijaya","lat":-4.093457440422625,"lng":138.86676235179297},"geometry":{"type":"MultiPolygon","coordinates":[[[[138.6815230318626,-3.780909885382824],[138.7236528765791,-3.77628399491037],[138.7353467197754,-3.782203580830481],[138.7373985311174,-3.793574960415993],[138.7496826884054,-3.788709049882735],[138.778155922258,-3.797256941354712],[138.7903278036852,-3.809215110588829],[138.8083313371216,-3.801033457228245],[138.8908266151562,-3.79595965491413],[138.8933749493945,-3.810532747788001],[138.9061213276373,-3.812589271577574],[138.8977358240491,-3.840011290588555],[138.9018546722553,-3.86473021732561],[138.9493396344167,-3.878919636931657],[138.946552200124,-3.895987126304748],[138.9551058679415,-3.916310681292925],[139.0148373093944,-3.974364724352489],[139.0255238246648,-3.965374214448383],[139.0229926818668,-3.953585402843965],[139.0436740492181,-3.943179429287172],[139.061904613807,-3.916235045610852],[139.0718991592189,-3.934423065072304],[139.1059626760367,-3.934377162775762],[139.1162258957085,-3.946468206842171],[139.1411237281776,-3.953221022731926],[139.1759282593818,-3.987196607437474],[139.2022452184422,-3.99717270235829],[139.1940865436592,-4.037243666162185],[139.1993202751108,-4.051335224241173],[139.1890567730517,-4.061257510025998],[139.2091608628836,-4.079226622810308],[139.2059025993256,-4.090651569614215],[139.221426031886,-4.127086978181429],[139.2125589476374,-4.138950328294991],[139.2207347437135,-4.149320171588647],[139.2088487981335,-4.161549760712793],[139.2120125798168,-4.182769770708353],[139.1076787938413,-4.175001518605173],[139.0781215585631,-4.179619567888684],[139.0617361123318,-4.192884409787625],[139.0152662491381,-4.191397191027482],[138.9861783052846,-4.223040134894321],[138.925709240789,-4.227767184707767],[138.919275972908,-4.257418260644188],[138.8728266196529,-4.254865529620469],[138.8631916420807,-4.262093192946439],[138.8342610157333,-4.240381816767405],[138.8228542622145,-4.241701677990031],[138.8027127902631,-4.209945154245423],[138.7933789533761,-4.221380246301257],[138.779998266207,-4.221076086592104],[138.7774226636251,-4.246042415025356],[138.7447368731084,-4.285219385266339],[138.740350210394,-4.317261866441926],[138.7249172046653,-4.311855393211752],[138.7221279411516,-4.351516761689103],[138.7642720787935,-4.357169316410728],[138.7612777095986,-4.367487376740955],[138.7749434216017,-4.386143552682745],[138.7673391752628,-4.413994758751086],[138.7770355360612,-4.440849074425193],[138.7643297361285,-4.466152452573604],[138.7700903587832,-4.473617523429921],[138.7571586230721,-4.478431218425952],[138.626654605126,-4.473943708435327],[138.608519444217,-4.444645530966421],[138.5928819362524,-4.443198550572605],[138.5938086147758,-4.424875516791607],[138.5834610530852,-4.409518344595911],[138.5903401149044,-4.393634109426594],[138.6185152891493,-4.380187645843117],[138.6165218366135,-4.362322382272035],[138.605143430625,-4.354590394431115],[138.6241719780544,-4.31841595832976],[138.6283986747591,-4.266931892692652],[138.6387626499764,-4.257139252274625],[138.6410150002421,-4.224209558424333],[138.6654709975885,-4.165601414273803],[138.6827923242065,-4.057101634033147],[138.6949751647721,-4.043395938171981],[138.6945183082734,-4.030451671307558],[138.7392902460481,-4.018877972140691],[138.7462953802277,-3.997253430901074],[138.7274119770811,-3.982177166442982],[138.7368536777551,-3.969689754278674],[138.7336027050009,-3.952536293315204],[138.7263320990472,-3.938828306880795],[138.7154867940803,-3.936317239648782],[138.7108625637563,-3.919860820720247],[138.7122865853577,-3.913514687252986],[138.7221061370886,-3.919731518894379],[138.7191627135884,-3.899180395858506],[138.7103942022308,-3.900974651259117],[138.7207379489973,-3.882467743891185],[138.7113711213802,-3.871607250274314],[138.6929363558282,-3.875514978133745],[138.6841865063022,-3.858767149184564],[138.6593746121487,-3.842896551334698],[138.6420226015618,-3.81542621085085],[138.6466574636711,-3.803594494390408],[138.6344878629247,-3.766766038022221],[138.6465519471148,-3.75524599420716],[138.6654849460734,-3.751968063375413],[138.6721474700298,-3.777389052162919],[138.6815230318626,-3.780909885382824]]]]}},{"type":"Feature","properties":{"kode":"95.02","nama":"Kabupaten Pegunungan Bintang","lat":-4.540964683231836,"lng":140.5352615258933},"geometry":{"type":"MultiPolygon","coordinates":[[[[139.9757100507782,-4.47546790911664],[139.9762082122393,-4.486729155026373],[139.970051291634,-4.488165755445175],[139.9843780224279,-4.49232495173513],[139.9963949101971,-4.485548811028719],[140.0016563119893,-4.469681977741027],[139.9757100507782,-4.47546790911664],[139.976509751324,-4.454915073771629],[139.9537006896352,-4.453442682134037],[139.9537696586429,-4.442357833747026],[140.0299559919755,-4.425001387703878],[140.0247489811806,-4.436167270403127],[140.0323405209984,-4.438711574779289],[140.039871800843,-4.405967527079627],[140.0347163463824,-4.403303420416441],[140.0314540430697,-4.420193460060132],[139.9784099459623,-4.428513909389389],[139.9677870829077,-4.422410320379891],[140.012304400128,-4.412138678557101],[139.9877959507226,-4.398337804745792],[139.9650473477569,-4.415560024275658],[139.9541265779793,-4.413237196839129],[139.9689982089003,-4.399555296139981],[139.9517471166362,-4.352560941134501],[139.9571009039836,-4.342448232000232],[139.9853386080904,-4.350050892834448],[139.9662004207129,-4.31794697087591],[139.9793081186748,-4.324096207673803],[139.9915851119634,-4.314551969897432],[140.0111860526943,-4.324808495015978],[140.0383119087677,-4.326593089899136],[140.0554440279196,-4.332660715919248],[140.0450251670778,-4.35171384182034],[140.0877624345887,-4.352904561296425],[140.0929392668338,-4.2853387100134],[140.116858026277,-4.306701860602383],[140.1192709981581,-4.056648323561232],[140.1013414942147,-4.039704687920922],[140.1122603007723,-4.027676344587563],[140.1072111551707,-4.016638819425891],[140.1249267400771,-4.001760959800452],[140.1197717811428,-3.995586468240811],[140.1331958273256,-3.989398696392657],[140.1414002524197,-3.9787204333013],[140.1391956030947,-3.966993204572658],[140.152439694936,-3.956533576563251],[140.1225993234001,-3.912783429611524],[140.127496799238,-3.893963877430975],[140.1481945117673,-3.886759890556471],[140.1437708077767,-3.873811494005233],[140.1501866414004,-3.870008138764527],[140.132501078562,-3.848686590813502],[140.1538220473496,-3.842199167557483],[140.162698438682,-3.807572739889922],[140.1499001848457,-3.809705595436766],[140.1482950406836,-3.787934580716337],[140.1348356952113,-3.771924641009308],[140.1361336309624,-3.76582905776475],[140.1540808461543,-3.771959235230485],[140.1611121973701,-3.765257225640431],[140.1262500915686,-3.748256951596998],[140.1414801355999,-3.737201820407579],[140.1224401407,-3.715690665691598],[140.132402036225,-3.715082980295284],[140.1355503423745,-3.696530158040348],[140.1763178652773,-3.708220109870089],[140.1981206026837,-3.697245274649655],[140.2054552520584,-3.677656835394563],[140.2730426097287,-3.670230529815013],[140.284326468192,-3.692645340410097],[140.2852619519775,-3.717910536941707],[140.3212061652324,-3.743575281573966],[140.3210565881911,-3.754323311371691],[140.3512984953294,-3.738978792637118],[140.3735279934222,-3.744696058076594],[140.3842218336708,-3.736524856636761],[140.4058109101454,-3.739003775803587],[140.4069535662541,-3.732714210592272],[140.4240829631583,-3.746252434702038],[140.4487650896373,-3.745911294870366],[140.4586262871735,-3.766459600330199],[140.4951837346417,-3.757671299390866],[140.5291301030719,-3.779886762663923],[140.5441328011879,-3.751178464014851],[140.587773554606,-3.755063426435948],[140.6263217413554,-3.771055276279947],[140.6261100067715,-3.783806563022443],[140.6520967932325,-3.805436191726821],[140.667016956967,-3.790305287159226],[140.6878817572374,-3.793351863797481],[140.7011472790238,-3.838740628577122],[140.7021886669735,-3.886197396992211],[140.7669874679973,-3.87365044071524],[140.7861711116076,-3.852442853055107],[140.8241074571935,-3.866491830033938],[140.8239475631297,-3.894423236742897],[140.8306200515742,-3.892381005878656],[140.824426549246,-3.898980273320854],[140.8397179738055,-3.903154909171727],[140.8360757761762,-3.916515045932536],[140.843616187737,-3.924862701552437],[140.7818592580984,-3.96006670801208],[140.7703169533647,-3.958661979566694],[140.7763250919295,-3.953248705663251],[140.7706024890138,-3.943885526595706],[140.7793225188193,-3.940125086103821],[140.769412063616,-3.925039303221281],[140.7551210206186,-3.936494028376705],[140.7392547745883,-3.924668107147403],[140.7407776298838,-3.918005615566658],[140.7301747515636,-3.912371052681854],[140.7146987375568,-3.917072868418073],[140.706907643573,-3.908703747779699],[140.7004670156404,-3.94277494840505],[140.6772125889898,-3.939399756793341],[140.6606169523106,-3.958733569198783],[140.6444101510077,-3.958726754136402],[140.6299204900387,-3.978577762153959],[140.6179582109028,-3.95408161187685],[140.5863843007949,-3.937465620841676],[140.5847297496782,-3.930739941994668],[140.5940180224139,-3.930528195719576],[140.5961803073753,-3.928789533709923],[140.5850712492388,-3.921105530096083],[140.5668784930481,-3.944701090283045],[140.5664262051053,-3.976210483926648],[140.5522545156335,-3.963697183877882],[140.5420026561978,-3.96656167478138],[140.5311477446727,-3.952389986208862],[140.5046959529559,-3.950826640736762],[140.4943545489234,-3.926119640808759],[140.5074103326208,-3.927907619840701],[140.4936725237681,-3.911740591055393],[140.4975036716572,-3.904849259785495],[140.5018996189723,-3.911093584601202],[140.505211400286,-3.904182897222855],[140.5178013243717,-3.905671519824752],[140.5115127987767,-3.912477490143987],[140.5167127831685,-3.914841318572007],[140.5252719206627,-3.909260636768932],[140.509655822858,-3.885306078912334],[140.5174167688689,-3.884554768187945],[140.5187416384159,-3.867019516237649],[140.5425540916982,-3.828851188731333],[140.53455910342,-3.815278742719721],[140.5100792083888,-3.809886884372185],[140.5027393411477,-3.787136614063494],[140.4965527420155,-3.805584665299991],[140.4748996473009,-3.802491366183583],[140.4613367188146,-3.810105640862618],[140.4339729183156,-3.781790054567294],[140.4051328887718,-3.784752190261356],[140.4175454620534,-3.801063866004542],[140.4002150289006,-3.813880197113376],[140.4221712670903,-3.820118398445318],[140.4145005923285,-3.842659469358958],[140.4319932182125,-3.85518381218313],[140.4123464210506,-3.883882650863571],[140.417071007621,-3.899004466882586],[140.4045537541525,-3.894171719748998],[140.4128624898121,-3.911415399800847],[140.4050602838051,-3.914533388904731],[140.4354375200256,-3.911595392813075],[140.4395687653864,-3.919890778036875],[140.4272849921088,-3.931150287355825],[140.4466560553327,-3.948001907062329],[140.4378333175537,-3.959155601249956],[140.4707169085585,-3.965169679836825],[140.4764297187565,-3.992967440095255],[140.467659038234,-3.98643953026008],[140.4646460153015,-3.991475185131657],[140.4839496248753,-4.000942776387964],[140.5189404263597,-4.063672265262744],[140.5312682691153,-4.062429886030364],[140.5326185678927,-4.072230266013912],[140.5464209948331,-4.069788395318133],[140.5585806652656,-4.082226880765896],[140.5522618514034,-4.096763351447466],[140.5689407077475,-4.097266242443068],[140.5679479002754,-4.116139935609533],[140.5885985593762,-4.115993636596984],[140.6103089516969,-4.061871394449293],[140.640113951098,-4.064677943831965],[140.6408277888714,-4.046189531921287],[140.6638468251709,-4.037458123893225],[140.6843859386602,-4.045734365248757],[140.7080325722455,-4.098658332715813],[140.7185855336954,-4.099210958019198],[140.7207108277426,-4.082042471183092],[140.7076502515579,-4.072318004772038],[140.6803484521195,-4.006306459875189],[140.6569713516465,-3.972174780741502],[140.6726544426484,-3.971152696739535],[140.6760529078155,-3.979517692187676],[140.6920904746958,-3.984038667750303],[140.7184084257084,-4.020468112912992],[140.7786902333677,-4.000141879743937],[140.7929769569211,-4.010581886344935],[140.8033638018981,-4.004039546887553],[140.8122718907352,-4.013010194364933],[140.8101411971586,-3.995264249245681],[140.8275158220976,-3.999609297630949],[140.8510196262548,-3.97348838268268],[140.889786486757,-3.961057239300095],[140.9146855836728,-3.969684819698641],[140.9765059209116,-3.967428447664714],[140.9736138972636,-3.982392128693737],[140.9883841008457,-3.997876801373293],[140.983491869854,-4.008050444971969],[140.9929471538881,-4.00598632910574],[141.0012387907377,-4.01955230899185],[141.0006316638203,-5.344435573442911],[140.8131980692356,-5.296622159085266],[140.7202775469713,-5.281409507043104],[140.736575803031,-5.279244677000142],[140.7417808739883,-5.260476679355256],[140.7253303411225,-5.232293815007497],[140.6337697844481,-5.264823429257851],[140.5933577581541,-5.250434257634832],[140.5541574702911,-5.256063768128331],[140.5449169281738,-5.238210574358408],[140.5219965807777,-5.242040316607336],[140.5097862200581,-5.224786366297776],[140.4690520458154,-5.219637859999152],[140.4347601263788,-5.227942462374704],[140.4128462246736,-5.211949348983216],[140.3878977279978,-5.212738106578277],[140.3874783570407,-5.196219556187545],[140.3529583317617,-5.186512479067654],[140.3520810700854,-5.174658144657565],[140.3159956425849,-5.169714338445955],[140.3101063548245,-5.157572123854395],[140.2963648641473,-5.153990519846532],[140.3035512863628,-5.142308758142613],[140.2942880813299,-5.130614403232039],[140.2695690871438,-5.135662344641448],[140.275076979619,-5.11910311161923],[140.2842749370387,-5.121449373589629],[140.2559712820491,-5.073766368123314],[140.2572352917754,-5.060892941755826],[140.237970916025,-5.047494015436429],[140.215868779021,-5.056017194437937],[140.1855867351397,-5.038292996724339],[140.1401696489102,-5.054878461172033],[140.1118007130325,-5.055102165732331],[140.1099011227387,-5.029330025859993],[140.060023419845,-5.049453753288072],[140.050861420918,-4.922711325167464],[140.0401092722252,-4.898036917569629],[140.0564720798227,-4.884909716909894],[140.0536062911974,-4.843735230996041],[140.0589386261168,-4.834992433054344],[140.0635171555923,-4.842422555356654],[140.0676799698548,-4.822251830257665],[140.0292881985916,-4.782686192813548],[140.0330953372801,-4.719678066089797],[140.0218642807121,-4.707685582323753],[140.0500053229873,-4.658650401194977],[140.0203341597937,-4.651182432723003],[140.0035878003367,-4.672392751624146],[139.9829876165853,-4.677125986974653],[139.9804820451103,-4.663358425850619],[139.9866919249924,-4.650751302230807],[140.0222981361501,-4.643323144947134],[140.0526362635528,-4.655815315424475],[140.0725286772568,-4.679502281804806],[140.0882911900865,-4.685958657765779],[140.1052008376486,-4.581318234448942],[140.0670914885814,-4.562183523850452],[140.0367533620781,-4.562183523850452],[140.034373900735,-4.554450276059343],[140.0635222979158,-4.538091482136133],[140.0645580722972,-4.518579952003135],[140.0211721183986,-4.504617471818831],[140.01623051013,-4.519948092430484],[139.9582906351049,-4.54172809137823],[139.9422292730626,-4.503061849724491],[139.9408815319572,-4.4787783342527],[139.9757100507782,-4.47546790911664]],[[140.0763119011733,-4.428636275643585],[140.0531121560012,-4.455702644261608],[140.0777990641756,-4.466707651736693],[140.0924728424478,-4.456720493356039],[140.0890001517357,-4.430697314929047],[140.0763119011733,-4.428636275643585]]]]}},{"type":"Feature","properties":{"kode":"95.03","nama":"Kabupaten Yahukimo","lat":-4.472568177528574,"lng":139.56483395328334},"geometry":{"type":"MultiPolygon","coordinates":[[[[139.9757100507782,-4.47546790911664],[139.9921384684156,-4.468789680299404],[140.0016563119893,-4.469681977741027],[139.9963949101971,-4.485548811028719],[139.9843780224279,-4.49232495173513],[139.970051291634,-4.488165755445175],[139.9762082122393,-4.486729155026373],[139.9757100507782,-4.47546790911664]]],[[[140.0816656876214,-4.465220488734525],[140.0534095887815,-4.45808210470531],[140.0719098978236,-4.426435273968623],[140.0890001517357,-4.430697314929047],[140.0924728424478,-4.456720493356039],[140.0816656876214,-4.465220488734525]]],[[[139.2670998430834,-4.121941470222604],[139.2883014808287,-4.119077276095398],[139.2884853822947,-4.136621814445077],[139.2494009316078,-4.134172956916318],[139.2548605817506,-4.111055660690146],[139.2670998430834,-4.121941470222604]]],[[[139.3278247772916,-4.092098737067021],[139.3208138191026,-4.101718508002675],[139.3135859534291,-4.084616123135534],[139.319078382961,-4.087938246652703],[139.3278247772916,-4.092098737067021]]],[[[139.2874196496971,-4.070282082651902],[139.2968603458284,-4.073274343835889],[139.3226953537077,-4.071626111355878],[139.3060049500684,-4.089963859844195],[139.2793549864436,-4.075877450383983],[139.2676958318972,-4.065026693726884],[139.2790626033566,-4.043919777075969],[139.2874196496971,-4.070282082651902]]],[[[139.3705588531087,-4.035399259168384],[139.3599468637568,-4.057298116115129],[139.3357638520202,-4.06474822584986],[139.3293116588061,-4.051505846317729],[139.3705588531087,-4.035399259168384]]],[[[139.9757100507782,-4.47546790911664],[139.9408815319572,-4.4787783342527],[139.9422292730626,-4.503061849724491],[139.9582906351049,-4.54172809137823],[140.01623051013,-4.519948092430484],[140.0211721183986,-4.504617471818831],[140.0645580722972,-4.518579952003135],[140.0635222979158,-4.538091482136133],[140.034373900735,-4.554450276059343],[140.0367533620781,-4.562183523850452],[140.0670914885814,-4.562183523850452],[140.1052008376486,-4.581318234448942],[140.0882911900865,-4.685958657765779],[140.0725286772568,-4.679502281804806],[140.0526362635528,-4.655815315424475],[140.0222981361501,-4.643323144947134],[139.9866919249924,-4.650751302230807],[139.980470147979,-4.663893804855126],[139.9829876165853,-4.677125986974653],[140.0035878003367,-4.672392751624146],[140.0203341597937,-4.651182432723003],[140.0500053229873,-4.658650401194977],[140.0218642807121,-4.707685582323753],[140.0330953372801,-4.719678066089797],[140.0292881985916,-4.782686192813548],[140.0676799698548,-4.822251830257665],[140.0635171555923,-4.842422555356654],[140.0589386261168,-4.834992433054344],[140.0536062911974,-4.843735230996041],[140.0564720798227,-4.884909716909894],[140.0401092722252,-4.898036917569629],[140.050861420918,-4.922711325167464],[140.0557250984347,-5.028015136988964],[140.0598754876637,-5.049194335749954],[140.1203002929243,-5.151306150558346],[140.0670776363239,-5.158996581626843],[140.0392686929958,-5.182702397797348],[140.0437344618759,-5.139604806116862],[140.0231396785535,-5.116939171905146],[139.9832996966238,-5.091808221672059],[139.9675429277639,-5.145509509156446],[139.9793308103686,-5.218824618361387],[139.9627075204358,-5.222778319563728],[139.9221191406858,-5.217102050619074],[139.820545916361,-5.163398359246843],[139.8432162953958,-5.148438746750708],[139.845164510234,-5.153834593591602],[139.8729679892814,-5.14945633594113],[139.8876529973879,-5.183757305255357],[139.9188838907791,-5.205321445328329],[139.9476760413163,-5.16487743014922],[139.9288490499438,-5.090652368911622],[139.9630592416908,-5.082103683338326],[139.9826897961972,-5.090408002427329],[139.9874286010491,-5.057493846164077],[139.666537941373,-5.062932457566818],[139.5792210920798,-5.052696704988849],[139.4982060936363,-5.002265940620612],[139.2278623493681,-4.998566330271872],[139.0776326574214,-4.986306391726528],[139.0705895592608,-4.962755537737864],[139.0824269162692,-4.951354470632266],[139.097847110256,-4.952599039713837],[139.1049238646447,-4.934175810665023],[139.1241776967433,-4.924789556792566],[139.1206514163299,-4.919217781875121],[139.1378611074042,-4.899641214570385],[139.1511520206493,-4.85297885598939],[139.1616693338727,-4.842927368203467],[139.1576530686343,-4.830716413032013],[139.1682711832685,-4.835034045584655],[139.1593022660868,-4.786293864570171],[139.1673059642989,-4.75667268029987],[139.1850738249971,-4.738490686296062],[139.2016627149623,-4.738879043233249],[139.191053005392,-4.728479470151361],[139.2069538726232,-4.727352235617202],[139.1932161042399,-4.7185441289084],[139.1141710122824,-4.767042091918919],[139.0936781086578,-4.800936260100277],[139.1076938323046,-4.811677318353505],[139.0972651922349,-4.817482559072841],[139.0973307887849,-4.828100468661647],[139.0758145915702,-4.819964706805704],[139.0651793538442,-4.841797698305042],[139.0490804756835,-4.84845868262205],[139.049302728738,-4.865220761328962],[139.0218160268882,-4.837689400045766],[139.0121242427397,-4.842989711905668],[138.9940356316392,-4.833643669419788],[138.932428932849,-4.83139300987945],[138.9489871847108,-4.813694825955375],[138.9451272459258,-4.802859891071057],[138.9552583947593,-4.786314149678253],[138.9891551403974,-4.771912999085595],[138.9782260563875,-4.765534420776854],[139.0005863006173,-4.750992373399201],[139.0034614655742,-4.740345838389695],[139.0204410120431,-4.74218310116912],[139.0218689762723,-4.729076710821525],[139.0037289473331,-4.714335466308642],[138.9258316987739,-4.6911045866074],[138.9156781909958,-4.694077828029267],[138.8899018234105,-4.681066683980253],[138.8590601323193,-4.70693759369494],[138.8475665627467,-4.703973096381178],[138.8421601758515,-4.725388005651856],[138.8245110796227,-4.737594600909992],[138.8139153751945,-4.763627669181483],[138.8075925350676,-4.767000897573295],[138.8021973663155,-4.7636341892664],[138.8086453192262,-4.764339683129817],[138.8145138119629,-4.747973525557716],[138.818737563388,-4.708339779757045],[138.8262883531251,-4.704687301977353],[138.8289839378585,-4.688125594920203],[138.8404053503267,-4.683557029932997],[138.8324103611493,-4.662465488091774],[138.8417759198229,-4.650054218827096],[138.8367504983368,-4.639698805155648],[138.8420043476226,-4.624013398399621],[138.8289077949588,-4.612591985032013],[138.8051545737246,-4.610466608247313],[138.8212714958829,-4.571522478779302],[138.8163989456549,-4.51273265089103],[138.8318548085526,-4.500000015188535],[138.8109342161413,-4.431645800213493],[138.8251069200484,-4.414313170916076],[138.8165246519912,-4.392737256019499],[138.7738031729781,-4.385034318079287],[138.7611125059375,-4.366961891178248],[138.7630721889304,-4.352904445283892],[138.7868602570952,-4.360283237881005],[138.8044577682115,-4.348605871163949],[138.7850889559906,-4.307012892930631],[138.7711843372874,-4.300236188349318],[138.801370417211,-4.289434219013957],[138.8032071233102,-4.275479632179183],[138.7917857099426,-4.267389464152396],[138.7533281730569,-4.267170842560278],[138.7774226636251,-4.246042415025356],[138.7795103354337,-4.221562698959394],[138.7933789533761,-4.221380246301257],[138.8027127902631,-4.209945154245423],[138.8228542622145,-4.241701677990031],[138.8342610157333,-4.240381816767405],[138.8641846527995,-4.262288646204018],[138.8728266196529,-4.254865529620469],[138.9210813403316,-4.256931427943014],[138.925709240789,-4.227767184707767],[138.9861783052846,-4.223040134894321],[139.0152662491381,-4.191397191027482],[139.0617361123318,-4.192884409787625],[139.0776842722115,-4.179804708620319],[139.0992778048269,-4.176054906208895],[139.1958211551223,-4.178588265835772],[139.2456494627526,-4.204592026101109],[139.2706321363641,-4.17082389880388],[139.2322697630393,-4.169326292874034],[139.2443470195993,-4.150891699991879],[139.2717035436837,-4.169746590132986],[139.3134255161746,-4.149074362591668],[139.322389765875,-4.139348411400048],[139.3118064181317,-4.129424874658197],[139.3292899473732,-4.138705835905546],[139.3566181913765,-4.134712607700644],[139.3574352686228,-4.124386558692697],[139.3330815583673,-4.124415152637154],[139.3278247772916,-4.092098737067021],[139.3582510922142,-4.070262132990957],[139.3843053790901,-4.063591144615566],[139.3953282102288,-4.077813640387154],[139.3805498965605,-4.101182759376767],[139.4013939755516,-4.102824587784395],[139.4010173367807,-4.115028748577812],[139.4423641948517,-4.098898954423172],[139.4251723058572,-4.08648311120661],[139.4290139659219,-4.074781076085701],[139.4639147065986,-4.109563814918074],[139.5124634651169,-4.055238923137752],[139.6020502203415,-4.079111988927123],[139.6186935381763,-4.062061101938211],[139.6009815523569,-4.057031914990786],[139.5794391920652,-4.037593255124586],[139.5814071344317,-4.015291160158865],[139.5716457157772,-4.001580065667445],[139.5998514381934,-3.996403367421378],[139.6340821740531,-4.017290467281212],[139.6422418219026,-3.999704346078639],[139.6397862176599,-3.984685187671191],[139.6577762468763,-3.981745720288712],[139.6705362849217,-3.920378091875401],[139.6920410148809,-3.90565142357431],[139.6954271377523,-3.886377415185541],[139.711508487227,-3.882813934315513],[139.7288385777382,-3.83231606073762],[139.7496065057358,-3.826507507815149],[139.7566345222655,-3.809273444214048],[139.7472342470629,-3.7983176566345],[139.764659011904,-3.785897877085256],[139.7645409866773,-3.771505888785656],[139.7884172513551,-3.77235774191618],[139.790382225959,-3.757388420339305],[139.8158922125556,-3.73734523619367],[139.8245817778269,-3.752397593074422],[139.8143517152594,-3.751292452184865],[139.7932560877982,-3.771984508877926],[139.8287173264435,-3.786118485279813],[139.8343421181943,-3.796780892424215],[139.8522303180748,-3.755537638051523],[139.8404287298021,-3.742012914564333],[139.8342536267035,-3.746743937582567],[139.8190752622137,-3.736119302863441],[139.8379238571004,-3.735259433176255],[139.8456809000536,-3.720649541842816],[139.8401129607446,-3.71046544902123],[139.8603558285587,-3.688743350225357],[139.8740748119031,-3.685136075069709],[139.878129372073,-3.694258690885801],[139.8991903252733,-3.687019813913286],[139.917668627905,-3.696954606569827],[139.9376190478809,-3.69249088634527],[139.9852217969484,-3.741844851958279],[140.0099089281545,-3.734944546353683],[140.0282671146357,-3.710582705327583],[140.0497078893077,-3.728021011260621],[140.0565891310836,-3.719295291444505],[140.0942323732256,-3.725160822713727],[140.1007871907763,-3.707853863664814],[140.1355503423745,-3.696530158040348],[140.132402036225,-3.715082980295284],[140.1224401407,-3.715690665691598],[140.1414801355999,-3.737201820407579],[140.1262500915686,-3.748256951596998],[140.1611121973701,-3.765257225640431],[140.1540808461543,-3.771959235230485],[140.1361336309624,-3.76582905776475],[140.1348356952113,-3.771924641009308],[140.1482950406836,-3.787934580716337],[140.1499001848457,-3.809705595436766],[140.162698438682,-3.807572739889922],[140.1538220473496,-3.842199167557483],[140.132501078562,-3.848686590813502],[140.1501866414004,-3.870008138764527],[140.1437708077767,-3.873811494005233],[140.1481945117673,-3.886759890556471],[140.127496799238,-3.893963877430975],[140.1225993234001,-3.912783429611524],[140.152439694936,-3.956533576563251],[140.1391956030947,-3.966993204572658],[140.1414002524197,-3.9787204333013],[140.1331958273256,-3.989398696392657],[140.1197717811428,-3.995586468240811],[140.1249267400771,-4.001760959800452],[140.1072111551707,-4.016638819425891],[140.1122603007723,-4.027676344587563],[140.1013414942147,-4.039704687920922],[140.1192709981581,-4.056648323561232],[140.116858026277,-4.306701860602383],[140.0929392668338,-4.2853387100134],[140.0877624345887,-4.352904561296425],[140.0450251670778,-4.35171384182034],[140.0554440279196,-4.332660715919248],[140.0383119087677,-4.326593089899136],[140.0111860526943,-4.324808495015978],[139.9915851119634,-4.314551969897432],[139.9793081186748,-4.324096207673803],[139.9662004207129,-4.31794697087591],[139.9853386080904,-4.350050892834448],[139.9571009039836,-4.342448232000232],[139.9517471166362,-4.352560941134501],[139.9689982089003,-4.399555296139981],[139.9541265779793,-4.413237196839129],[139.9650473477569,-4.415560024275658],[139.9877959507226,-4.398337804745792],[140.012304400128,-4.412138678557101],[139.9677870829077,-4.422410320379891],[139.9784099459623,-4.428513909389389],[140.0314540430697,-4.420193460060132],[140.0347163463824,-4.403303420416441],[140.039871800843,-4.405967527079627],[140.0323405209984,-4.438711574779289],[140.0247489811806,-4.436167270403127],[140.0299559919755,-4.425001387703878],[139.9537696586429,-4.442357833747026],[139.9537006896352,-4.453442682134037],[139.976509751324,-4.454915073771629],[139.9757100507782,-4.47546790911664]],[[138.8678088486995,-4.610233348390283],[138.8746448383887,-4.622463181230765],[138.8736128105829,-4.639800790973661],[138.8773692805679,-4.608817373922649],[138.8678088486995,-4.610233348390283]]],[[[139.9207040070843,-3.624838890802076],[139.9302292979438,-3.623853632239252],[139.9253027524202,-3.644017964957039],[139.9108880211653,-3.652401648317374],[139.8955667328185,-3.620919961886651],[139.9040385119678,-3.616673981918675],[139.9207040070843,-3.624838890802076]]]]}},{"type":"Feature","properties":{"kode":"95.04","nama":"Kabupaten Tolikara","lat":-3.453926883638689,"lng":138.47333095879188},"geometry":{"type":"MultiPolygon","coordinates":[[[[138.5398525601476,-3.83221136885952],[138.5455476366142,-3.831323010448509],[138.5761347170436,-3.835126550050186],[138.5874809632759,-3.848617765697229],[138.5741596232681,-3.840872671136777],[138.5773939513698,-3.849396868170876],[138.5697695035598,-3.850385689847682],[138.5570657540814,-3.834100624144446],[138.5345653918794,-3.832782504009272],[138.532870874891,-3.831448009018315],[138.5398525601476,-3.83221136885952]]],[[[138.5901482436466,-3.809089319716266],[138.56857259405,-3.801068237609043],[138.5868326321204,-3.80105358135763],[138.5705270241029,-3.776560037315837],[138.5615365816479,-3.814103735299115],[138.5833545499726,-3.81600333188821],[138.5901482436466,-3.809089319716266],[138.594438651023,-3.818471916046098],[138.5108452881796,-3.813719526934525],[138.4844508039616,-3.785328377802324],[138.4819515178483,-3.802136326430253],[138.4709135178447,-3.793791970423024],[138.4228781499067,-3.785463856172003],[138.4369381732581,-3.775754252856414],[138.4203670655877,-3.768212747720126],[138.419302058743,-3.7829622426133],[138.3720114850421,-3.759978543375],[138.3767743629466,-3.766373331064335],[138.3821138672612,-3.776417015432878],[138.3674021987525,-3.772275305560838],[138.3622053377063,-3.76166610140938],[138.3390297501229,-3.755541389123776],[138.3377331201874,-3.730218117072395],[138.3433962374465,-3.72612544363429],[138.3252126345556,-3.718703995293085],[138.3210672932211,-3.707397903790158],[138.2826577801324,-3.704193159786387],[138.277651729144,-3.696014601892353],[138.2886126851274,-3.685959620240256],[138.2803285414291,-3.673134959610616],[138.2806168766676,-3.650617159554217],[138.2548007716384,-3.619644472314556],[138.2614530352295,-3.595776163039391],[138.2553721972692,-3.557710200865019],[138.27195698093,-3.526914130582595],[138.26650093527,-3.517999761779558],[138.2710070873074,-3.490304555710624],[138.2555653095915,-3.473466597605393],[138.2307975811435,-3.471033214711008],[138.230438608655,-3.441051994953595],[138.212615275075,-3.441189093002242],[138.205511818016,-3.433007733719842],[138.1792592171392,-3.445635653262771],[138.1661781067342,-3.434523996984831],[138.1507855354242,-3.436923185856314],[138.1499470102464,-3.426092041614373],[138.1150861149323,-3.401847787845094],[138.1137056465984,-3.334529045079274],[138.1326491271555,-3.328936696371423],[138.1256136957155,-3.318886230215304],[138.1353580839085,-3.297707044044776],[138.1258426792963,-3.294573511957902],[138.1034346378984,-3.306485055840616],[138.1101101246826,-3.286930439188376],[138.1058604808766,-3.272097906293306],[138.0786651206988,-3.243097428703281],[138.0866136374095,-3.225059635593633],[138.0752275044458,-3.225730444404443],[138.0619061356597,-3.209791052914726],[138.071906437632,-3.198042384348534],[138.0746586904463,-3.131349083193571],[138.1698337717113,-3.106956212858927],[138.2355785785886,-3.151638768814083],[138.2318427678296,-3.168253354208941],[138.2160123480915,-3.173321412553134],[138.1850015376909,-3.206551636448809],[138.1593308629291,-3.198493269348804],[138.1306485852641,-3.268005284116507],[138.147308200613,-3.293472491761998],[138.158336885439,-3.285069311099756],[138.1596275591646,-3.267664849353283],[138.1508651362171,-3.261077291084094],[138.1742952769056,-3.260141686789344],[138.1774257180225,-3.242272220686429],[138.1905893394266,-3.242919963685312],[138.2012981740716,-3.22065112025294],[138.2126258717866,-3.221303449794346],[138.2396450628694,-3.188839110136746],[138.2613536808279,-3.189377252757966],[138.291136610866,-3.174266388682836],[138.3520852883055,-3.239240556606385],[138.3618411068817,-3.24117333368237],[138.3649963090325,-3.233906909576126],[138.3857653593839,-3.245602645845372],[138.3968884370517,-3.237283741551414],[138.4068543075803,-3.24630151170531],[138.4079462913883,-3.239618834841254],[138.4349436226502,-3.229761019655333],[138.4439070629606,-3.240931310831277],[138.4350466013196,-3.259525065729177],[138.4621269606907,-3.272097611315663],[138.4760000293779,-3.295615363058493],[138.4736505667204,-3.30323420179697],[138.4647244761537,-3.298139503735056],[138.4706992741523,-3.312043216820973],[138.4993210724096,-3.299284277747175],[138.5264778462757,-3.324025287337109],[138.5684285451413,-3.316813694896029],[138.6003440546345,-3.332169946185973],[138.6267691427818,-3.308817679592194],[138.640412551598,-3.280447472972428],[138.6370419896962,-3.272004239204287],[138.6490974727702,-3.269807783602266],[138.6745508686278,-3.236848111750914],[138.7026356457185,-3.247773958201508],[138.6792922176618,-3.194673833330677],[138.7030653336983,-3.200771177447839],[138.7190649680739,-3.214598717956443],[138.7493705768907,-3.175214859577993],[138.7642448581138,-3.177642331228617],[138.779267090404,-3.201975706013974],[138.7847891948656,-3.195463219551867],[138.7752036737106,-3.180081044404639],[138.82374184541,-3.168998590912134],[138.8283775600764,-3.176926625563306],[138.8069115837027,-3.181175721682175],[138.8016226122938,-3.189787814855707],[138.8061679918595,-3.223800416555969],[138.8274589772501,-3.225002564616622],[138.8358107023022,-3.213542522669213],[138.851164945406,-3.234495140838048],[138.8776082079524,-3.225456894020409],[138.890399913825,-3.249297738000203],[138.9082581141207,-3.255800954250601],[138.9023265843044,-3.281171798639518],[138.8446331019362,-3.37529945390658],[138.7661508677684,-3.469756236760871],[138.7602971257119,-3.449853515926973],[138.6758112163147,-3.416430517854055],[138.649815550847,-3.396933769877533],[138.5913725716869,-3.386783291915288],[138.6155355546222,-3.402035724568966],[138.6414219812396,-3.447977145229045],[138.6604869440173,-3.451586044560242],[138.6903286987106,-3.483470900661503],[138.7023156102773,-3.48543113493889],[138.714717496915,-3.505178449325877],[138.7067149840094,-3.543799071969536],[138.7216018998079,-3.557647910222864],[138.72735416866,-3.597517575175926],[138.7542543866307,-3.600544309172518],[138.7637131411487,-3.616189876861212],[138.7448812106994,-3.619530602855006],[138.7424275435964,-3.655165280253383],[138.722739848865,-3.672475279910239],[138.7207921556335,-3.689450098643102],[138.6990563259887,-3.723283497835064],[138.6466618388728,-3.711660452867507],[138.6393541682604,-3.740583558184587],[138.6122225969954,-3.742668168700972],[138.617277341776,-3.772601386244981],[138.5952546077141,-3.779627343327244],[138.5758441406946,-3.774765800801008],[138.6209748072416,-3.803325241866398],[138.5937109825759,-3.801939100608889],[138.5901482436466,-3.809089319716266]],[[138.5105803497034,-3.781395497704024],[138.5067143791654,-3.784861022617994],[138.5123694771697,-3.80330908104918],[138.5199191067815,-3.798871779309179],[138.5208132532291,-3.782330451788843],[138.5105803497034,-3.781395497704024]]]]}},{"type":"Feature","properties":{"kode":"95.05","nama":"Kabupaten Mamberamo Tengah","lat":-3.586650430212689,"lng":139.01982774088373},"geometry":{"type":"MultiPolygon","coordinates":[[[[138.9052949819779,-3.288777536054413],[138.8776405979353,-3.329367617321635],[138.8756104368722,-3.340156525802998],[138.8884930003518,-3.360319925024482],[138.8726151773486,-3.425688199250912],[138.8930969599568,-3.402892472709398],[138.8975965091717,-3.413333546805644],[138.9052263241356,-3.398982281606935],[138.9245787713933,-3.389427135054193],[138.9309625738638,-3.364032759004568],[138.9645027643912,-3.346112600815834],[138.9658289703308,-3.329322063062692],[138.9917214188085,-3.319998512621217],[138.9994384059578,-3.301067519150605],[139.0167568682349,-3.301649472245296],[139.0300932583972,-3.285331305195507],[139.04918688077,-3.293970844778629],[139.0527104704119,-3.280184295368896],[139.062840833238,-3.276107171208922],[139.0938892218102,-3.289972985065129],[139.0977854536359,-3.304590592581727],[139.0905229658624,-3.307273861099771],[139.0724038839321,-3.289517657413901],[139.0711152210906,-3.315342850991756],[139.083718213225,-3.335162685809292],[139.1056511517793,-3.336242065618736],[139.1030678303161,-3.364411131668346],[139.1095312488681,-3.379860851297225],[139.1246406038808,-3.377078538643621],[139.1266957660968,-3.35548386478848],[139.1426911457799,-3.364000296176675],[139.1474404241363,-3.375916217959032],[139.1379593709284,-3.418657819302931],[139.143171840608,-3.427881087242282],[139.1687021509836,-3.433279493553767],[139.1829814902037,-3.426938631012957],[139.1955958146951,-3.44645347334909],[139.2066959767381,-3.448979946866951],[139.2521505691936,-3.41878511833851],[139.2695913734432,-3.418692540328452],[139.2702369751563,-3.42712821079825],[139.2501102547846,-3.432912598037932],[139.2492679002933,-3.452559201845665],[139.269484382898,-3.441518090187648],[139.2757380219923,-3.463632706184397],[139.3063742125998,-3.473672537857267],[139.3216268826745,-3.448048593667677],[139.3304639853247,-3.446057672723393],[139.3360583647018,-3.453242855673169],[139.331061002963,-3.475006543617079],[139.3395834139436,-3.484179759788011],[139.3565889373296,-3.482875460434157],[139.3790219502029,-3.467705715946037],[139.3681533222181,-3.451729618626922],[139.3734604113689,-3.435935195153109],[139.4174237875778,-3.443154005552865],[139.439687327708,-3.463396799622556],[139.4636434422911,-3.460164656873379],[139.4584013156682,-3.486831191406361],[139.436391300718,-3.509733502898785],[139.4351892929516,-3.570007249035248],[139.4177699087544,-3.600391148332774],[139.3950013696176,-3.611587569310773],[139.3712067597842,-3.607970788321138],[139.3606323629932,-3.633305514138099],[139.3338692529637,-3.655837816661814],[139.3217243233189,-3.629214583586096],[139.2886459679371,-3.667114057867396],[139.2836995222152,-3.694265582390679],[139.2600278407124,-3.719136841691897],[139.2675221179514,-3.724461787781211],[139.293995793771,-3.719009389771502],[139.3118743061543,-3.730594520220867],[139.2850545514265,-3.724346870611564],[139.2790579673514,-3.747254363997657],[139.2921251013923,-3.756888728232147],[139.2853335912723,-3.773852554551718],[139.2631344713789,-3.771287882329924],[139.2085567900639,-3.740579120030299],[139.1534279160655,-3.762760170745219],[139.1292499899951,-3.751739570824489],[139.1227378353829,-3.735131602641298],[139.1051159778202,-3.748142845615801],[139.1268407808774,-3.788245161584916],[139.1285884900668,-3.803421296655499],[139.1201020258878,-3.815060996167999],[139.0285401328209,-3.859320132418167],[139.0121059712137,-3.834985266556748],[138.9830026642417,-3.828321339658006],[138.9831149320086,-3.815976217328545],[138.972921833376,-3.805082893960313],[138.9550354977901,-3.804924726594797],[138.9527697997866,-3.81004041033666],[138.9676017067534,-3.810783010227661],[138.9593350575669,-3.817497729936273],[138.9669750492592,-3.824767976161139],[138.9526554455925,-3.832487550659883],[138.9572513832449,-3.838257670155334],[138.9745541577483,-3.850361089792356],[138.9937701589657,-3.843974278190368],[139.0171777077851,-3.863830424934081],[138.9477314982102,-3.862442571367522],[138.9452082541577,-3.879253148713849],[138.9285195880086,-3.867751650718068],[138.9018546722553,-3.86473021732561],[138.8977358240491,-3.840011290588555],[138.9061213276373,-3.812589271577574],[138.8933749493945,-3.810532747788001],[138.8957829246423,-3.80075262143629],[138.8819116393107,-3.792518597854924],[138.7903278036852,-3.809215110588829],[138.778155922258,-3.797256941354712],[138.7496826884054,-3.788709049882735],[138.7373985311174,-3.793574960415993],[138.7353467197754,-3.782203580830481],[138.7236528765791,-3.77628399491037],[138.6753861400584,-3.779646514175264],[138.6637427713119,-3.751525791182234],[138.6208082366108,-3.76884669601816],[138.6094246730103,-3.750000006794865],[138.6122225969954,-3.742668168700972],[138.6393541682604,-3.740583558184587],[138.6466618388728,-3.711660452867507],[138.6907413112626,-3.723854787668282],[138.7037012937798,-3.718977858641173],[138.722739848865,-3.672475279910239],[138.7424275435964,-3.655165280253383],[138.7448812106994,-3.619530602855006],[138.7637131411487,-3.616189876861212],[138.7542543866307,-3.600544309172518],[138.72735416866,-3.597517575175926],[138.7216018998079,-3.557647910222864],[138.7067149840094,-3.543799071969536],[138.714717496915,-3.505178449325877],[138.7023156102773,-3.48543113493889],[138.6903286987106,-3.483470900661503],[138.6604869440173,-3.451586044560242],[138.6414219812396,-3.447977145229045],[138.6155355546222,-3.402035724568966],[138.5913725716869,-3.386783291915288],[138.649815550847,-3.396933769877533],[138.6758112163147,-3.416430517854055],[138.7602971257119,-3.449853515926973],[138.7661508677684,-3.469756236760871],[138.8446331019362,-3.37529945390658],[138.9130090274447,-3.252584520858884],[138.9105579818654,-3.273090417888438],[138.9187019347465,-3.279093220775467],[138.9052949819779,-3.288777536054413]]]]}},{"type":"Feature","properties":{"kode":"95.06","nama":"Kabupaten Yalimo","lat":-3.827696213111702,"lng":139.46703542517307},"geometry":{"type":"MultiPolygon","coordinates":[[[[139.3278247772916,-4.092098737067021],[139.3135859534291,-4.084616123135534],[139.3208138191026,-4.101718508002675],[139.3300136668973,-4.093032658730136],[139.3330815583673,-4.124415152637154],[139.3574352686228,-4.124386558692697],[139.3571394042602,-4.134345401019404],[139.3292899473732,-4.138705835905546],[139.3118064181317,-4.129424874658197],[139.322389765875,-4.139348411400048],[139.3134255161746,-4.149074362591668],[139.2717035436837,-4.169746590132986],[139.2443470195993,-4.150891699991879],[139.2322697630393,-4.169326292874034],[139.2706321363641,-4.17082389880388],[139.2649010960089,-4.184205523965703],[139.2456494627526,-4.204592026101109],[139.2128481075542,-4.190782627616121],[139.2088487981335,-4.161549760712793],[139.2206510006432,-4.154875083318446],[139.2125589476374,-4.138950328294991],[139.221426031886,-4.127086978181429],[139.2059025993256,-4.090651569614215],[139.2091608628836,-4.079226622810308],[139.1890567730517,-4.061257510025998],[139.1993202751108,-4.051335224241173],[139.1940865436592,-4.037243666162185],[139.2022452184422,-3.99717270235829],[139.1761479718515,-3.987341207630626],[139.1414484571807,-3.953452326563569],[139.1162258957085,-3.946468206842171],[139.1064119062845,-3.934531899227681],[139.0718991592189,-3.934423065072304],[139.061904613807,-3.916235045610852],[139.0436740492181,-3.943179429287172],[139.0229926818668,-3.953585402843965],[139.0255238246648,-3.965374214448383],[139.0148528595719,-3.974369312693574],[139.0003336540749,-3.966681075071479],[138.9548982630445,-3.915981252432823],[138.946552200124,-3.895987126304748],[138.9477314982102,-3.862442571367522],[139.0171777077851,-3.863830424934081],[138.9937701589657,-3.843974278190368],[138.9745541577483,-3.850361089792356],[138.9572513832449,-3.838257670155334],[138.9526554455925,-3.832487550659883],[138.9669750492592,-3.824767976161139],[138.9593350575669,-3.817497729936273],[138.9676017067534,-3.810783010227661],[138.9530728776113,-3.806749543656432],[138.971461132925,-3.804023063613451],[138.9831149320086,-3.815976217328545],[138.9830026642417,-3.828321339658006],[139.0121059712137,-3.834985266556748],[139.019316503354,-3.853227961201425],[139.0335068771408,-3.859162601772573],[139.1274786061529,-3.806541900987861],[139.1176373969483,-3.762042930836509],[139.1051159778202,-3.748142845615801],[139.1227378353829,-3.735131602641298],[139.1292499899951,-3.751739570824489],[139.1534279160655,-3.762760170745219],[139.2085567900639,-3.740579120030299],[139.2631344713789,-3.771287882329924],[139.2853335912723,-3.773852554551718],[139.2921251013923,-3.756888728232147],[139.2790579673514,-3.747254363997657],[139.2850545514265,-3.724346870611564],[139.3118743061543,-3.730594520220867],[139.293995793771,-3.719009389771502],[139.2675221179514,-3.724461787781211],[139.2600278407124,-3.719136841691897],[139.2836995222152,-3.694265582390679],[139.2886459679371,-3.667114057867396],[139.3217243233189,-3.629214583586096],[139.3338692529637,-3.655837816661814],[139.3606323629932,-3.633305514138099],[139.3712067597842,-3.607970788321138],[139.3950013696176,-3.611587569310773],[139.4177699087544,-3.600391148332774],[139.4351892929516,-3.570007249035248],[139.436391300718,-3.509733502898785],[139.4584013156682,-3.486831191406361],[139.4636434422911,-3.460164656873379],[139.4749594227393,-3.460087882649601],[139.4862940146571,-3.472727074294982],[139.4664030479624,-3.493307245433],[139.4723936668344,-3.522078967869982],[139.4848254127627,-3.518504447821938],[139.4863098580136,-3.492809905952379],[139.4960006556058,-3.486949961271682],[139.5051232822137,-3.497731896409809],[139.4987491951194,-3.516343652137779],[139.5198374580323,-3.524982432693127],[139.5062153046926,-3.542481638916486],[139.5176300855601,-3.55552032470319],[139.504900684719,-3.562653568207599],[139.5211257143804,-3.589585899169892],[139.5188279006872,-3.611664651102744],[139.5279031600029,-3.633514024652465],[139.5150215947708,-3.649429465397505],[139.5178629829903,-3.657288653348603],[139.5926112778882,-3.705136788731769],[139.5951343231906,-3.727187060034767],[139.6093338385858,-3.711000181413196],[139.6219364458105,-3.709746589433463],[139.626019092707,-3.664193208249936],[139.6628229706037,-3.664316059238695],[139.703614203233,-3.637303784841775],[139.6895343471325,-3.599949441813235],[139.6970255837637,-3.579531057811971],[139.7025389072449,-3.580519963125786],[139.6958771980743,-3.575071780238462],[139.7028252369952,-3.559175238746162],[139.6931820656999,-3.556509525893839],[139.6931261098821,-3.548632662667186],[139.684132603437,-3.550418626318466],[139.6751710651926,-3.5317924733439],[139.6857381828709,-3.529030299208882],[139.7025463410409,-3.542796855790245],[139.7187350030181,-3.521623815586564],[139.7257477400663,-3.544076643222452],[139.7371301030719,-3.54835172075523],[139.7449918450976,-3.544346002765833],[139.7444758851541,-3.529260805341819],[139.7578135325686,-3.51010475562992],[139.7827360253474,-3.521552824003551],[139.7731039885583,-3.531173987989147],[139.7801612339539,-3.545182560226914],[139.7702179409054,-3.561845870890215],[139.7809155430179,-3.570064658157415],[139.8064551928529,-3.566963970211015],[139.7995279714388,-3.591891332818678],[139.8212024601255,-3.577402699774693],[139.8387852997018,-3.588083546618373],[139.8636351002797,-3.58574595591106],[139.8758181458908,-3.601225801929145],[139.8554914747518,-3.609503266362582],[139.8816696962995,-3.608244666058427],[139.9077612915504,-3.634725784667195],[139.9108880211653,-3.652401648317374],[139.9253027524202,-3.644017964957039],[139.9302292979438,-3.623853632239252],[139.9406764505578,-3.61588072681405],[139.967505881991,-3.612664861793904],[139.9575138807611,-3.639415735647658],[139.9894270511176,-3.657474628651139],[140.0037841888893,-3.689334974629313],[140.001359915228,-3.701052116561845],[140.0196817646018,-3.701528009010316],[140.0256852159,-3.687316583893166],[140.0211672009057,-3.680039408391947],[140.0389468364274,-3.670410030898166],[140.0502037323165,-3.67339479803144],[140.0647308518474,-3.649107881323646],[140.087111815558,-3.682641949266488],[140.0979072639092,-3.678247821279859],[140.1099871536843,-3.691975549631879],[140.1255801362144,-3.695509166714642],[140.1007871907763,-3.707853863664814],[140.0942323732256,-3.725160822713727],[140.0565891310836,-3.719295291444505],[140.0497078893077,-3.728021011260621],[140.0285576729983,-3.710515409958129],[140.0099089281545,-3.734944546353683],[139.9852217969484,-3.741844851958279],[139.9376190478809,-3.69249088634527],[139.917668627905,-3.696954606569827],[139.8991903252733,-3.687019813913286],[139.878129372073,-3.694258690885801],[139.8740748119031,-3.685136075069709],[139.8641946575576,-3.68666817179866],[139.8401129607446,-3.71046544902123],[139.8456809000536,-3.720649541842816],[139.8379238571004,-3.735259433176255],[139.8190752622137,-3.736119302863441],[139.8342536267035,-3.746743937582567],[139.8404287298021,-3.742012914564333],[139.8522303180748,-3.755537638051523],[139.8343421181943,-3.796780892424215],[139.8287173264435,-3.786118485279813],[139.7932560877982,-3.771984508877926],[139.8143517152594,-3.751292452184865],[139.8245817778269,-3.752397593074422],[139.8158922125556,-3.73734523619367],[139.790382225959,-3.757388420339305],[139.7884172513551,-3.77235774191618],[139.7645409866773,-3.771505888785656],[139.764659011904,-3.785897877085256],[139.7472342470629,-3.7983176566345],[139.7566345222655,-3.809273444214048],[139.7496065057358,-3.826507507815149],[139.7288385777382,-3.83231606073762],[139.711508487227,-3.882813934315513],[139.6954271377523,-3.886377415185541],[139.6920410148809,-3.90565142357431],[139.6705362849217,-3.920378091875401],[139.6577762468763,-3.981745720288712],[139.6397862176599,-3.984685187671191],[139.6422418219026,-3.999704346078639],[139.6340821740531,-4.017290467281212],[139.5998514381934,-3.996403367421378],[139.5716457157772,-4.001580065667445],[139.5814071344317,-4.015291160158865],[139.5794391920652,-4.037593255124586],[139.6009815523569,-4.057031914990786],[139.6186935381763,-4.062061101938211],[139.6020502203415,-4.079111988927123],[139.5124634651169,-4.055238923137752],[139.4639147065986,-4.109563814918074],[139.4290139659219,-4.074781076085701],[139.4251723058572,-4.08648311120661],[139.4423641948517,-4.098898954423172],[139.4010173367807,-4.115028748577812],[139.4013939755516,-4.102824587784395],[139.3805498965605,-4.101182759376767],[139.3953282102288,-4.077813640387154],[139.3861277131235,-4.063378072739779],[139.3582510922142,-4.070262132990957],[139.3278247772916,-4.092098737067021]],[[139.3207559747085,-4.07358186341227],[139.2874785777742,-4.071804874994969],[139.2790626033566,-4.043919777075969],[139.2676958318972,-4.065026693726884],[139.3042917379734,-4.089963859844195],[139.3207559747085,-4.07358186341227]],[[139.3482056649596,-4.044140873602389],[139.3293116588061,-4.051505846317729],[139.3357638520202,-4.06474822584986],[139.3599468637568,-4.057298116115129],[139.3706873428466,-4.035645533114776],[139.3482056649596,-4.044140873602389]],[[139.265753880837,-4.137054122149911],[139.2884853822947,-4.136621814445077],[139.2883014808287,-4.119077276095398],[139.2670998430834,-4.121941470222604],[139.2548605817506,-4.111055660690146],[139.2494009316078,-4.134172956916318],[139.265753880837,-4.137054122149911]]]]}},{"type":"Feature","properties":{"kode":"95.07","nama":"Kabupaten Lanny Jaya","lat":-3.9621549623101373,"lng":138.38440906026074},"geometry":{"type":"MultiPolygon","coordinates":[[[[138.5158627533634,-3.781062372630364],[138.5201591439294,-3.797870791603744],[138.5117107597437,-3.803274869939235],[138.5067143791654,-3.784861022617994],[138.5158627533634,-3.781062372630364]]],[[[138.5901482436466,-3.809089319716266],[138.5833545499726,-3.81600333188821],[138.5615365816479,-3.814103735299115],[138.5705270241029,-3.776560037315837],[138.5868326321204,-3.80105358135763],[138.56857259405,-3.801068237609043],[138.5901482436466,-3.809089319716266]]],[[[138.5901482436466,-3.809089319716266],[138.5937109825759,-3.801939100608889],[138.6209748072416,-3.803325241866398],[138.5758441406946,-3.774765800801008],[138.597222282982,-3.779442931945701],[138.6344878629247,-3.766766038022221],[138.6466574636711,-3.803594494390408],[138.6420226015618,-3.81542621085085],[138.6593746121487,-3.842896551334698],[138.6841865063022,-3.858767149184564],[138.6929363558282,-3.875514978133745],[138.7113711213802,-3.871607250274314],[138.7207379489973,-3.882467743891185],[138.7103942022308,-3.900974651259117],[138.7191627135884,-3.899180395858506],[138.7221061370886,-3.919731518894379],[138.7122865853577,-3.913514687252986],[138.7108625637563,-3.919860820720247],[138.7154867940803,-3.936317239648782],[138.7263320990472,-3.938828306880795],[138.7336027050009,-3.952536293315204],[138.7368536777551,-3.969689754278674],[138.7274119770811,-3.982177166442982],[138.7461430944284,-3.994512291908661],[138.7392902460481,-4.018877972140691],[138.6936045952759,-4.031669955004327],[138.6949751647721,-4.043395938171981],[138.6746411578632,-4.082250477177743],[138.672015107811,-4.136450404562522],[138.642789580275,-4.235713804748256],[138.6306410398522,-4.220386858766448],[138.6550450842633,-4.170619999113592],[138.6496465502481,-4.153060942108747],[138.5523825920831,-4.124317639147693],[138.5430613070338,-4.10729282980016],[138.5206518671899,-4.109781483228828],[138.5103825519133,-4.098350333800818],[138.4957711704032,-4.104956499043125],[138.4941503591518,-4.09675630256128],[138.4541663687829,-4.079776197613397],[138.3537482561771,-4.063907235630351],[138.3461573809584,-4.055770239005232],[138.297924697267,-4.096804776019594],[138.2773079390103,-4.066504269956075],[138.2690604813562,-4.037361141903142],[138.2561169213589,-4.044134583743977],[138.2275163408065,-4.022308248127063],[138.2147454119712,-4.028171113805781],[138.208100788121,-4.023302867733117],[138.1694608912072,-4.036824913039252],[138.1789155052464,-4.060599818726621],[138.1672634571429,-4.072552455331538],[138.0889814660219,-4.098783414023258],[138.0863484750022,-4.078534947929471],[138.0763252789886,-4.079537498656618],[138.0660818488983,-4.106082847745165],[138.0447916063476,-4.090633336758989],[138.0379776221696,-4.098821497613939],[138.0264177204016,-4.091031216617294],[138.0055269108383,-4.120491073304303],[137.983856958332,-4.109091688830338],[137.9877916235846,-4.090190125673734],[137.9683512631004,-4.072780249109156],[137.9770183444211,-4.058069904402542],[137.9601529767786,-4.0293507959025],[137.9460982657225,-4.025084696301631],[137.9638391791349,-4.011004902254436],[137.9601219717516,-4.000758227410264],[137.9491147312599,-4.000162752109285],[137.962045852734,-3.991458548573126],[137.9696105208089,-3.972064368275932],[137.9628607131515,-3.932255902188134],[137.9966650750332,-3.908616642144283],[138.0012461019261,-3.897067379356026],[138.0326197689872,-3.881029288171048],[138.0564732412472,-3.887764832580912],[138.0611289406482,-3.876613374107832],[138.0795268906536,-3.87326641761099],[138.0803467531002,-3.889837409268962],[138.0918199881021,-3.903726609095751],[138.0857337946789,-3.907983917823524],[138.1532108442052,-3.911117458004279],[138.1823028431018,-3.9008735440788],[138.2361922498725,-3.869071768247492],[138.2386158211633,-3.849087581426749],[138.2655637148936,-3.827334241082328],[138.2843240997775,-3.82136978168999],[138.3180211734386,-3.837758620164136],[138.3539400743751,-3.825646322419798],[138.3462696298396,-3.758449518730236],[138.3821138672612,-3.776417015432878],[138.3720114850421,-3.759978543375],[138.419302058743,-3.7829622426133],[138.4203670655877,-3.768212747720126],[138.4369381732581,-3.775754252856414],[138.4228781499067,-3.785463856172003],[138.4709135178447,-3.793791970423024],[138.4819515178483,-3.802136326430253],[138.4844508039616,-3.785328377802324],[138.5103898472138,-3.81357864274017],[138.5292098670418,-3.818721308841313],[138.5938618789227,-3.818760301646565],[138.5901482436466,-3.809089319716266]],[[138.5331927863181,-3.83258031482965],[138.5570657540814,-3.834100624144446],[138.5697695035598,-3.850385689847682],[138.5773939513698,-3.849396868170876],[138.5741596232681,-3.840872671136777],[138.5874809632759,-3.848617765697229],[138.5761347170436,-3.835126550050186],[138.5331927863181,-3.83258031482965]],[[138.1039263746026,-4.067219654563361],[138.1257560655901,-4.068447907245057],[138.134686432433,-4.046125075711673],[138.0825722280259,-4.056157131846108],[138.1039263746026,-4.067219654563361]]]]}},{"type":"Feature","properties":{"kode":"95.08","nama":"Kabupaten Nduga","lat":-4.415756260918866,"lng":138.3367076242913},"geometry":{"type":"MultiPolygon","coordinates":[[[[138.8934206790212,-4.68252866686443],[139.0128422821458,-4.718273474341375],[139.0218689762723,-4.729076710821525],[139.0206551640046,-4.741802387570074],[139.0060693547171,-4.738727804244716],[138.9863483823721,-4.762750842777111],[138.9591288304313,-4.756841122419855],[138.9426941732974,-4.763774163346904],[138.9072355750618,-4.73332049734301],[138.8807595277301,-4.726383465224673],[138.8571585851007,-4.70545785189829],[138.8934206790212,-4.68252866686443]]],[[[138.8736699184321,-4.639572363173963],[138.8678088486995,-4.610233348390283],[138.8741882022238,-4.604268923172208],[138.8781558024484,-4.622467354984375],[138.8736699184321,-4.639572363173963]]],[[[138.7766523376354,-4.268817140598527],[138.7917857099426,-4.267389464152396],[138.8032071233102,-4.275479632179183],[138.801370417211,-4.289434219013957],[138.7711843372874,-4.300236188349318],[138.7850889559906,-4.307012892930631],[138.8044577682115,-4.348605871163949],[138.7868602570952,-4.360283237881005],[138.7221279411516,-4.351516761689103],[138.7249172046653,-4.311855393211752],[138.740350210394,-4.317261866441926],[138.7468318959754,-4.280450070014721],[138.7655907421191,-4.265327241359065],[138.7766523376354,-4.268817140598527]]],[[[138.1259269862415,-4.067216818101629],[138.0987867392168,-4.066267869666421],[138.0825722280259,-4.056157131846108],[138.134686432433,-4.046125075711673],[138.1259269862415,-4.067216818101629]]],[[[138.2344355798382,-4.027409624554481],[138.2551116852561,-4.043882668350454],[138.2700245114221,-4.03835842170375],[138.2773079390103,-4.066504269956075],[138.297924697267,-4.096804776019594],[138.3461573809584,-4.055770239005232],[138.3537482561771,-4.063907235630351],[138.4541663687829,-4.079776197613397],[138.4941503591518,-4.09675630256128],[138.4959633977926,-4.105026075093201],[138.5103825519133,-4.098350333800818],[138.5206518671899,-4.109781483228828],[138.5430613070338,-4.10729282980016],[138.5523825920831,-4.124317639147693],[138.6502556529761,-4.153716324848469],[138.6550450842633,-4.170619999113592],[138.6306410398522,-4.220386858766448],[138.642789580275,-4.235713804748256],[138.6387626499764,-4.257139252274625],[138.6283986747591,-4.266931892692652],[138.6241719780544,-4.31841595832976],[138.605143430625,-4.354590394431115],[138.6165218366135,-4.362322382272035],[138.6185152891493,-4.380187645843117],[138.5903401149044,-4.393634109426594],[138.5834610530852,-4.409518344595911],[138.5938086147758,-4.424875516791607],[138.5928819362524,-4.443198550572605],[138.608519444217,-4.444645530966421],[138.626654605126,-4.473943708435327],[138.7571586230721,-4.478431218425952],[138.7700903587832,-4.473617523429921],[138.7643297361285,-4.466152452573604],[138.7770355360612,-4.440849074425193],[138.7673391752628,-4.413994758751086],[138.7738526635696,-4.385012481640674],[138.8165246519912,-4.392737256019499],[138.8218920685642,-4.400995242036723],[138.8249546351484,-4.415683741311563],[138.8109342161413,-4.431645800213493],[138.8318548085526,-4.500000015188535],[138.8163989456549,-4.51273265089103],[138.8212714958829,-4.571522478779302],[138.8051545737246,-4.610466608247313],[138.8289077949588,-4.612591985032013],[138.8427657757201,-4.627744393289015],[138.8368266412367,-4.63741452176272],[138.8417759198229,-4.650054218827096],[138.8324103611493,-4.662465488091774],[138.8404053503267,-4.683557029932997],[138.8289839378585,-4.688125594920203],[138.8262883531251,-4.704687301977353],[138.818737563388,-4.708339779757045],[138.8082117929399,-4.764777713220861],[138.799621505628,-4.760691544579101],[138.807297006152,-4.726909680137561],[138.7666428391957,-4.722919926013772],[138.7536379589248,-4.709060809408763],[138.7364787090253,-4.718854215149884],[138.6287927918539,-4.716194498976892],[138.6248597912464,-4.723066045161842],[138.6119978851943,-4.718273043566048],[138.6029532289084,-4.723862014420346],[138.5869083991035,-4.698615091213457],[138.5723053570067,-4.707180655262968],[138.5564093362219,-4.70361799997068],[138.5357066441464,-4.720439951042879],[138.5519519139498,-4.743278697553846],[138.5696551043996,-4.749453398655382],[138.5675492806748,-4.764765230630788],[138.5752587351026,-4.775579881306482],[138.5682274270541,-4.784253016863163],[138.5764336453965,-4.787738568779856],[138.5711515349154,-4.793451828638931],[138.4005486930678,-4.811869654560821],[138.3901508116107,-4.800369391334305],[138.3605265219815,-4.795777031184992],[138.3734281978531,-4.768114950744343],[138.3559822350921,-4.756416045264247],[138.3575549613925,-4.745365084231226],[138.3466568752147,-4.744708877712503],[138.3564413497885,-4.727232543946672],[138.3391911784302,-4.706267409912959],[138.3257394358264,-4.667533952929562],[138.301473494906,-4.665094971755471],[138.2812337936048,-4.680646353446408],[138.243490252773,-4.670033731871184],[138.2111982016358,-4.709455297024315],[138.2021901225762,-4.702885566015949],[138.1926636446116,-4.713479837824222],[138.1700251978046,-4.684390529699181],[138.1538179090693,-4.67600642815407],[138.1422342831856,-4.629622475396891],[138.1245727340445,-4.605537335079893],[138.1329076552641,-4.588929172643111],[138.1087757987642,-4.574722817004309],[138.0700680830756,-4.565338486781714],[138.059634684693,-4.587321193817997],[138.0509802253572,-4.595315128989943],[138.0388743415777,-4.593675842965775],[138.0296117130102,-4.61221112394419],[137.9944871238818,-4.586033500445621],[137.9743070907997,-4.590936231022161],[137.9746636009445,-4.600074186574401],[137.9405268811108,-4.603116138898658],[137.8295376551388,-4.541315668583204],[137.8337538918287,-4.499999983712291],[137.8415923809837,-4.493232740898259],[137.8345732947218,-4.485688386709599],[137.8648853669662,-4.423921852311599],[137.9325384830646,-4.425140861761248],[137.9707236926443,-4.222052977862559],[137.9018796079577,-4.215199412722617],[137.8971979226461,-4.262553385929982],[137.8649699068358,-4.277764626036598],[137.8658120355971,-4.231014398295743],[137.850533313062,-4.205498938425192],[137.8326871798695,-4.21167221410135],[137.8246285061008,-4.237765036027577],[137.8052151153853,-4.222348450120775],[137.7491526353858,-4.212031107449635],[137.7252658000767,-4.216392072935784],[137.7296221898123,-4.20265039789747],[137.7103422198177,-4.191995340012936],[137.7293057138877,-4.157831904918455],[137.7381132890971,-4.155596400753295],[137.7358643652483,-4.120675338096261],[137.8408324520562,-4.150078613037492],[137.8426086904388,-4.193759703747249],[137.8796856978367,-4.177077479442096],[137.9247494539242,-4.190530803953399],[137.9249699434082,-4.162457052550897],[137.9540095253194,-4.165675924903914],[137.9494015178658,-4.14708887984794],[137.9798908923509,-4.12143111305541],[138.0061073926421,-4.120188580938214],[138.0264177204016,-4.091031216617294],[138.0379776221696,-4.098821497613939],[138.0447916063476,-4.090633336758989],[138.0660818488983,-4.106082847745165],[138.0763252789886,-4.079537498656618],[138.08474339739,-4.077286783358305],[138.0880937587201,-4.098715138392864],[138.1094962591451,-4.095424570287667],[138.1294178387623,-4.080712063610806],[138.172464392118,-4.069769669634551],[138.1789155052464,-4.060599818726621],[138.1694608912072,-4.036824913039252],[138.208100788121,-4.023302867733117],[138.2344355798382,-4.027409624554481]]]]}}]}