{
  "type": "FeatureCollection",
  "features": [
    {"type":"Feature","properties":{"name":"Merapi","elevation":2930,"status":"Active","island":"Java"},"geometry":{"type":"Point","coordinates":[110.446,-7.541]}},
    {"type":"Feature","properties":{"name":"Krakatau","elevation":813,"status":"Active","island":"Sunda Strait"},"geometry":{"type":"Point","coordinates":[105.423,-6.102]}},
    {"type":"Feature","properties":{"name":"Agung","elevation":3142,"status":"Active","island":"Bali"},"geometry":{"type":"Point","coordinates":[115.508,-8.343]}},
    {"type":"Feature","properties":{"name":"Bromo","elevation":2329,"status":"Active","island":"Java"},"geometry":{"type":"Point","coordinates":[112.950,-7.942]}},
    {"type":"Feature","properties":{"name":"Semeru","elevation":3676,"status":"Active","island":"Java"},"geometry":{"type":"Point","coordinates":[112.922,-8.108]}},
    {"type":"Feature","properties":{"name":"Rinjani","elevation":3726,"status":"Active","island":"Lombok"},"geometry":{"type":"Point","coordinates":[116.460,-8.415]}},
    {"type":"Feature","properties":{"name":"Sinabung","elevation":2460,"status":"Active","island":"Sumatra"},"geometry":{"type":"Point","coordinates":[98.392,3.170]}},
    {"type":"Feature","properties":{"name":"Kelud","elevation":1731,"status":"Active","island":"Java"},"geometry":{"type":"Point","coordinates":[112.308,-7.930]}},
    {"type":"Feature","properties":{"name":"Tambora","elevation":2850,"status":"Active","island":"Sumbawa"},"geometry":{"type":"Point","coordinates":[117.990,-8.250]}},
    {"type":"Feature","properties":{"name":"Tangkuban Parahu","elevation":2084,"status":"Active","island":"Java"},"geometry":{"type":"Point","coordinates":[107.600,-6.770]}},
    {"type":"Feature","properties":{"name":"Papandayan","elevation":2665,"status":"Active","island":"Java"},"geometry":{"type":"Point","coordinates":[107.731,-7.320]}},
    {"type":"Feature","properties":{"name":"Galunggung","elevation":2168,"status":"Active","island":"Java"},"geometry":{"type":"Point","coordinates":[108.058,-7.250]}},
    {"type":"Feature","properties":{"name":"Kerinci","elevation":3805,"status":"Active","island":"Sumatra"},"geometry":{"type":"Point","coordinates":[101.264,-1.697]}},
    {"type":"Feature","properties":{"name":"Dukono","elevation":1229,"status":"Active","island":"Halmahera"},"geometry":{"type":"Point","coordinates":[127.894,1.693]}},
    {"type":"Feature","properties":{"name":"Soputan","elevation":1784,"status":"Active","island":"Sulawesi"},"geometry":{"type":"Point","coordinates":[124.725,1.112]}},
    {"type":"Feature","properties":{"name":"Lokon","elevation":1580,"status":"Active","island":"Sulawesi"},"geometry":{"type":"Point","coordinates":[124.792,1.358]}},
    {"type":"Feature","properties":{"name":"Karangetang","elevation":1784,"status":"Active","island":"Siau"},"geometry":{"type":"Point","coordinates":[125.407,2.781]}},
    {"type":"Feature","properties":{"name":"Ibu","elevation":1325,"status":"Active","island":"Halmahera"},"geometry":{"type":"Point","coordinates":[127.630,1.488]}},
    {"type":"Feature","properties":{"name":"Gamalama","elevation":1715,"status":"Active","island":"Ternate"},"geometry":{"type":"Point","coordinates":[127.325,0.800]}},
    {"type":"Feature","properties":{"name":"Lewotolok","elevation":1423,"status":"Active","island":"Lembata"},"geometry":{"type":"Point","coordinates":[123.508,-8.272]}}
  ]
}
