{
  "type": "FeatureCollection",
  "features": [
    {"type":"Feature","properties":{"name":"Sumatra","area_km2":473481,"population_m":58.6},"geometry":{"type":"Polygon","coordinates":[[[95.2,5.9],[98.5,5.2],[100.5,3.0],[102.5,1.5],[104.5,-1.0],[105.8,-2.7],[106.0,-5.9],[104.5,-5.9],[103.5,-5.0],[101.0,-3.5],[99.5,-1.5],[97.5,0.5],[95.5,2.5],[95.0,4.5],[95.2,5.9]]]}},
    {"type":"Feature","properties":{"name":"Java","area_km2":129000,"population_m":151.6},"geometry":{"type":"Polygon","coordinates":[[[105.2,-5.9],[106.0,-6.0],[107.5,-6.2],[108.5,-6.5],[110.0,-6.8],[111.5,-7.0],[112.5,-7.2],[114.4,-7.7],[114.6,-8.2],[113.0,-8.4],[111.0,-8.0],[109.0,-7.7],[107.5,-7.0],[106.0,-6.8],[105.0,-6.5],[105.2,-5.9]]]}},
    {"type":"Feature","properties":{"name":"Kalimantan","area_km2":544150,"population_m":16.2},"geometry":{"type":"Polygon","coordinates":[[[108.8,-3.5],[109.0,-1.5],[109.5,0.5],[110.5,1.5],[112.0,2.0],[114.5,4.5],[117.5,4.2],[118.0,2.5],[117.5,1.0],[117.0,0.0],[116.5,-1.5],[115.5,-3.5],[114.0,-4.0],[112.5,-3.5],[110.5,-3.0],[108.8,-3.5]]]}},
    {"type":"Feature","properties":{"name":"Sulawesi","area_km2":180681,"population_m":19.4},"geometry":{"type":"Polygon","coordinates":[[[119.5,-5.5],[120.5,-5.5],[121.5,-4.5],[122.5,-3.5],[124.5,-1.5],[125.0,1.5],[124.0,1.5],[123.0,0.5],[122.0,-1.0],[121.0,-2.0],[120.0,-3.0],[119.5,-5.5]]]}},
    {"type":"Feature","properties":{"name":"Papua","area_km2":419615,"population_m":4.3},"geometry":{"type":"Polygon","coordinates":[[[130.5,-0.5],[132.5,-0.5],[135.0,-1.5],[138.0,-2.0],[141.0,-2.5],[141.0,-9.0],[138.5,-8.5],[136.0,-7.0],[134.0,-5.0],[132.0,-3.5],[130.5,-2.0],[130.5,-0.5]]]}}
  ]
}
